{"type":"FeatureCollection","features":[{"type":"Feature","properties":{"id":"ukk3105-30600","name":"Porthcurno","kind":"coastal","district":"Cornwall","undertaker":"South West Water","rain":false,"desYr":1988,"cls":"Excellent","clsYear":2025,"clsFrom":2022,"hist":"EEEEEUEEEEE","histFrom":2015,"ovf":[{"n":"Porthcurno Valley Pumping Station","s":24,"h":394.4}],"ovfYear":2025},"geometry":{"type":"Point","coordinates":[-5.65044,50.0429]}},{"type":"Feature","properties":{"id":"ukk3105-30500","name":"Wherry Town","kind":"coastal","district":"Cornwall","undertaker":"South West Water","rain":true,"desYr":1988,"cls":"Excellent","clsYear":2025,"clsFrom":2022,"hist":"GEEEEUGGGGE","histFrom":2015,"ovf":[],"ovfYear":2025},"geometry":{"type":"Point","coordinates":[-5.5449,50.10892]}},{"type":"Feature","properties":{"id":"ukk3105-30400","name":"Penzance","kind":"coastal","district":"Cornwall","undertaker":"South West Water","rain":true,"desYr":1988,"cls":"Excellent","clsYear":2025,"clsFrom":2022,"hist":"EEEEGUGGGGE","histFrom":2015,"ovf":[],"ovfYear":2025},"geometry":{"type":"Point","coordinates":[-5.53557,50.11465]}},{"type":"Feature","properties":{"id":"ukk3105-30300","name":"Long Rock","kind":"coastal","district":"Cornwall","undertaker":"South West Water","rain":true,"desYr":1988,"cls":"Excellent","clsYear":2025,"clsFrom":2022,"hist":"GEGGGUGGGEE","histFrom":2015,"ovf":[{"n":"Bolitho Road CSO","s":106,"h":329.5},{"n":"Finns CSO","s":52,"h":97.1},{"n":"Outside 5 Trevarrack Lane CSO","s":48,"h":20.8},{"n":"Gladstone Terrace North","s":23,"h":125},{"n":"Longrock Industrial Estate","s":6,"h":3.7},{"n":"Albert Pier Pumping Station","s":1,"h":0.8}],"ovfYear":2025},"geometry":{"type":"Point","coordinates":[-5.50533,50.12751]}},{"type":"Feature","properties":{"id":"ukk3105-30200","name":"Marazion","kind":"coastal","district":"Cornwall","undertaker":"South West Water","rain":true,"desYr":1988,"cls":"Excellent","clsYear":2025,"clsFrom":2022,"hist":"GGGEEUGGGGE","histFrom":2015,"ovf":[],"ovfYear":2025},"geometry":{"type":"Point","coordinates":[-5.48079,50.1265]}},{"type":"Feature","properties":{"id":"ukk3105-30100","name":"Perranuthnoe","kind":"coastal","district":"Cornwall","undertaker":"South West Water","rain":false,"desYr":1988,"cls":"Excellent","clsYear":2025,"clsFrom":2022,"hist":"EEEEEUEEEEE","histFrom":2015,"ovf":[{"n":"Perranuthnoe Pumping Station","s":50,"h":565.8}],"ovfYear":2025},"geometry":{"type":"Point","coordinates":[-5.4425,50.11224]}},{"type":"Feature","properties":{"id":"ukk3103-30000","name":"Praa Sands West","kind":"coastal","district":"Cornwall","undertaker":"South West Water","rain":false,"desYr":1988,"cls":"Excellent","clsYear":2025,"clsFrom":2022,"hist":"EEEEEUEEEEE","histFrom":2015,"ovf":[],"ovfYear":2025},"geometry":{"type":"Point","coordinates":[-5.39094,50.10323]}},{"type":"Feature","properties":{"id":"ukk3103-29900","name":"Praa Sands East","kind":"coastal","district":"Cornwall","undertaker":"South West Water","rain":false,"desYr":1988,"cls":"Excellent","clsYear":2025,"clsFrom":2022,"hist":"EEEEEUEEEEE","histFrom":2015,"ovf":[],"ovfYear":2025},"geometry":{"type":"Point","coordinates":[-5.37877,50.09927]}},{"type":"Feature","properties":{"id":"ukk3103-29800","name":"Porthleven Sands","kind":"coastal","district":"Cornwall","undertaker":"South West Water","rain":false,"desYr":1988,"cls":"Excellent","clsYear":2025,"clsFrom":2022,"hist":"EEEGGUGGEEE","histFrom":2015,"ovf":[{"n":"Porthleven Harbour Attenuation","s":13,"h":53.5},{"n":"Breageside Pumping Station (Porthle","s":0,"h":0}],"ovfYear":2025},"geometry":{"type":"Point","coordinates":[-5.31485,50.08105]}},{"type":"Feature","properties":{"id":"ukk3103-29501","name":"Church Cove","kind":"coastal","district":"Cornwall","undertaker":"South West Water","rain":false,"desYr":2004,"cls":"Excellent","clsYear":2025,"clsFrom":2022,"hist":"EEEEEUEEEEE","histFrom":2015,"ovf":[],"ovfYear":2025},"geometry":{"type":"Point","coordinates":[-5.26792,50.03857]}},{"type":"Feature","properties":{"id":"ukk3103-29500","name":"Poldhu Cove","kind":"coastal","district":"Cornwall","undertaker":"South West Water","rain":true,"desYr":1988,"cls":"Excellent","clsYear":2025,"clsFrom":2022,"hist":"EEEEEUEEEEE","histFrom":2015,"ovf":[],"ovfYear":2025},"geometry":{"type":"Point","coordinates":[-5.2613,50.03354]}},{"type":"Feature","properties":{"id":"ukk3103-29400","name":"Polurrian Cove","kind":"coastal","district":"Cornwall","undertaker":"South West Water","rain":false,"desYr":1988,"cls":"Excellent","clsYear":2025,"clsFrom":2022,"hist":"EEEEEUEEEEE","histFrom":2015,"ovf":[{"n":"Mullion Transfer PS","s":9,"h":11.9}],"ovfYear":2025},"geometry":{"type":"Point","coordinates":[-5.25628,50.02333]}},{"type":"Feature","properties":{"id":"ukk3103-29200","name":"Kennack Sands","kind":"coastal","district":"Cornwall","undertaker":"South West Water","rain":true,"desYr":1988,"cls":"Excellent","clsYear":2025,"clsFrom":2022,"hist":"EEEEEUEEEEE","histFrom":2015,"ovf":[],"ovfYear":2025},"geometry":{"type":"Point","coordinates":[-5.16362,50.00511]}},{"type":"Feature","properties":{"id":"ukk3103-29100","name":"Coverack","kind":"coastal","district":"Cornwall","undertaker":"South West Water","rain":true,"desYr":1988,"cls":"Excellent","clsYear":2025,"clsFrom":2022,"hist":"EEEEEUEEEEE","histFrom":2015,"ovf":[{"n":"Coverack Mill PS","s":24,"h":99.3},{"n":"Coverack Harbour Pseo/CSO","s":7,"h":1.5}],"ovfYear":2025},"geometry":{"type":"Point","coordinates":[-5.09716,50.02436]}},{"type":"Feature","properties":{"id":"ukk3102-28800","name":"Maenporth","kind":"coastal","district":"Cornwall","undertaker":"South West Water","rain":true,"desYr":1988,"cls":"Excellent","clsYear":2025,"clsFrom":2022,"hist":"GGGGGUGGGGE","histFrom":2015,"ovf":[{"n":"Pennance Mill Tidal Tanks CSO","s":0,"h":0}],"ovfYear":2025},"geometry":{"type":"Point","coordinates":[-5.09357,50.12494]}},{"type":"Feature","properties":{"id":"ukk3103-28900","name":"Porthallow","kind":"coastal","district":"Cornwall","undertaker":"South West Water","rain":true,"desYr":1988,"cls":"Excellent","clsYear":2025,"clsFrom":2022,"hist":"EEEEEUEEEEE","histFrom":2015,"ovf":[{"n":"Porthallow Sewage Pumping Station","s":1,"h":0.8}],"ovfYear":2025},"geometry":{"type":"Point","coordinates":[-5.07932,50.06856]}},{"type":"Feature","properties":{"id":"ukk3102-28700","name":"Swanpool","kind":"coastal","district":"Cornwall","undertaker":"South West Water","rain":false,"desYr":1988,"cls":"Excellent","clsYear":2025,"clsFrom":2022,"hist":"EEEEEUEGGGE","histFrom":2015,"ovf":[{"n":"Swanvale Pumping Station","s":42,"h":690},{"n":"Queen Mary Gardens Pumping Station","s":26,"h":19.2},{"n":"Swanpool Pscso/EO","s":1,"h":0.2}],"ovfYear":2025},"geometry":{"type":"Point","coordinates":[-5.07583,50.14062]}},{"type":"Feature","properties":{"id":"ukk3102-28600","name":"Gyllyngvase","kind":"coastal","district":"Cornwall","undertaker":"South West Water","rain":false,"desYr":1988,"cls":"Excellent","clsYear":2025,"clsFrom":2022,"hist":"EEEEEUEEEEE","histFrom":2015,"ovf":[{"n":"Queen Mary Gardens Pumping Station","s":26,"h":19.2}],"ovfYear":2025},"geometry":{"type":"Point","coordinates":[-5.0674,50.14462]}},{"type":"Feature","properties":{"id":"ukk3103-29000","name":"Porthoustock","kind":"coastal","district":"Cornwall","undertaker":"South West Water","rain":false,"desYr":1988,"cls":"Excellent","clsYear":2025,"clsFrom":2022,"hist":"EEEEEUEEEEE","histFrom":2015,"ovf":[{"n":"St Keverne STW","s":22,"h":143.2}],"ovfYear":2025},"geometry":{"type":"Point","coordinates":[-5.06423,50.05555]}},{"type":"Feature","properties":{"id":"ukk3102-28550","name":"Porthcurnick","kind":"coastal","district":"Cornwall","undertaker":"South West Water","rain":true,"desYr":1998,"cls":"Excellent","clsYear":2025,"clsFrom":2022,"hist":"EEEEGUGEEEE","histFrom":2015,"ovf":[],"ovfYear":2025},"geometry":{"type":"Point","coordinates":[-4.97255,50.18613]}},{"type":"Feature","properties":{"id":"ukk3102-28500","name":"Pendower","kind":"coastal","district":"Cornwall","undertaker":"South West Water","rain":true,"desYr":1988,"cls":"Excellent","clsYear":2025,"clsFrom":2022,"hist":"EEEEEUGEEEE","histFrom":2015,"ovf":[],"ovfYear":2025},"geometry":{"type":"Point","coordinates":[-4.94783,50.20565]}},{"type":"Feature","properties":{"id":"ukk3106-28400","name":"Porthluney","kind":"coastal","district":"Cornwall","undertaker":"South West Water","rain":true,"desYr":1988,"cls":"Sufficient","clsYear":2025,"clsFrom":2022,"hist":"SGGGGUSSPPS","histFrom":2015,"ovf":[],"ovfYear":2025},"geometry":{"type":"Point","coordinates":[-4.8433,50.23677]}},{"type":"Feature","properties":{"id":"ukk3106-28300","name":"Vault Beach","kind":"coastal","district":"Cornwall","undertaker":"South West Water","rain":false,"desYr":1988,"cls":"Excellent","clsYear":2025,"clsFrom":2022,"hist":"EEEEEUEEEEE","histFrom":2015,"ovf":[],"ovfYear":2025},"geometry":{"type":"Point","coordinates":[-4.78765,50.23488]}},{"type":"Feature","properties":{"id":"ukk3106-28200","name":"Gorran Haven Little Perhaver","kind":"coastal","district":"Cornwall","undertaker":"South West Water","rain":true,"desYr":1988,"cls":"Excellent","clsYear":2025,"clsFrom":2022,"hist":"GGGGGUGEEEE","histFrom":2015,"ovf":[{"n":"Gorran Haven Pscso/EO","s":50,"h":387},{"n":"Gorran Churchtown Pumping Station","s":30,"h":117.2}],"ovfYear":2025},"geometry":{"type":"Point","coordinates":[-4.78758,50.24082]}},{"type":"Feature","properties":{"id":"ukk3106-28100","name":"Portmellon","kind":"coastal","district":"Cornwall","undertaker":"South West Water","rain":true,"desYr":1988,"cls":"Excellent","clsYear":2025,"clsFrom":2022,"hist":"GEGGEUEEEEE","histFrom":2015,"ovf":[{"n":"Portmellon Pscso/EO","s":0,"h":0}],"ovfYear":2025},"geometry":{"type":"Point","coordinates":[-4.78557,50.26183]}},{"type":"Feature","properties":{"id":"ukk3106-28000","name":"Polstreath","kind":"coastal","district":"Cornwall","undertaker":"South West Water","rain":false,"desYr":1988,"cls":"Excellent","clsYear":2025,"clsFrom":2022,"hist":"EEEEEUEEEEE","histFrom":2015,"ovf":[{"n":"Mevagissey PS","s":22,"h":31.4}],"ovfYear":2025},"geometry":{"type":"Point","coordinates":[-4.7842,50.27437]}},{"type":"Feature","properties":{"id":"ukk3106-27900","name":"Pentewan","kind":"coastal","district":"Cornwall","undertaker":"South West Water","rain":false,"desYr":1988,"cls":"Excellent","clsYear":2025,"clsFrom":2022,"hist":"EEEEEUEEEEE","histFrom":2015,"ovf":[{"n":"St Austell WWTW (Menagwins)","s":106,"h":1890.7},{"n":"Pentewan Pscso/EO","s":2,"h":1.5}],"ovfYear":2025},"geometry":{"type":"Point","coordinates":[-4.78258,50.28754]}},{"type":"Feature","properties":{"id":"ukk3106-27800","name":"Porthpean","kind":"coastal","district":"Cornwall","undertaker":"South West Water","rain":true,"desYr":1988,"cls":"Excellent","clsYear":2025,"clsFrom":2022,"hist":"EEEEEUEEEEE","histFrom":2015,"ovf":[{"n":"Porthpean Pscso/EO","s":0,"h":0}],"ovfYear":2025},"geometry":{"type":"Point","coordinates":[-4.76572,50.32356]}},{"type":"Feature","properties":{"id":"ukk3106-27700","name":"Duporth","kind":"coastal","district":"Cornwall","undertaker":"South West Water","rain":false,"desYr":1988,"cls":"Excellent","clsYear":2025,"clsFrom":2022,"hist":"EEEEEUEEEEE","histFrom":2015,"ovf":[],"ovfYear":2025},"geometry":{"type":"Point","coordinates":[-4.76187,50.32743]}},{"type":"Feature","properties":{"id":"ukk3106-27600","name":"Charlestown","kind":"coastal","district":"Cornwall","undertaker":"South West Water","rain":false,"desYr":1988,"cls":"Excellent","clsYear":2025,"clsFrom":2022,"hist":"EEEEEUEEEEE","histFrom":2015,"ovf":[{"n":"Charlestown Harbour Pscso/EO","s":30,"h":57.5},{"n":"Charlestown Pumping Station","s":18,"h":51.4}],"ovfYear":2025},"geometry":{"type":"Point","coordinates":[-4.75534,50.33118]}},{"type":"Feature","properties":{"id":"ukk3106-27500","name":"Crinnis Beach","kind":"coastal","district":"Cornwall","undertaker":"South West Water","rain":true,"desYr":1988,"cls":"Excellent","clsYear":2025,"clsFrom":2022,"hist":"EEEEEUEEEEE","histFrom":2015,"ovf":[],"ovfYear":2025},"geometry":{"type":"Point","coordinates":[-4.73384,50.3361]}},{"type":"Feature","properties":{"id":"ukk3106-27400","name":"Shorthorn Beach","kind":"coastal","district":"Cornwall","undertaker":"South West Water","rain":true,"desYr":1988,"cls":"Excellent","clsYear":2025,"clsFrom":2022,"hist":"EEEEEUEEEEE","histFrom":2015,"ovf":[{"n":"Daniels Lane CSO","s":24,"h":60.7},{"n":"Par Sewage Treatment Works","s":11,"h":55.3}],"ovfYear":2025},"geometry":{"type":"Point","coordinates":[-4.72297,50.33761]}},{"type":"Feature","properties":{"id":"ukk3106-27300","name":"Par Sands","kind":"coastal","district":"Cornwall","undertaker":"South West Water","rain":true,"desYr":1988,"cls":"Good","clsYear":2025,"clsFrom":2022,"hist":"GGGGGUSGSSG","histFrom":2015,"ovf":[{"n":"St Austell North STW","s":86,"h":1557.9},{"n":"Par No2 Pumping Station","s":7,"h":28.1},{"n":"Tredenham Close CSO","s":7,"h":17.3}],"ovfYear":2025},"geometry":{"type":"Point","coordinates":[-4.69285,50.34695]}},{"type":"Feature","properties":{"id":"ukk3106-27200","name":"Polkerris","kind":"coastal","district":"Cornwall","undertaker":"South West Water","rain":true,"desYr":1988,"cls":"Excellent","clsYear":2025,"clsFrom":2022,"hist":"EEGGGUGGGGE","histFrom":2015,"ovf":[],"ovfYear":2025},"geometry":{"type":"Point","coordinates":[-4.68152,50.33786]}},{"type":"Feature","properties":{"id":"ukk3008-27080","name":"Lostwithiel, River Fowey","kind":"transitional","district":"Cornwall","undertaker":"South West Water","rain":false,"desYr":2026,"cls":null,"clsYear":null,"clsFrom":null,"hist":"-----------","histFrom":2015,"ovf":[],"ovfYear":2025},"geometry":{"type":"Point","coordinates":[-4.66636,50.40744]}},{"type":"Feature","properties":{"id":"ukk3106-27100","name":"Readymoney Cove","kind":"transitional","district":"Cornwall","undertaker":"South West Water","rain":true,"desYr":1988,"cls":"Good","clsYear":2025,"clsFrom":2022,"hist":"GEEEEUEGGGG","histFrom":2015,"ovf":[{"n":"Town Quay Pumping Station","s":198,"h":634.9},{"n":"Fowey Wastewater Treatment Works","s":72,"h":556.7},{"n":"Caffa Mill Pumping Station","s":38,"h":106.8},{"n":"Whitehouse Slip (Point) CSO","s":7,"h":1.3},{"n":"Readymoney Cove PS","s":2,"h":2.8},{"n":"Readymoney Road Combined Sewer","s":0,"h":0},{"n":"Polruan Quay PS","s":0,"h":0}],"ovfYear":2025},"geometry":{"type":"Point","coordinates":[-4.64521,50.32952]}},{"type":"Feature","properties":{"id":"ukk3101-27000","name":"East Looe","kind":"transitional","district":"Cornwall","undertaker":"South West Water","rain":true,"desYr":1988,"cls":"Good","clsYear":2025,"clsFrom":2022,"hist":"PSSSGUGGGGG","histFrom":2015,"ovf":[{"n":"Liskeard STW","s":73,"h":789.4},{"n":"Health Centre Car Park Pseo/CSO","s":67,"h":279},{"n":"Hannafore Pumping Station","s":61,"h":115.9},{"n":"Sungirt Lane CSO","s":29,"h":90.6},{"n":"Looe Buller Quay","s":12,"h":21.4},{"n":"West Looe Square CSO","s":4,"h":4.6},{"n":"New Road CSO","s":3,"h":3.5}],"ovfYear":2025},"geometry":{"type":"Point","coordinates":[-4.4515,50.35256]}},{"type":"Feature","properties":{"id":"ukk3101-26900","name":"Millendreath","kind":"coastal","district":"Cornwall","undertaker":"South West Water","rain":true,"desYr":1988,"cls":"Excellent","clsYear":2025,"clsFrom":2022,"hist":"EEEEEUGGGGE","histFrom":2015,"ovf":[{"n":"Plaidy Pump Station","s":58,"h":61.9}],"ovfYear":2025},"geometry":{"type":"Point","coordinates":[-4.43633,50.36107]}},{"type":"Feature","properties":{"id":"ukk3101-26800","name":"Seaton (Cornwall)","kind":"coastal","district":"Cornwall","undertaker":"South West Water","rain":true,"desYr":1988,"cls":"Excellent","clsYear":2025,"clsFrom":2022,"hist":"SGGGEUEEEEE","histFrom":2015,"ovf":[{"n":"Menheniot WWTW","s":131,"h":1575},{"n":"Seaton Pumping Station","s":67,"h":1071.3},{"n":"Church Square CSO","s":12,"h":56.8},{"n":"Factory Houses Pumping Station","s":12,"h":107.1},{"n":"Scawns Hill CSO","s":10,"h":24.9}],"ovfYear":2025},"geometry":{"type":"Point","coordinates":[-4.38643,50.36435]}},{"type":"Feature","properties":{"id":"ukk3101-26700","name":"Downderry","kind":"coastal","district":"Cornwall","undertaker":"South West Water","rain":false,"desYr":1988,"cls":"Excellent","clsYear":2025,"clsFrom":2022,"hist":"EEEEEUEEEEE","histFrom":2015,"ovf":[{"n":"Downderry","s":27,"h":305.1}],"ovfYear":2025},"geometry":{"type":"Point","coordinates":[-4.3708,50.36098]}},{"type":"Feature","properties":{"id":"ukk3101-26600","name":"Portwrinkle","kind":"coastal","district":"Cornwall","undertaker":"South West Water","rain":false,"desYr":1988,"cls":"Excellent","clsYear":2025,"clsFrom":2022,"hist":"EEEEEUGEEEE","histFrom":2015,"ovf":[{"n":"Portwrinkle Pscso/EO","s":17,"h":48.7},{"n":"Portwrinkle Tank CSO","s":0,"h":0}],"ovfYear":2025},"geometry":{"type":"Point","coordinates":[-4.30769,50.36144]}},{"type":"Feature","properties":{"id":"ukk3101-26570","name":"Sharrow","kind":"coastal","district":"Cornwall","undertaker":"South West Water","rain":false,"desYr":2012,"cls":"Excellent","clsYear":2025,"clsFrom":2022,"hist":"EUUEEUEEEEE","histFrom":2015,"ovf":[],"ovfYear":2025},"geometry":{"type":"Point","coordinates":[-4.25964,50.34759]}},{"type":"Feature","properties":{"id":"ukk3101-26560","name":"Tregonhawke","kind":"coastal","district":"Cornwall","undertaker":"South West Water","rain":false,"desYr":2018,"cls":"Excellent","clsYear":2025,"clsFrom":2022,"hist":"---EEUEEEEE","histFrom":2015,"ovf":[],"ovfYear":2025},"geometry":{"type":"Point","coordinates":[-4.24288,50.34086]}},{"type":"Feature","properties":{"id":"ukk3101-26530","name":"Cawsand","kind":"coastal","district":"Cornwall","undertaker":"South West Water","rain":false,"desYr":1998,"cls":"Excellent","clsYear":2025,"clsFrom":2022,"hist":"EEEEEUEEEEE","histFrom":2015,"ovf":[{"n":"Cawsand South Pumping Station","s":29,"h":354.7}],"ovfYear":2025},"geometry":{"type":"Point","coordinates":[-4.20138,50.33086]}},{"type":"Feature","properties":{"id":"ukk3101-26520","name":"Kingsand","kind":"coastal","district":"Cornwall","undertaker":"South West Water","rain":false,"desYr":1998,"cls":"Good","clsYear":2025,"clsFrom":2022,"hist":"EEEEEUEEEGG","histFrom":2015,"ovf":[{"n":"Kingsand Sewage Pumping Station","s":44,"h":37.8},{"n":"Kingsand Sewage Pumping Station","s":21,"h":84.6},{"n":"North Rock Sewage Pumping Station","s":1,"h":0}],"ovfYear":2025},"geometry":{"type":"Point","coordinates":[-4.1994,50.33359]}},{"type":"Feature","properties":{"id":"ukk4100-26510","name":"Plymouth Firestone Bay","kind":"coastal","district":"City of Plymouth","undertaker":"South West Water","rain":false,"desYr":2023,"cls":"Excellent","clsYear":2025,"clsFrom":2022,"hist":"--------EEE","histFrom":2015,"ovf":[{"n":"Eastern Kings Pumping Station","s":47,"h":283.7},{"n":"Millbay Tanks","s":12,"h":65},{"n":"West Hoe Tunnel Shaft 5b.2","s":4,"h":4.9},{"n":"West Hoe Pumping Station","s":0,"h":0}],"ovfYear":2025},"geometry":{"type":"Point","coordinates":[-4.16124,50.36071]}},{"type":"Feature","properties":{"id":"ukk4100-26500","name":"Plymouth Hoe West","kind":"transitional","district":"City of Plymouth","undertaker":"South West Water","rain":true,"desYr":1988,"cls":"Excellent","clsYear":2025,"clsFrom":2022,"hist":"EEEEEUEEEEE","histFrom":2015,"ovf":[{"n":"Lipson Vale 1 CSO","s":95,"h":158.2},{"n":"Pike Road Combined Sewer Overflow","s":87,"h":153},{"n":"Cambridge Lane Combined Sewer Of","s":76,"h":252.5},{"n":"Lipson Vale 2 CSO","s":52,"h":74.3},{"n":"Dark Street Lane CSO","s":29,"h":41.7},{"n":"Seymour Avenue/Beaumont Rd CSO","s":28,"h":9.2},{"n":"Oreston Quay (No 2) Pumping Station","s":15,"h":31.3},{"n":"Marine Road No 1 Pumping Station","s":8,"h":13.4},{"n":"Hooe Lake Pumping Station","s":6,"h":19.7},{"n":"Marsh Mills Pumping Station","s":0,"h":0}],"ovfYear":2025},"geometry":{"type":"Point","coordinates":[-4.14554,50.36401]}},{"type":"Feature","properties":{"id":"ukk4100-26400","name":"Plymouth Hoe East","kind":"transitional","district":"City of Plymouth","undertaker":"South West Water","rain":true,"desYr":1988,"cls":"Excellent","clsYear":2025,"clsFrom":2022,"hist":"EEEEGUGEEEE","histFrom":2015,"ovf":[{"n":"Plymouth Central STW","s":119,"h":925.1},{"n":"3 St Peters Close CSO","s":107,"h":841.4},{"n":"Forder Valley Road CSO","s":94,"h":1134.1},{"n":"Plymouth Road  CSO","s":88,"h":271.6},{"n":"Laira Park CSO","s":87,"h":267.9},{"n":"Pike Road Combined Sewer Overflow","s":87,"h":153},{"n":"Marsh Mills WWTW","s":84,"h":871.2},{"n":"Glenholt Pumping Station","s":67,"h":592.6},{"n":"Efford Marsh CSO","s":61,"h":718.1},{"n":"59 Bretonside CSO","s":51,"h":217.3},{"n":"Market Road CSO","s":46,"h":203},{"n":"Trefius Park Combined Sewer Overflo","s":42,"h":31.3},{"n":"Garrick Close CSO","s":39,"h":49.8},{"n":"Cattedown Road Pumping Station","s":34,"h":127.7},{"n":"Radford STW","s":33,"h":52.3},{"n":"Honicknowle Lane CSO","s":31,"h":24.9},{"n":"Turnchapel Slipway Pumping Station","s":30,"h":34.2},{"n":"Dark Street Lane CSO","s":29,"h":41.7},{"n":"Seymour Avenue/Beaumont Rd CSO","s":28,"h":9.2},{"n":"Turnchapel Barracks Pumping Station","s":25,"h":39.4},{"n":"Seymour Avenue/Salisbury Rd CSO","s":24,"h":5.2},{"n":"Opp 44 Carmarthen Road CSO","s":24,"h":4.2},{"n":"20 Commercial Road","s":24,"h":57.5},{"n":"Radford STW","s":21,"h":215.4},{"n":"Farringdon Road CSO","s":19,"h":22.2},{"n":"Billacombe Pumping Station","s":19,"h":15.8},{"n":"Harlech Close CSO","s":19,"h":14.9},{"n":"Hooe Road CSO","s":18,"h":4.7},{"n":"Oreston Quay (No 2) Pumping Station","s":15,"h":31.3},{"n":"1 Edna Terrace CSO","s":14,"h":17.9},{"n":"Marine Road No 1 Pumping Station","s":8,"h":13.4},{"n":"Barbican (Sutton Harbour) Tanks","s":7,"h":22.7},{"n":"Kinterbury Creek Riverside PS","s":6,"h":2.9},{"n":"Hooe Lake Pumping Station","s":6,"h":19.7},{"n":"Shirley Gardens CSO","s":4,"h":1.6},{"n":"20 Commercial Road","s":4,"h":1.1},{"n":"Old Laira Road Junction CSO","s":3,"h":0.7},{"n":"Marsh Mills Pumping Station","s":0,"h":0}],"ovfYear":2025},"geometry":{"type":"Point","coordinates":[-4.1409,50.36392]}},{"type":"Feature","properties":{"id":"ukk4305-26300","name":"Bovisand","kind":"coastal","district":"South Hams","undertaker":"South West Water","rain":false,"desYr":1988,"cls":"Excellent","clsYear":2025,"clsFrom":2022,"hist":"GEEEEUEEEEE","histFrom":2015,"ovf":[],"ovfYear":2025},"geometry":{"type":"Point","coordinates":[-4.11952,50.33553]}},{"type":"Feature","properties":{"id":"ukk4305-26200","name":"Wembury","kind":"coastal","district":"South Hams","undertaker":"South West Water","rain":true,"desYr":1988,"cls":"Good","clsYear":2025,"clsFrom":2022,"hist":"SGSGEUEEEGG","histFrom":2015,"ovf":[{"n":"Wembury Beach Pscso/EO","s":13,"h":113.2}],"ovfYear":2025},"geometry":{"type":"Point","coordinates":[-4.08517,50.31798]}},{"type":"Feature","properties":{"id":"ukk4305-26150","name":"Newton and Noss","kind":"transitional","district":"South Hams","undertaker":"South West Water","rain":false,"desYr":2026,"cls":null,"clsYear":null,"clsFrom":null,"hist":"-----------","histFrom":2015,"ovf":[],"ovfYear":2025},"geometry":{"type":"Point","coordinates":[-4.03986,50.31163]}},{"type":"Feature","properties":{"id":"ukk4305-26100","name":"Mothecombe","kind":"transitional","district":"South Hams","undertaker":"South West Water","rain":true,"desYr":1988,"cls":"Good","clsYear":2025,"clsFrom":2022,"hist":"SGGGGUGGGGG","histFrom":2015,"ovf":[{"n":"Ivybridge STW","s":84,"h":1624.4},{"n":"Holbeton Sewage Treatment Works","s":55,"h":117.5},{"n":"Modbury Wastewater Treatment Works","s":54,"h":656.8},{"n":"Holbeton Sewage Treatment Works","s":46,"h":388},{"n":"Ivybridge STW","s":37,"h":223.3},{"n":"Poundwell Meadow CSO","s":33,"h":436.7},{"n":"Parsonage Cottage Hill CSO","s":27,"h":296.6},{"n":"Ermington STW","s":9,"h":30},{"n":"Playing Field CSO","s":2,"h":0.5},{"n":"Station Road CSO","s":0,"h":0},{"n":"Erme Road CSO","s":0,"h":0}],"ovfYear":2025},"geometry":{"type":"Point","coordinates":[-3.95278,50.30957]}},{"type":"Feature","properties":{"id":"ukk4305-26050","name":"Coastguards Beach, Erme Estuary","kind":"transitional","district":"South Hams","undertaker":"South West Water","rain":false,"desYr":2024,"cls":"Poor","clsYear":2025,"clsFrom":2022,"hist":"---------PP","histFrom":2015,"ovf":[{"n":"Ivybridge STW","s":84,"h":1624.4},{"n":"Holbeton Sewage Treatment Works","s":55,"h":117.5},{"n":"Modbury Wastewater Treatment Works","s":54,"h":656.8},{"n":"Holbeton Sewage Treatment Works","s":46,"h":388},{"n":"Ivybridge STW","s":37,"h":223.3},{"n":"Poundwell Meadow CSO","s":33,"h":436.7},{"n":"Parsonage Cottage Hill CSO","s":27,"h":296.6},{"n":"Ermington STW","s":9,"h":30},{"n":"Playing Field CSO","s":2,"h":0.5},{"n":"Station Road CSO","s":0,"h":0},{"n":"Erme Road CSO","s":0,"h":0}],"ovfYear":2025},"geometry":{"type":"Point","coordinates":[-3.94699,50.31206]}},{"type":"Feature","properties":{"id":"ukk4305-26000","name":"Challaborough","kind":"coastal","district":"South Hams","undertaker":"South West Water","rain":false,"desYr":1988,"cls":"Excellent","clsYear":2025,"clsFrom":2022,"hist":"EEEEEUEEEEE","histFrom":2015,"ovf":[{"n":"Pumping Station At Warren Point","s":2,"h":0.3},{"n":"Challaborough Pscso/EO","s":0,"h":0}],"ovfYear":2025},"geometry":{"type":"Point","coordinates":[-3.89755,50.28764]}},{"type":"Feature","properties":{"id":"ukk4305-25900","name":"Bigbury-on-Sea North","kind":"coastal","district":"South Hams","undertaker":"South West Water","rain":false,"desYr":1988,"cls":"Excellent","clsYear":2025,"clsFrom":2022,"hist":"EEEEEUEEEEE","histFrom":2015,"ovf":[{"n":"Bigbury & Challaborough STW","s":0,"h":0},{"n":"The Warren Pumping Station","s":0,"h":0}],"ovfYear":2025},"geometry":{"type":"Point","coordinates":[-3.89695,50.28315]}},{"type":"Feature","properties":{"id":"ukk4305-25800","name":"Bigbury-on-Sea South","kind":"transitional","district":"South Hams","undertaker":"South West Water","rain":true,"desYr":1988,"cls":"Excellent","clsYear":2025,"clsFrom":2022,"hist":"GEGGEUEEEEE","histFrom":2015,"ovf":[],"ovfYear":2025},"geometry":{"type":"Point","coordinates":[-3.89506,50.28166]}},{"type":"Feature","properties":{"id":"ukk4305-25700","name":"Bantham","kind":"transitional","district":"South Hams","undertaker":"South West Water","rain":true,"desYr":1988,"cls":"Excellent","clsYear":2025,"clsFrom":2022,"hist":"SEGGEUEEEEE","histFrom":2015,"ovf":[{"n":"Aveton Gifford WWTW","s":4,"h":6.9}],"ovfYear":2025},"geometry":{"type":"Point","coordinates":[-3.87881,50.27895]}},{"type":"Feature","properties":{"id":"ukk4305-25600","name":"Thurlestone North","kind":"coastal","district":"South Hams","undertaker":"South West Water","rain":false,"desYr":1988,"cls":"Excellent","clsYear":2025,"clsFrom":2022,"hist":"GEEGEUEEEEE","histFrom":2015,"ovf":[],"ovfYear":2025},"geometry":{"type":"Point","coordinates":[-3.86181,50.26393]}},{"type":"Feature","properties":{"id":"ukk4305-25400","name":"Hope Cove","kind":"coastal","district":"South Hams","undertaker":"South West Water","rain":true,"desYr":1988,"cls":"Good","clsYear":2025,"clsFrom":2022,"hist":"EEGGEUEEEEG","histFrom":2015,"ovf":[{"n":"Galmpton (Hope Cove) STW","s":16,"h":287.8},{"n":"Outer Hope Pumping Station","s":14,"h":18.7},{"n":"Inner Hope Pscso/EO","s":3,"h":4.1}],"ovfYear":2025},"geometry":{"type":"Point","coordinates":[-3.85913,50.24262]}},{"type":"Feature","properties":{"id":"ukk4305-25500","name":"Thurlestone South","kind":"coastal","district":"South Hams","undertaker":"South West Water","rain":false,"desYr":1988,"cls":"Excellent","clsYear":2025,"clsFrom":2022,"hist":"EEEEEUEEEEE","histFrom":2015,"ovf":[{"n":"South Milton STW","s":37,"h":268.5},{"n":"South Milton CSO","s":6,"h":2.6}],"ovfYear":2025},"geometry":{"type":"Point","coordinates":[-3.85816,50.26039]}},{"type":"Feature","properties":{"id":"ukk4305-25300","name":"Salcombe South Sands","kind":"coastal","district":"South Hams","undertaker":"South West Water","rain":true,"desYr":1988,"cls":"Excellent","clsYear":2025,"clsFrom":2022,"hist":"GGEEEUEEEEE","histFrom":2015,"ovf":[{"n":"Quilletts CSO","s":47,"h":29.8},{"n":"Malborough Village Pumping Station","s":6,"h":10.3},{"n":"South Sands PS","s":0,"h":0}],"ovfYear":2025},"geometry":{"type":"Point","coordinates":[-3.78392,50.22603]}},{"type":"Feature","properties":{"id":"ukk4305-25200","name":"Salcombe North Sands","kind":"coastal","district":"South Hams","undertaker":"South West Water","rain":true,"desYr":1988,"cls":"Good","clsYear":2025,"clsFrom":2022,"hist":"EEEEEUEEEEG","histFrom":2015,"ovf":[{"n":"North Sands Pumping Station","s":1,"h":0.1}],"ovfYear":2025},"geometry":{"type":"Point","coordinates":[-3.78057,50.23013]}},{"type":"Feature","properties":{"id":"ukk4305-25100","name":"Mill Bay","kind":"coastal","district":"South Hams","undertaker":"South West Water","rain":false,"desYr":1988,"cls":"Excellent","clsYear":2025,"clsFrom":2022,"hist":"EEEEEUEEEEE","histFrom":2015,"ovf":[{"n":"Comminutor House CSO","s":89,"h":200.1},{"n":"Shadycombe Lower Tunnel","s":4,"h":19}],"ovfYear":2025},"geometry":{"type":"Point","coordinates":[-3.76696,50.22998]}},{"type":"Feature","properties":{"id":"ukk4305-24640","name":"Steamer Quay, Dart Estuary","kind":"transitional","district":"South Hams","undertaker":"South West Water","rain":false,"desYr":2024,"cls":"Poor","clsYear":2025,"clsFrom":2022,"hist":"---------PP","histFrom":2015,"ovf":[{"n":"Totnes STW","s":123,"h":698.3},{"n":"Buckfastleigh STW","s":93,"h":803.4},{"n":"Buckfastleigh STW","s":90,"h":1405.7},{"n":"Totnes Town Pumping Station","s":90,"h":244.6},{"n":"Textile Mill","s":52,"h":251.8},{"n":"31 Fore Street CSO","s":46,"h":35.5},{"n":"Dartington B CSO","s":45,"h":507.6},{"n":"Steamer Quay Bridgetown CSO","s":39,"h":91},{"n":"Dartington C CSO","s":33,"h":270.9},{"n":"Swallowfields CSO","s":28,"h":60.5},{"n":"Staverton WWTW","s":24,"h":295.5},{"n":"Quarry Close CSO","s":23,"h":43.2},{"n":"St Johns Terrace CSO","s":20,"h":5.2},{"n":"Shinner's Bridge CSO","s":18,"h":25.6},{"n":"St Katherine's Way CSO","s":17,"h":7.8},{"n":"Lower Collapark CSO","s":0,"h":0}],"ovfYear":2025},"geometry":{"type":"Point","coordinates":[-3.67869,50.42496]}},{"type":"Feature","properties":{"id":"ukk4305-25000","name":"Slapton Sands Torcross","kind":"coastal","district":"South Hams","undertaker":"South West Water","rain":false,"desYr":1988,"cls":"Excellent","clsYear":2025,"clsFrom":2022,"hist":"EEEEEUEEEEE","histFrom":2015,"ovf":[{"n":"Torcross Pumping Station","s":40,"h":654}],"ovfYear":2025},"geometry":{"type":"Point","coordinates":[-3.65211,50.2662]}},{"type":"Feature","properties":{"id":"ukk4305-24900","name":"Slapton Sands Monument","kind":"coastal","district":"South Hams","undertaker":"South West Water","rain":false,"desYr":1988,"cls":"Excellent","clsYear":2025,"clsFrom":2022,"hist":"EEEEEUEEEEE","histFrom":2015,"ovf":[],"ovfYear":2025},"geometry":{"type":"Point","coordinates":[-3.64508,50.28591]}},{"type":"Feature","properties":{"id":"ukk4305-24620","name":"Stoke Gabriel, Dart Estuary","kind":"transitional","district":"South Hams","undertaker":"South West Water","rain":false,"desYr":2024,"cls":"Poor","clsYear":2025,"clsFrom":2022,"hist":"---------SP","histFrom":2015,"ovf":[{"n":"Scout Hut CSO","s":51,"h":772.8},{"n":"Stoke Gabriel Pscso/EO","s":20,"h":334.4}],"ovfYear":2025},"geometry":{"type":"Point","coordinates":[-3.62295,50.40036]}},{"type":"Feature","properties":{"id":"ukk4305-24800","name":"Blackpool Sands","kind":"coastal","district":"South Hams","undertaker":"South West Water","rain":false,"desYr":1988,"cls":"Excellent","clsYear":2025,"clsFrom":2022,"hist":"EEEEEUEEEEE","histFrom":2015,"ovf":[],"ovfYear":2025},"geometry":{"type":"Point","coordinates":[-3.60971,50.31942]}},{"type":"Feature","properties":{"id":"ukk4305-24660","name":"Dittisham, Dart Estuary","kind":"transitional","district":"South Hams","undertaker":"South West Water","rain":false,"desYr":2024,"cls":"Excellent","clsYear":2025,"clsFrom":2022,"hist":"---------GE","histFrom":2015,"ovf":[{"n":"Ferry Boat Inn Pumping Station","s":73,"h":143.2},{"n":"Dittisham WWTW","s":46,"h":212.4},{"n":"Mill Creek Pumping Station","s":15,"h":16.4},{"n":"Galmpton Pumping Station","s":10,"h":13.6}],"ovfYear":2025},"geometry":{"type":"Point","coordinates":[-3.59721,50.38456]}},{"type":"Feature","properties":{"id":"ukk4305-24680","name":"Warfleet Creek, Dart Estuary","kind":"transitional","district":"South Hams","undertaker":"South West Water","rain":false,"desYr":2024,"cls":"Excellent","clsYear":2025,"clsFrom":2022,"hist":"---------EE","histFrom":2015,"ovf":[{"n":"Smith Street CSO","s":85,"h":162},{"n":"Mayors Avenue Pumping Station","s":46,"h":116.9},{"n":"Lower Ferry Pumping Station","s":44,"h":76.5},{"n":"Warfleet Creek Pumping Station","s":6,"h":23.9},{"n":"Priory Slip Pumping Station","s":5,"h":3.6}],"ovfYear":2025},"geometry":{"type":"Point","coordinates":[-3.57344,50.34251]}},{"type":"Feature","properties":{"id":"ukk4305-24700","name":"Dartmouth Castle Cove","kind":"transitional","district":"South Hams","undertaker":"South West Water","rain":false,"desYr":1988,"cls":"Excellent","clsYear":2025,"clsFrom":2022,"hist":"EEEEEUEEEEE","histFrom":2015,"ovf":[{"n":"Mayors Avenue Pumping Station","s":46,"h":116.9}],"ovfYear":2025},"geometry":{"type":"Point","coordinates":[-3.5655,50.34206]}},{"type":"Feature","properties":{"id":"ukk4200-24200","name":"Goodrington","kind":"coastal","district":"Torbay","undertaker":"South West Water","rain":true,"desYr":1988,"cls":"Good","clsYear":2025,"clsFrom":2022,"hist":"GGSSSUGGSGG","histFrom":2015,"ovf":[{"n":"Clennon Valley Pumping Station","s":24,"h":201.3},{"n":"Torbay (Brokenbury) STW Inlet PS/","s":10,"h":17.8}],"ovfYear":2025},"geometry":{"type":"Point","coordinates":[-3.5595,50.42353]}},{"type":"Feature","properties":{"id":"ukk4200-24100","name":"Paignton Paignton Sands","kind":"coastal","district":"Torbay","undertaker":"South West Water","rain":true,"desYr":1988,"cls":"Good","clsYear":2025,"clsFrom":2022,"hist":"SSGGGUGGGEG","histFrom":2015,"ovf":[{"n":"Clennon Valley Pumping Station","s":9,"h":0.8},{"n":"Clennon Valley Pumping Station","s":7,"h":8.9},{"n":"Littlegate Road CSO","s":4,"h":1.3},{"n":"Paignton Green Tank Pscso/EO","s":3,"h":4}],"ovfYear":2025},"geometry":{"type":"Point","coordinates":[-3.55885,50.43505]}},{"type":"Feature","properties":{"id":"ukk4200-24000","name":"Paignton Preston Sands","kind":"coastal","district":"Torbay","undertaker":"South West Water","rain":true,"desYr":1988,"cls":"Excellent","clsYear":2025,"clsFrom":2022,"hist":"GGGEEUEEEEE","histFrom":2015,"ovf":[{"n":"Marldon (Churscombe Cross) PS","s":20,"h":32.5},{"n":"Preston Green Attenuation Tank","s":11,"h":10.3}],"ovfYear":2025},"geometry":{"type":"Point","coordinates":[-3.5562,50.44444]}},{"type":"Feature","properties":{"id":"ukk4200-24300","name":"Broadsands","kind":"coastal","district":"Torbay","undertaker":"South West Water","rain":false,"desYr":1988,"cls":"Excellent","clsYear":2025,"clsFrom":2022,"hist":"GGGEEUEEEEE","histFrom":2015,"ovf":[],"ovfYear":2025},"geometry":{"type":"Point","coordinates":[-3.55435,50.406]}},{"type":"Feature","properties":{"id":"ukk4200-23900","name":"Hollicombe","kind":"coastal","district":"Torbay","undertaker":"South West Water","rain":false,"desYr":1988,"cls":"Excellent","clsYear":2025,"clsFrom":2022,"hist":"EEGGGUGGGEE","histFrom":2015,"ovf":[],"ovfYear":2025},"geometry":{"type":"Point","coordinates":[-3.55352,50.4488]}},{"type":"Feature","properties":{"id":"ukk4200-23800","name":"Torre Abbey","kind":"coastal","district":"Torbay","undertaker":"South West Water","rain":true,"desYr":1988,"cls":"Excellent","clsYear":2025,"clsFrom":2022,"hist":"GGGEEUEEEEE","histFrom":2015,"ovf":[{"n":"Old Mill Road","s":42,"h":124.7},{"n":"Paignton (Cockington Lane) PS","s":8,"h":51},{"n":"Paignton (Cockington Lane) PS","s":6,"h":11.5},{"n":"Kings Drive CSO","s":5,"h":2.4}],"ovfYear":2025},"geometry":{"type":"Point","coordinates":[-3.53599,50.46244]}},{"type":"Feature","properties":{"id":"ukk4200-23700","name":"Beacon Cove","kind":"coastal","district":"Torbay","undertaker":"South West Water","rain":false,"desYr":1988,"cls":"Excellent","clsYear":2025,"clsFrom":2022,"hist":"EEEEEUEEEEE","histFrom":2015,"ovf":[{"n":"Fleet Walk No.1 CSO","s":19,"h":30.2},{"n":"Fleet Walk No.2 CSO","s":18,"h":26.3},{"n":"Beacon Hill","s":14,"h":5.7}],"ovfYear":2025},"geometry":{"type":"Point","coordinates":[-3.52352,50.45747]}},{"type":"Feature","properties":{"id":"ukk4200-23200","name":"Watcombe","kind":"coastal","district":"Torbay","undertaker":"South West Water","rain":false,"desYr":1988,"cls":"Excellent","clsYear":2025,"clsFrom":2022,"hist":"EEEEEUUUUEE","histFrom":2015,"ovf":[],"ovfYear":2025},"geometry":{"type":"Point","coordinates":[-3.5153,50.49562]}},{"type":"Feature","properties":{"id":"ukk4200-23300","name":"Oddicombe","kind":"coastal","district":"Torbay","undertaker":"South West Water","rain":false,"desYr":1988,"cls":"Excellent","clsYear":2025,"clsFrom":2022,"hist":"EEEEEUEEEEE","histFrom":2015,"ovf":[],"ovfYear":2025},"geometry":{"type":"Point","coordinates":[-3.51489,50.48245]}},{"type":"Feature","properties":{"id":"ukk4200-23100","name":"Maidencombe","kind":"coastal","district":"Torbay","undertaker":"South West Water","rain":false,"desYr":1988,"cls":"Excellent","clsYear":2025,"clsFrom":2022,"hist":"EEEEEUEEEEE","histFrom":2015,"ovf":[],"ovfYear":2025},"geometry":{"type":"Point","coordinates":[-3.51339,50.50644]}},{"type":"Feature","properties":{"id":"ukk4200-23400","name":"Babbacombe","kind":"coastal","district":"Torbay","undertaker":"South West Water","rain":false,"desYr":1988,"cls":"Excellent","clsYear":2025,"clsFrom":2022,"hist":"EEEEEUEEEEE","histFrom":2015,"ovf":[],"ovfYear":2025},"geometry":{"type":"Point","coordinates":[-3.50941,50.47906]}},{"type":"Feature","properties":{"id":"ukk4200-23600","name":"Meadfoot","kind":"coastal","district":"Torbay","undertaker":"South West Water","rain":false,"desYr":1988,"cls":"Excellent","clsYear":2025,"clsFrom":2022,"hist":"EEEEEUEEEEE","histFrom":2015,"ovf":[{"n":"Ilsham Valley Pumping Station","s":104,"h":1314},{"n":"Ilsham Road CSO","s":5,"h":2.2}],"ovfYear":2025},"geometry":{"type":"Point","coordinates":[-3.50922,50.45709]}},{"type":"Feature","properties":{"id":"ukk4200-24500","name":"Breakwater Beach (Shoalstone)","kind":"coastal","district":"Torbay","undertaker":"South West Water","rain":false,"desYr":1988,"cls":"Excellent","clsYear":2025,"clsFrom":2022,"hist":"EEEEEUEEEEE","histFrom":2015,"ovf":[{"n":"Berry Head Road CSO","s":0,"h":0}],"ovfYear":2025},"geometry":{"type":"Point","coordinates":[-3.50451,50.40006]}},{"type":"Feature","properties":{"id":"ukk4200-24600","name":"St Mary's Bay (Devon)","kind":"coastal","district":"Torbay","undertaker":"South West Water","rain":false,"desYr":1988,"cls":"Excellent","clsYear":2025,"clsFrom":2022,"hist":"EEEEEUEEEEE","histFrom":2015,"ovf":[{"n":"Bolton Street CSO","s":64,"h":78.9}],"ovfYear":2025},"geometry":{"type":"Point","coordinates":[-3.50362,50.38523]}},{"type":"Feature","properties":{"id":"ukk4306-22900","name":"Shaldon","kind":"transitional","district":"Teignbridge","undertaker":"South West Water","rain":true,"desYr":1988,"cls":"Good","clsYear":2025,"clsFrom":2022,"hist":"SEEEEUEEEEG","histFrom":2015,"ovf":[{"n":"King George's Field PS","s":24,"h":70.5},{"n":"Milford Park Pumping Station","s":1,"h":1.4},{"n":"Gales Hill Pumping Station","s":0,"h":0}],"ovfYear":2025},"geometry":{"type":"Point","coordinates":[-3.50238,50.53982]}},{"type":"Feature","properties":{"id":"ukk4200-23501","name":"Anstey's Cove (Torquay)","kind":"coastal","district":"Torbay","undertaker":"South West Water","rain":false,"desYr":2004,"cls":"Excellent","clsYear":2025,"clsFrom":2022,"hist":"EEEEEUEEEEE","histFrom":2015,"ovf":[],"ovfYear":2025},"geometry":{"type":"Point","coordinates":[-3.50109,50.47182]}},{"type":"Feature","properties":{"id":"ukk4306-23000","name":"Ness Cove","kind":"coastal","district":"Teignbridge","undertaker":"South West Water","rain":false,"desYr":1988,"cls":"Excellent","clsYear":2025,"clsFrom":2022,"hist":"EEEEEUEEEEE","histFrom":2015,"ovf":[],"ovfYear":2025},"geometry":{"type":"Point","coordinates":[-3.49818,50.5361]}},{"type":"Feature","properties":{"id":"ukk4306-22800","name":"Teignmouth Town","kind":"coastal","district":"Teignbridge","undertaker":"South West Water","rain":true,"desYr":1988,"cls":"Good","clsYear":2025,"clsFrom":2022,"hist":"SGEEEUEGGGG","histFrom":2015,"ovf":[{"n":"Station Car Park CSO","s":15,"h":32.3}],"ovfYear":2025},"geometry":{"type":"Point","coordinates":[-3.49346,50.54537]}},{"type":"Feature","properties":{"id":"ukk4306-22700","name":"Teignmouth Holcombe","kind":"coastal","district":"Teignbridge","undertaker":"South West Water","rain":true,"desYr":1988,"cls":"Excellent","clsYear":2025,"clsFrom":2022,"hist":"EEEEEUEEEEE","histFrom":2015,"ovf":[{"n":"Smugglers Lane Pseo","s":53,"h":411.5},{"n":"Woodland Ave CSO","s":46,"h":68.1}],"ovfYear":2025},"geometry":{"type":"Point","coordinates":[-3.47464,50.56188]}},{"type":"Feature","properties":{"id":"ukk4306-22600","name":"Dawlish Coryton Cove","kind":"coastal","district":"Teignbridge","undertaker":"South West Water","rain":false,"desYr":1988,"cls":"Excellent","clsYear":2025,"clsFrom":2022,"hist":"EEEEEUEEEEE","histFrom":2015,"ovf":[{"n":"Holcombe Pumping Station","s":33,"h":303.3}],"ovfYear":2025},"geometry":{"type":"Point","coordinates":[-3.46855,50.57482]}},{"type":"Feature","properties":{"id":"ukk4306-22500","name":"Dawlish Town","kind":"coastal","district":"Teignbridge","undertaker":"South West Water","rain":true,"desYr":1988,"cls":"Good","clsYear":2025,"clsFrom":2022,"hist":"GEEGGUGGGGG","histFrom":2015,"ovf":[{"n":"Sandy Lane Pumping Station","s":46,"h":396.4},{"n":"Dawlish Sso (Brook Street)","s":41,"h":27.6},{"n":"Barton Hill/Brunswick CSO","s":32,"h":19},{"n":"Dawlish Breakwater Sso","s":31,"h":29.6},{"n":"West Cliff Combined Sewer Overflow","s":15,"h":2.7},{"n":"Viaduct High Level Storm Tank CSO","s":8,"h":3.3},{"n":"Elm Grove CSO","s":4,"h":0.5},{"n":"Sea Lawns Outfall CSO, Dawlish","s":1,"h":0.3},{"n":"Brook House Sso","s":0,"h":0}],"ovfYear":2025},"geometry":{"type":"Point","coordinates":[-3.46369,50.58086]}},{"type":"Feature","properties":{"id":"ukk4306-22400","name":"Dawlish Warren","kind":"transitional","district":"Teignbridge","undertaker":"South West Water","rain":false,"desYr":1988,"cls":"Excellent","clsYear":2025,"clsFrom":2022,"hist":"EEEEEUEEEEE","histFrom":2015,"ovf":[],"ovfYear":2025},"geometry":{"type":"Point","coordinates":[-3.43894,50.59965]}},{"type":"Feature","properties":{"id":"ukk4301-22300","name":"Exmouth","kind":"transitional","district":"East Devon","undertaker":"South West Water","rain":true,"desYr":1988,"cls":"Excellent","clsYear":2025,"clsFrom":2022,"hist":"GEEEEUEEEEE","histFrom":2015,"ovf":[{"n":"Hartopp Road CSO","s":61,"h":489.7},{"n":"Maer Pumping Station & Tank CSO","s":51,"h":611.6},{"n":"Phear Park Pseo/CSO","s":35,"h":325.8},{"n":"Imperial Road Tank CSO","s":21,"h":161.1}],"ovfYear":2025},"geometry":{"type":"Point","coordinates":[-3.40169,50.61108]}},{"type":"Feature","properties":{"id":"ukk4301-22200","name":"Sandy Bay","kind":"coastal","district":"East Devon","undertaker":"South West Water","rain":true,"desYr":1988,"cls":"Good","clsYear":2025,"clsFrom":2022,"hist":"EEEEEUGGSSG","histFrom":2015,"ovf":[{"n":"Exmouth Sewage Treatment Works","s":55,"h":788.5}],"ovfYear":2025},"geometry":{"type":"Point","coordinates":[-3.36802,50.60986]}},{"type":"Feature","properties":{"id":"ukk4301-22100","name":"Budleigh Salterton","kind":"coastal","district":"East Devon","undertaker":"South West Water","rain":true,"desYr":1988,"cls":"Good","clsYear":2025,"clsFrom":2022,"hist":"GEEEEUEEEEG","histFrom":2015,"ovf":[{"n":"Lime Kiln Tank CSO","s":83,"h":113.5},{"n":"Granary Lane (North) CSO","s":8,"h":1.3},{"n":"Granary Lane CSO","s":7,"h":3.5},{"n":"Meadow Road Tank CSO","s":6,"h":2.4},{"n":"Marine Parade CSO","s":5,"h":6.8},{"n":"The Green Tank CSO","s":4,"h":4.4},{"n":"Fore Street CSO","s":0,"h":0},{"n":"Little Knowle CSO","s":0,"h":0}],"ovfYear":2025},"geometry":{"type":"Point","coordinates":[-3.31825,50.62932]}},{"type":"Feature","properties":{"id":"ukk4301-22000","name":"Ladram Bay","kind":"coastal","district":"East Devon","undertaker":"South West Water","rain":true,"desYr":1988,"cls":"Excellent","clsYear":2025,"clsFrom":2022,"hist":"SGGSGUGEEEE","histFrom":2015,"ovf":[],"ovfYear":2025},"geometry":{"type":"Point","coordinates":[-3.27955,50.65859]}},{"type":"Feature","properties":{"id":"ukk4301-21900","name":"Sidmouth Jacobs Ladder","kind":"coastal","district":"East Devon","undertaker":"South West Water","rain":false,"desYr":1988,"cls":"Excellent","clsYear":2025,"clsFrom":2022,"hist":"EEEEEUEEEEE","histFrom":2015,"ovf":[],"ovfYear":2025},"geometry":{"type":"Point","coordinates":[-3.24792,50.67525]}},{"type":"Feature","properties":{"id":"ukk4301-21800","name":"Sidmouth Town","kind":"coastal","district":"East Devon","undertaker":"South West Water","rain":true,"desYr":1988,"cls":"Excellent","clsYear":2025,"clsFrom":2022,"hist":"GEEEEUEEEEE","histFrom":2015,"ovf":[{"n":"The Ham PS Tank & CSO - Sidmouth","s":64,"h":913.8},{"n":"The Ham PS Tank & CSO - Sidmouth","s":28,"h":59.7},{"n":"The Ham PS Tank & CSO - Sidmouth","s":9,"h":8.1}],"ovfYear":2025},"geometry":{"type":"Point","coordinates":[-3.24303,50.67618]}},{"type":"Feature","properties":{"id":"ukk4301-21700","name":"Beer","kind":"coastal","district":"East Devon","undertaker":"South West Water","rain":true,"desYr":1988,"cls":"Excellent","clsYear":2025,"clsFrom":2022,"hist":"EEEEEUEEEEE","histFrom":2015,"ovf":[{"n":"Memorial Gardens PS","s":31,"h":23.4},{"n":"Beer Car Park Pumping Station","s":27,"h":34.3}],"ovfYear":2025},"geometry":{"type":"Point","coordinates":[-3.08989,50.69653]}},{"type":"Feature","properties":{"id":"ukk4301-21600","name":"Seaton (Devon)","kind":"coastal","district":"East Devon","undertaker":"South West Water","rain":true,"desYr":1988,"cls":"Excellent","clsYear":2025,"clsFrom":2022,"hist":"EEEEEUEEEEE","histFrom":2015,"ovf":[{"n":"Seaton STW","s":60,"h":825.2},{"n":"Axmouth Pscso/EO","s":36,"h":105.6},{"n":"Harbour Road SPS (Seaton)","s":0,"h":0}],"ovfYear":2025},"geometry":{"type":"Point","coordinates":[-3.07052,50.70336]}},{"type":"Feature","properties":{"id":"ukk2205-21500","name":"Lyme Regis Front Beach","kind":"coastal","district":"Dorset","undertaker":"South West Water","rain":true,"desYr":1988,"cls":"Good","clsYear":2025,"clsFrom":2022,"hist":"GGSGGUGGGGG","histFrom":2015,"ovf":[{"n":"Cobb Gate Pumping Station","s":8,"h":10.6}],"ovfYear":2025},"geometry":{"type":"Point","coordinates":[-2.93778,50.72249]}},{"type":"Feature","properties":{"id":"ukk2205-21400","name":"Lyme Regis Church Cliff Beach","kind":"coastal","district":"Dorset","undertaker":"South West Water","rain":true,"desYr":2024,"cls":"Poor","clsYear":2025,"clsFrom":2022,"hist":"P--------PP","histFrom":2015,"ovf":[{"n":"Lyme Regis (Uplyme) STW","s":54,"h":382.4},{"n":"Horn Bridge Pseo/CSO","s":32,"h":222.3},{"n":"Mill Lane CSO","s":10,"h":36.1},{"n":"Jericho CSO","s":8,"h":1.1},{"n":"Gun Cliff Pumping Station","s":4,"h":18.7},{"n":"Goslings Bridge CSO","s":3,"h":0.7}],"ovfYear":2025},"geometry":{"type":"Point","coordinates":[-2.93032,50.72503]}},{"type":"Feature","properties":{"id":"ukk2205-21300","name":"Charmouth West","kind":"coastal","district":"Dorset","undertaker":"Wessex Water","rain":true,"desYr":1988,"cls":"Excellent","clsYear":2025,"clsFrom":2022,"hist":"GEGEEUEEEEE","histFrom":2015,"ovf":[{"n":"Charmouth Sewage Disposal Works","s":70,"h":76.1},{"n":"Charmouth Sewage Disposal Works","s":2,"h":4.6},{"n":"The Street CSO, Charmouth","s":0,"h":0}],"ovfYear":2025},"geometry":{"type":"Point","coordinates":[-2.90456,50.73354]}},{"type":"Feature","properties":{"id":"ukk2205-21200","name":"Seatown","kind":"coastal","district":"Dorset","undertaker":"Wessex Water","rain":false,"desYr":1988,"cls":"Excellent","clsYear":2025,"clsFrom":2022,"hist":"EEEEEUEEEEE","histFrom":2015,"ovf":[{"n":"Chideock STW","s":31,"h":413.2},{"n":"Seatown Pumping Station","s":6,"h":22.2}],"ovfYear":2025},"geometry":{"type":"Point","coordinates":[-2.82482,50.72209]}},{"type":"Feature","properties":{"id":"ukk2205-21100","name":"Eypemouth","kind":"coastal","district":"Dorset","undertaker":"Wessex Water","rain":false,"desYr":1988,"cls":"Excellent","clsYear":2025,"clsFrom":2022,"hist":"EEEEEUEEEEE","histFrom":2015,"ovf":[],"ovfYear":2025},"geometry":{"type":"Point","coordinates":[-2.78488,50.71609]}},{"type":"Feature","properties":{"id":"ukk2205-21000","name":"West Bay (West)","kind":"coastal","district":"Dorset","undertaker":"Wessex Water","rain":true,"desYr":1988,"cls":"Excellent","clsYear":2025,"clsFrom":2022,"hist":"EEEEEUEEEEE","histFrom":2015,"ovf":[{"n":"Pumping Station At West Bay Sluices","s":10,"h":94.7}],"ovfYear":2025},"geometry":{"type":"Point","coordinates":[-2.76654,50.71097]}},{"type":"Feature","properties":{"id":"ukk2207-20990","name":"East Beach at West Bay","kind":"coastal","district":"Dorset","undertaker":"Wessex Water","rain":false,"desYr":2026,"cls":null,"clsYear":null,"clsFrom":null,"hist":"-----------","histFrom":2015,"ovf":[],"ovfYear":2025},"geometry":{"type":"Point","coordinates":[-2.76164,50.70927]}},{"type":"Feature","properties":{"id":"ukk2205-20970","name":"Hive","kind":"coastal","district":"Dorset","undertaker":"Wessex Water","rain":false,"desYr":2000,"cls":"Excellent","clsYear":2025,"clsFrom":2022,"hist":"EEEEEUEEEEE","histFrom":2015,"ovf":[{"n":"Burton Southover PS","s":0,"h":0}],"ovfYear":2025},"geometry":{"type":"Point","coordinates":[-2.72323,50.69625]}},{"type":"Feature","properties":{"id":"ukk2206-20900","name":"Portland Harbour Sandsfoot Castle","kind":"coastal","district":"Dorset","undertaker":"Wessex Water","rain":true,"desYr":1988,"cls":"Excellent","clsYear":2025,"clsFrom":2022,"hist":"GEGEGUGEEEE","histFrom":2015,"ovf":[{"n":"Rear Doncaster Road","s":11,"h":3.8},{"n":"Victoria Square Portland","s":5,"h":1.2},{"n":"Castle Cove Pumping Station","s":2,"h":0.8},{"n":"Hillcrest Road Pumpimg Station","s":1,"h":0.6},{"n":"Ferrybridge PS","s":0,"h":0}],"ovfYear":2025},"geometry":{"type":"Point","coordinates":[-2.46355,50.59423]}},{"type":"Feature","properties":{"id":"ukk2206-20800","name":"Portland Harbour Castle Cove","kind":"coastal","district":"Dorset","undertaker":"Wessex Water","rain":true,"desYr":1988,"cls":"Excellent","clsYear":2025,"clsFrom":2022,"hist":"CUUUEUEEEEE","histFrom":2015,"ovf":[{"n":"Rear Doncaster Road","s":11,"h":3.8},{"n":"Victoria Square Portland","s":5,"h":1.2},{"n":"Castle Cove Pumping Station","s":2,"h":0.8},{"n":"Hillcrest Road Pumpimg Station","s":1,"h":0.6},{"n":"Ferrybridge PS","s":0,"h":0}],"ovfYear":2025},"geometry":{"type":"Point","coordinates":[-2.45969,50.59631]}},{"type":"Feature","properties":{"id":"ukk2206-20700","name":"Weymouth Central","kind":"coastal","district":"Dorset","undertaker":"Wessex Water","rain":false,"desYr":1988,"cls":"Good","clsYear":2025,"clsFrom":2022,"hist":"EEEEEUEEEGG","histFrom":2015,"ovf":[{"n":"The Marsh Combined Sewer Overflow","s":10,"h":15.7},{"n":"Admiral Hardy CSO","s":6,"h":9.4},{"n":"Radipole Lake Pumping Station","s":0,"h":0}],"ovfYear":2025},"geometry":{"type":"Point","coordinates":[-2.45223,50.61445]}},{"type":"Feature","properties":{"id":"ukk2206-20600","name":"Weymouth Lodmoor","kind":"coastal","district":"Dorset","undertaker":"Wessex Water","rain":false,"desYr":1988,"cls":"Excellent","clsYear":2025,"clsFrom":2022,"hist":"EEEEEUEEEEE","histFrom":2015,"ovf":[{"n":"Cranford Avenue CSO","s":17,"h":4.9},{"n":"Melcombe Avenue CSO","s":13,"h":4}],"ovfYear":2025},"geometry":{"type":"Point","coordinates":[-2.44216,50.62587]}},{"type":"Feature","properties":{"id":"ukk2206-20500","name":"Church Ope Cove","kind":"coastal","district":"Dorset","undertaker":"Wessex Water","rain":false,"desYr":1988,"cls":"Excellent","clsYear":2025,"clsFrom":2022,"hist":"EEEEEUEEEEE","histFrom":2015,"ovf":[{"n":"Pennsylvania Road PS","s":0,"h":0}],"ovfYear":2025},"geometry":{"type":"Point","coordinates":[-2.42808,50.53797]}},{"type":"Feature","properties":{"id":"ukk2206-20400","name":"Bowleaze Cove","kind":"coastal","district":"Dorset","undertaker":"Wessex Water","rain":true,"desYr":1988,"cls":"Good","clsYear":2025,"clsFrom":2022,"hist":"GEEEEUGSSSG","histFrom":2015,"ovf":[],"ovfYear":2025},"geometry":{"type":"Point","coordinates":[-2.42224,50.63619]}},{"type":"Feature","properties":{"id":"ukk2206-20300","name":"Ringstead Bay","kind":"coastal","district":"Dorset","undertaker":"Wessex Water","rain":false,"desYr":1988,"cls":"Excellent","clsYear":2025,"clsFrom":2022,"hist":"EEEEEUEEEEE","histFrom":2015,"ovf":[{"n":"Ringstead STW","s":1,"h":5.9}],"ovfYear":2025},"geometry":{"type":"Point","coordinates":[-2.35135,50.63104]}},{"type":"Feature","properties":{"id":"ukk2204-20200","name":"Durdle Door West","kind":"coastal","district":"Dorset","undertaker":"Wessex Water","rain":false,"desYr":1988,"cls":"Excellent","clsYear":2025,"clsFrom":2022,"hist":"EEEEEUEEEEE","histFrom":2015,"ovf":[],"ovfYear":2025},"geometry":{"type":"Point","coordinates":[-2.27711,50.62193]}},{"type":"Feature","properties":{"id":"ukk2204-20100","name":"Durdle Door East","kind":"coastal","district":"Dorset","undertaker":"Wessex Water","rain":false,"desYr":1988,"cls":"Excellent","clsYear":2025,"clsFrom":2022,"hist":"EEEUEUEEEEE","histFrom":2015,"ovf":[],"ovfYear":2025},"geometry":{"type":"Point","coordinates":[-2.27414,50.62199]}},{"type":"Feature","properties":{"id":"ukk2204-20000","name":"Lulworth Cove","kind":"coastal","district":"Dorset","undertaker":"Wessex Water","rain":true,"desYr":1988,"cls":"Excellent","clsYear":2025,"clsFrom":2022,"hist":"GGEEEUEEEEE","histFrom":2015,"ovf":[{"n":"West Lulworth Pumping Station","s":8,"h":17.2},{"n":"Lulworth Beach Pumping Station","s":7,"h":1.4}],"ovfYear":2025},"geometry":{"type":"Point","coordinates":[-2.24933,50.61892]}},{"type":"Feature","properties":{"id":"ukk2204-19900","name":"Kimmeridge Bay","kind":"coastal","district":"Dorset","undertaker":"Wessex Water","rain":false,"desYr":1988,"cls":"Excellent","clsYear":2025,"clsFrom":2022,"hist":"EEEEEUEEEEE","histFrom":2015,"ovf":[],"ovfYear":2025},"geometry":{"type":"Point","coordinates":[-2.13141,50.61147]}},{"type":"Feature","properties":{"id":"ukk2102-19450","name":"Poole Harbour Rockley Sands","kind":"transitional","district":"Bournemouth, Christchurch and Poole","undertaker":"Wessex Water","rain":true,"desYr":1988,"cls":"Excellent","clsYear":2025,"clsFrom":2022,"hist":"EEEEEUGGGGE","histFrom":2015,"ovf":[{"n":"Moorland Way Pumping Station","s":17,"h":49.7},{"n":"Lytchett Minster STW","s":13,"h":162.8},{"n":"Poole E STW","s":12,"h":84.1},{"n":"Turlin Main Pumping Station","s":10,"h":29},{"n":"Wareham Wastewater Treatment Works","s":7,"h":18.8},{"n":"Holton Heath Ww Pumping Station","s":6,"h":14.3},{"n":"Egmont Road PS","s":4,"h":20.4},{"n":"Poole E STW","s":0,"h":0},{"n":"Not Applicable","s":0,"h":0}],"ovfYear":2025},"geometry":{"type":"Point","coordinates":[-2.04013,50.71931]}},{"type":"Feature","properties":{"id":"ukk2102-19400","name":"Poole Harbour Lake","kind":"transitional","district":"Bournemouth, Christchurch and Poole","undertaker":"Wessex Water","rain":true,"desYr":1988,"cls":"Excellent","clsYear":2025,"clsFrom":2022,"hist":"EEEEEUEEEEE","histFrom":2015,"ovf":[{"n":"Poole E STW","s":12,"h":84.1},{"n":"Poole E STW","s":0,"h":0},{"n":"Not Applicable","s":0,"h":0}],"ovfYear":2025},"geometry":{"type":"Point","coordinates":[-2.02525,50.71383]}},{"type":"Feature","properties":{"id":"ukk2204-19800","name":"Swanage Central","kind":"coastal","district":"Dorset","undertaker":"Wessex Water","rain":true,"desYr":1988,"cls":"Excellent","clsYear":2025,"clsFrom":2022,"hist":"EEEEEUEEEEE","histFrom":2015,"ovf":[{"n":"Swanage Tunnel","s":20,"h":75.9},{"n":"Herston Cross Attenuation Tank CSO","s":6,"h":10},{"n":"New Swanage Attenuation Tank","s":4,"h":8},{"n":"Swanage Tunnel","s":1,"h":0.4},{"n":"Swanage Tunnel","s":1,"h":0.3}],"ovfYear":2025},"geometry":{"type":"Point","coordinates":[-1.95751,50.61342]}},{"type":"Feature","properties":{"id":"ukk2204-19700","name":"Studland Knoll House","kind":"coastal","district":"Dorset","undertaker":"Wessex Water","rain":false,"desYr":1988,"cls":"Excellent","clsYear":2025,"clsFrom":2022,"hist":"EEEEEUEEEEE","histFrom":2015,"ovf":[{"n":"Coombe Pumping Station","s":5,"h":4.2}],"ovfYear":2025},"geometry":{"type":"Point","coordinates":[-1.95284,50.65208]}},{"type":"Feature","properties":{"id":"ukk2204-19600","name":"Shell Bay North","kind":"coastal","district":"Dorset","undertaker":"Wessex Water","rain":false,"desYr":1988,"cls":"Excellent","clsYear":2025,"clsFrom":2022,"hist":"EEEEEUEEEEE","histFrom":2015,"ovf":[],"ovfYear":2025},"geometry":{"type":"Point","coordinates":[-1.94879,50.67843]}},{"type":"Feature","properties":{"id":"ukk2102-19350","name":"Poole Sandbanks Peninsular","kind":"coastal","district":"Bournemouth, Christchurch and Poole","undertaker":"Wessex Water","rain":false,"desYr":1997,"cls":"Excellent","clsYear":2025,"clsFrom":2022,"hist":"EEEEEUEEEEE","histFrom":2015,"ovf":[],"ovfYear":2025},"geometry":{"type":"Point","coordinates":[-1.93737,50.68868]}},{"type":"Feature","properties":{"id":"ukk2102-19200","name":"Poole Shore Road Beach","kind":"coastal","district":"Bournemouth, Christchurch and Poole","undertaker":"Wessex Water","rain":false,"desYr":1988,"cls":"Excellent","clsYear":2025,"clsFrom":2022,"hist":"EEEEEUEEEEE","histFrom":2015,"ovf":[{"n":"Shore Road PS Overflow","s":25,"h":21.6}],"ovfYear":2025},"geometry":{"type":"Point","coordinates":[-1.92936,50.69465]}},{"type":"Feature","properties":{"id":"ukk2102-19190","name":"Poole Canford Cliffs Chine","kind":"coastal","district":"Bournemouth, Christchurch and Poole","undertaker":"Wessex Water","rain":false,"desYr":2004,"cls":"Excellent","clsYear":2025,"clsFrom":2022,"hist":"EEEEEUEEEEE","histFrom":2015,"ovf":[],"ovfYear":2025},"geometry":{"type":"Point","coordinates":[-1.9205,50.70045]}},{"type":"Feature","properties":{"id":"ukk2102-19170","name":"Poole Branksome Chine","kind":"coastal","district":"Bournemouth, Christchurch and Poole","undertaker":"Wessex Water","rain":false,"desYr":2000,"cls":"Excellent","clsYear":2025,"clsFrom":2022,"hist":"EEEEEUEEEEE","histFrom":2015,"ovf":[],"ovfYear":2025},"geometry":{"type":"Point","coordinates":[-1.90994,50.70589]}},{"type":"Feature","properties":{"id":"ukk2101-19160","name":"Bournemouth Alum Chine","kind":"coastal","district":"Bournemouth, Christchurch and Poole","undertaker":"Wessex Water","rain":false,"desYr":2000,"cls":"Excellent","clsYear":2025,"clsFrom":2022,"hist":"EEEEEUEEEEE","histFrom":2015,"ovf":[],"ovfYear":2025},"geometry":{"type":"Point","coordinates":[-1.8954,50.71111]}},{"type":"Feature","properties":{"id":"ukk2101-19150","name":"Bournemouth Durley Chine","kind":"coastal","district":"Bournemouth, Christchurch and Poole","undertaker":"Wessex Water","rain":false,"desYr":1993,"cls":"Excellent","clsYear":2025,"clsFrom":2022,"hist":"EEEEEUEEEEE","histFrom":2015,"ovf":[],"ovfYear":2025},"geometry":{"type":"Point","coordinates":[-1.88874,50.71305]}},{"type":"Feature","properties":{"id":"ukk2101-19100","name":"Bournemouth Pier","kind":"coastal","district":"Bournemouth, Christchurch and Poole","undertaker":"Wessex Water","rain":false,"desYr":1988,"cls":"Excellent","clsYear":2025,"clsFrom":2022,"hist":"GGGGEUEEEEE","histFrom":2015,"ovf":[{"n":"Bournemouth No 1 Pumping Station","s":11,"h":31.2}],"ovfYear":2025},"geometry":{"type":"Point","coordinates":[-1.87586,50.71547]}},{"type":"Feature","properties":{"id":"ukk2101-19060","name":"Bournemouth Boscombe Pier","kind":"coastal","district":"Bournemouth, Christchurch and Poole","undertaker":"Wessex Water","rain":true,"desYr":1993,"cls":"Excellent","clsYear":2025,"clsFrom":2022,"hist":"GGEGGUEGGEE","histFrom":2015,"ovf":[{"n":"Boscombe No.1 Pumping Station","s":14,"h":6.3}],"ovfYear":2025},"geometry":{"type":"Point","coordinates":[-1.84402,50.71945]}},{"type":"Feature","properties":{"id":"ukk2101-19050","name":"Bournemouth Manor Steps","kind":"coastal","district":"Bournemouth, Christchurch and Poole","undertaker":"Wessex Water","rain":true,"desYr":2018,"cls":"Excellent","clsYear":2025,"clsFrom":2022,"hist":"---EEUEEEEE","histFrom":2015,"ovf":[],"ovfYear":2025},"geometry":{"type":"Point","coordinates":[-1.83227,50.72025]}},{"type":"Feature","properties":{"id":"ukk2101-19030","name":"Bournemouth Fisherman`s Walk","kind":"coastal","district":"Bournemouth, Christchurch and Poole","undertaker":"Wessex Water","rain":false,"desYr":1993,"cls":"Excellent","clsYear":2025,"clsFrom":2022,"hist":"EEEEEUEEEEE","histFrom":2015,"ovf":[{"n":"Fisherman's Walk Overflow","s":1,"h":0.7}],"ovfYear":2025},"geometry":{"type":"Point","coordinates":[-1.81686,50.7207]}},{"type":"Feature","properties":{"id":"ukk1500-19002","name":"River Avon at Queen Elizabeth Gardens","kind":"river","district":"Wiltshire","undertaker":"Wessex Water","rain":false,"desYr":2026,"cls":null,"clsYear":null,"clsFrom":null,"hist":"-----------","histFrom":2015,"ovf":[],"ovfYear":2025},"geometry":{"type":"Point","coordinates":[-1.80218,51.06767]}},{"type":"Feature","properties":{"id":"ukk2101-19020","name":"Bournemouth Southbourne","kind":"coastal","district":"Bournemouth, Christchurch and Poole","undertaker":"Wessex Water","rain":false,"desYr":2000,"cls":"Excellent","clsYear":2025,"clsFrom":2022,"hist":"EEEEEUEEEEE","histFrom":2015,"ovf":[],"ovfYear":2025},"geometry":{"type":"Point","coordinates":[-1.79171,50.71897]}},{"type":"Feature","properties":{"id":"ukj3308-19001","name":"River Avon at Fordingbridge","kind":"river","district":"New Forest","undertaker":"Wessex Water","rain":false,"desYr":2024,"cls":"Poor","clsYear":2025,"clsFrom":2022,"hist":"---------PP","histFrom":2015,"ovf":[{"n":"Fordingbridge CSO","s":31,"h":25.6}],"ovfYear":2025},"geometry":{"type":"Point","coordinates":[-1.78854,50.92632]}},{"type":"Feature","properties":{"id":"ukk2101-19000","name":"Bournemouth Hengistbury West","kind":"coastal","district":"Bournemouth, Christchurch and Poole","undertaker":"Wessex Water","rain":false,"desYr":1988,"cls":"Excellent","clsYear":2025,"clsFrom":2022,"hist":"EEEEEUEEEEE","histFrom":2015,"ovf":[{"n":"Hengistbury Head Pumping Station","s":17,"h":86.8},{"n":"Not Applicable","s":0,"h":0},{"n":"Not Applicable","s":0,"h":0}],"ovfYear":2025},"geometry":{"type":"Point","coordinates":[-1.77108,50.71683]}},{"type":"Feature","properties":{"id":"ukk2201-18900","name":"Christchurch Mudeford Sandbank East","kind":"transitional","district":"Bournemouth, Christchurch and Poole","undertaker":"Wessex Water","rain":false,"desYr":1988,"cls":"Excellent","clsYear":2025,"clsFrom":2022,"hist":"EEEEEUEEEEE","histFrom":2015,"ovf":[],"ovfYear":2025},"geometry":{"type":"Point","coordinates":[-1.74213,50.71923]}},{"type":"Feature","properties":{"id":"ukk2201-18800","name":"Christchurch Avon Beach","kind":"transitional","district":"Bournemouth, Christchurch and Poole","undertaker":"Wessex Water","rain":false,"desYr":1988,"cls":"Excellent","clsYear":2025,"clsFrom":2022,"hist":"GGGEEUEEEEE","histFrom":2015,"ovf":[{"n":"Not Applicable","s":23,"h":9.7},{"n":"Not Applicable","s":15,"h":44.7},{"n":"Tuckton High Street CSO","s":15,"h":7.1},{"n":"Kinson Sewage Treatment Works","s":12,"h":54.9},{"n":"Christchurch Sewage Treatment Works","s":5,"h":47.6},{"n":"Holdenhurst Water Recycling Centre","s":4,"h":19.9},{"n":"Not Applicable","s":4,"h":1.6},{"n":"Iford Bridge Sewage Pumping Station","s":2,"h":0.8},{"n":"Palmersford Water Recycling Centre","s":2,"h":25.5},{"n":"Not Applicable","s":1,"h":0.4},{"n":"Not Applicable","s":1,"h":0.5},{"n":"Mudeford Gardens PS","s":0,"h":0}],"ovfYear":2025},"geometry":{"type":"Point","coordinates":[-1.73364,50.72925]}},{"type":"Feature","properties":{"id":"ukk2201-18750","name":"Christchurch Friar`s Cliff","kind":"transitional","district":"Bournemouth, Christchurch and Poole","undertaker":"Wessex Water","rain":false,"desYr":1990,"cls":"Excellent","clsYear":2025,"clsFrom":2022,"hist":"EEEEEUEEEEE","histFrom":2015,"ovf":[{"n":"Not Applicable","s":23,"h":9.7},{"n":"Not Applicable","s":15,"h":44.7},{"n":"Tuckton High Street CSO","s":15,"h":7.1},{"n":"Kinson Sewage Treatment Works","s":12,"h":54.9},{"n":"Christchurch Sewage Treatment Works","s":5,"h":47.6},{"n":"Holdenhurst Water Recycling Centre","s":4,"h":19.9},{"n":"Not Applicable","s":4,"h":1.6},{"n":"Iford Bridge Sewage Pumping Station","s":2,"h":0.8},{"n":"Palmersford Water Recycling Centre","s":2,"h":25.5},{"n":"Not Applicable","s":1,"h":0.4},{"n":"Not Applicable","s":1,"h":0.5},{"n":"Mudeford Gardens PS","s":0,"h":0}],"ovfYear":2025},"geometry":{"type":"Point","coordinates":[-1.72939,50.73204]}},{"type":"Feature","properties":{"id":"ukk2201-18700","name":"Christchurch Highcliffe Castle","kind":"coastal","district":"Bournemouth, Christchurch and Poole","undertaker":"Wessex Water","rain":true,"desYr":1988,"cls":"Excellent","clsYear":2025,"clsFrom":2022,"hist":"EEEEEUEEEEE","histFrom":2015,"ovf":[],"ovfYear":2025},"geometry":{"type":"Point","coordinates":[-1.71444,50.73563]}},{"type":"Feature","properties":{"id":"ukk2201-17300","name":"Highcliffe","kind":"coastal","district":"Bournemouth, Christchurch and Poole","undertaker":"Southern Water","rain":false,"desYr":1988,"cls":"Excellent","clsYear":2025,"clsFrom":2022,"hist":"EEEEEUEEEEE","histFrom":2015,"ovf":[{"n":"Becton Lane Barton On Sea Ceo","s":4,"h":13.4}],"ovfYear":2025},"geometry":{"type":"Point","coordinates":[-1.69847,50.73698]}},{"type":"Feature","properties":{"id":"ukk2201-17200","name":"Christchurch Bay","kind":"coastal","district":"New Forest","undertaker":"Southern Water","rain":false,"desYr":1988,"cls":"Excellent","clsYear":2025,"clsFrom":2022,"hist":"EEEEEUEEEEE","histFrom":2015,"ovf":[{"n":"Becton Lane Barton On Sea Ceo","s":4,"h":13.4},{"n":"Friars Walk Barton-On-Sea CSO","s":2,"h":0.5},{"n":"Sunnyfield Road Barton-On-Sea CSO","s":1,"h":0.1}],"ovfYear":2025},"geometry":{"type":"Point","coordinates":[-1.66269,50.73432]}},{"type":"Feature","properties":{"id":"ukj3308-17100","name":"Milford-on-sea","kind":"coastal","district":"New Forest","undertaker":"Southern Water","rain":false,"desYr":1988,"cls":"Excellent","clsYear":2025,"clsFrom":2022,"hist":"EEEEEUEEEEE","histFrom":2015,"ovf":[{"n":"Becton Lane Barton On Sea Ceo","s":4,"h":13.4}],"ovfYear":2025},"geometry":{"type":"Point","coordinates":[-1.6106,50.72497]}},{"type":"Feature","properties":{"id":"ukj3400-17500","name":"Totland Bay","kind":"coastal","district":"Isle of Wight","undertaker":"Southern Water","rain":false,"desYr":1988,"cls":"Excellent","clsYear":2025,"clsFrom":2022,"hist":"EEEEEUEEEEE","histFrom":2015,"ovf":[{"n":"Norton Headworks WPS","s":50,"h":169.9},{"n":"Thorely Road Bouldner Ceo","s":13,"h":42.8},{"n":"Linstone Chine CSO","s":9,"h":65.1},{"n":"Norton Headworks WPS","s":9,"h":19},{"n":"Turvills Field PS/The Pier PS","s":6,"h":19.9},{"n":"Colwell Chine CSO","s":2,"h":1.6},{"n":"Norton Green CSO","s":0,"h":0}],"ovfYear":2025},"geometry":{"type":"Point","coordinates":[-1.54567,50.68082]}},{"type":"Feature","properties":{"id":"ukj3400-17600","name":"Colwell Bay","kind":"coastal","district":"Isle of Wight","undertaker":"Southern Water","rain":true,"desYr":1988,"cls":"Excellent","clsYear":2025,"clsFrom":2022,"hist":"EEEEEUEEEEE","histFrom":2015,"ovf":[{"n":"Norton Headworks WPS","s":50,"h":169.9},{"n":"Thorely Road Bouldner Ceo","s":13,"h":42.8},{"n":"Yarmouth PS","s":12,"h":27.8},{"n":"Linstone Chine CSO","s":9,"h":65.1},{"n":"Norton Headworks WPS","s":9,"h":19},{"n":"Turvills Field PS/The Pier PS","s":6,"h":19.9},{"n":"Mill Road / Tennyson Road Car Park","s":5,"h":2.7},{"n":"Colwell Chine CSO","s":2,"h":1.6},{"n":"Norton Green CSO","s":0,"h":0}],"ovfYear":2025},"geometry":{"type":"Point","coordinates":[-1.53845,50.68946]}},{"type":"Feature","properties":{"id":"ukj3400-17400","name":"Compton Bay","kind":"coastal","district":"Isle of Wight","undertaker":"Southern Water","rain":false,"desYr":1988,"cls":"Excellent","clsYear":2025,"clsFrom":2022,"hist":"EEEEEUEEEEE","histFrom":2015,"ovf":[],"ovfYear":2025},"geometry":{"type":"Point","coordinates":[-1.4683,50.65607]}},{"type":"Feature","properties":{"id":"ukj3308-17000","name":"Lepe","kind":"coastal","district":"New Forest","undertaker":"Southern Water","rain":false,"desYr":1988,"cls":"Excellent","clsYear":2025,"clsFrom":2022,"hist":"EEEEEUEEEEE","histFrom":2015,"ovf":[{"n":"West Common Road Fawley Ceo","s":0,"h":0}],"ovfYear":2025},"geometry":{"type":"Point","coordinates":[-1.35451,50.78428]}},{"type":"Feature","properties":{"id":"ukj3400-17700","name":"Gurnard","kind":"coastal","district":"Isle of Wight","undertaker":"Southern Water","rain":true,"desYr":1988,"cls":"Excellent","clsYear":2025,"clsFrom":2022,"hist":"GGEEEUGGGGE","histFrom":2015,"ovf":[{"n":"Woodvale Transfer Sst","s":70,"h":201.6},{"n":"High Street Pumping Station","s":61,"h":225.6},{"n":"Cowes (Springhill) Headworks WPS","s":60,"h":615},{"n":"St Mary Road Cowes Wwps CSO","s":51,"h":97.6},{"n":"Thetis Wharf PS","s":48,"h":37.9},{"n":"Egypt Point PS","s":44,"h":77.2},{"n":"Castle Street Cowes CSO","s":40,"h":21.8},{"n":"Market Hill Cowes CSO","s":23,"h":39.5},{"n":"Gurnard PS","s":22,"h":130.8},{"n":"Castle Street Cowes CSO","s":9,"h":2.4},{"n":"Terminus Road Cowes CSO","s":5,"h":1.5},{"n":"Whitford Bridge CSO","s":4,"h":7.5},{"n":"Egypt Point PS","s":3,"h":1.8},{"n":"Floating Bridge Cowes CSO","s":3,"h":0.3},{"n":"The Parade PS","s":1,"h":1.2}],"ovfYear":2025},"geometry":{"type":"Point","coordinates":[-1.32506,50.76073]}},{"type":"Feature","properties":{"id":"ukj3308-16900","name":"Calshot","kind":"coastal","district":"New Forest","undertaker":"Southern Water","rain":false,"desYr":1988,"cls":"Excellent","clsYear":2025,"clsFrom":2022,"hist":"EEEEEUEEEEE","histFrom":2015,"ovf":[{"n":"Ashlett Creek WWTW","s":2,"h":15.2}],"ovfYear":2025},"geometry":{"type":"Point","coordinates":[-1.31815,50.8093]}},{"type":"Feature","properties":{"id":"ukj3400-17800","name":"Cowes","kind":"coastal","district":"Isle of Wight","undertaker":"Southern Water","rain":false,"desYr":1988,"cls":"Excellent","clsYear":2025,"clsFrom":2022,"hist":"EEEGGUEEEEE","histFrom":2015,"ovf":[{"n":"Woodvale Transfer Sst","s":70,"h":201.6},{"n":"High Street Pumping Station","s":61,"h":225.6},{"n":"Cowes (Springhill) Headworks WPS","s":60,"h":615},{"n":"St Mary Road Cowes Wwps CSO","s":51,"h":97.6},{"n":"Thetis Wharf PS","s":48,"h":37.9},{"n":"Egypt Point PS","s":44,"h":77.2},{"n":"Ryde (Appley Park) Headworks WPS","s":43,"h":360.6},{"n":"Castle Street Cowes CSO","s":40,"h":21.8},{"n":"Market Hill Cowes CSO","s":23,"h":39.5},{"n":"Gurnard PS","s":22,"h":130.8},{"n":"Castle Street Cowes CSO","s":9,"h":2.4},{"n":"Terminus Road Cowes CSO","s":5,"h":1.5},{"n":"Whitford Bridge CSO","s":4,"h":7.5},{"n":"Egypt Point PS","s":3,"h":1.8},{"n":"Floating Bridge Cowes CSO","s":3,"h":0.3},{"n":"The Parade PS","s":1,"h":1.2}],"ovfYear":2025},"geometry":{"type":"Point","coordinates":[-1.30936,50.76783]}},{"type":"Feature","properties":{"id":"ukj3400-17850","name":"East Cowes","kind":"coastal","district":"Isle of Wight","undertaker":"Southern Water","rain":false,"desYr":2022,"cls":"Excellent","clsYear":2025,"clsFrom":2022,"hist":"-------EEEE","histFrom":2015,"ovf":[],"ovfYear":2025},"geometry":{"type":"Point","coordinates":[-1.28329,50.76477]}},{"type":"Feature","properties":{"id":"ukj3304-16850","name":"Hillhead","kind":"coastal","district":"Fareham","undertaker":"Southern Water","rain":true,"desYr":1990,"cls":"Excellent","clsYear":2025,"clsFrom":2022,"hist":"EGGGGUGEGEE","histFrom":2015,"ovf":[{"n":"Hook Park WPS","s":13,"h":76.5},{"n":"Salterns Road Hill Head WPS","s":8,"h":22.9},{"n":"Hook Park WPS","s":5,"h":35.4},{"n":"Newgate Lane WPS Ceo","s":3,"h":16.6},{"n":"Queens Road Lee-On-The-Solent Ceo","s":3,"h":3.2},{"n":"Lakeside Lee-On-Solent Ceo","s":1,"h":0.9},{"n":"Salterns Road Stubbington CSO","s":1,"h":2.4}],"ovfYear":2025},"geometry":{"type":"Point","coordinates":[-1.22537,50.81344]}},{"type":"Feature","properties":{"id":"ukj3400-18600","name":"Ventnor","kind":"coastal","district":"Isle of Wight","undertaker":"Southern Water","rain":false,"desYr":1988,"cls":"Excellent","clsYear":2025,"clsFrom":2022,"hist":"EEEEEUEEEEE","histFrom":2015,"ovf":[{"n":"Luccombe Ceo","s":5,"h":2.4},{"n":"Lion Point Transfer PS","s":1,"h":0.6},{"n":"Flowers Brook Transfer PS","s":0,"h":0}],"ovfYear":2025},"geometry":{"type":"Point","coordinates":[-1.20995,50.59311]}},{"type":"Feature","properties":{"id":"ukj3305-16800","name":"Lee-on-Solent","kind":"coastal","district":"Gosport","undertaker":"Southern Water","rain":false,"desYr":1988,"cls":"Excellent","clsYear":2025,"clsFrom":2022,"hist":"EEEEEUEEEEE","histFrom":2015,"ovf":[{"n":"Peel Common WWTW","s":37,"h":282.8},{"n":"Salterns Road Hill Head WPS","s":8,"h":22.9},{"n":"Newgate Lane WPS Ceo","s":3,"h":16.6},{"n":"Queens Road Lee-On-The-Solent Ceo","s":3,"h":3.2},{"n":"Green Crescent O/Flow","s":2,"h":19.4},{"n":"Lakeside Lee-On-Solent Ceo","s":1,"h":0.9},{"n":"Salterns Road Stubbington CSO","s":1,"h":2.4}],"ovfYear":2025},"geometry":{"type":"Point","coordinates":[-1.20426,50.80096]}},{"type":"Feature","properties":{"id":"ukj3400-18500","name":"Shanklin","kind":"coastal","district":"Isle of Wight","undertaker":"Southern Water","rain":true,"desYr":1988,"cls":"Excellent","clsYear":2025,"clsFrom":2022,"hist":"SGGEEUEEEEE","histFrom":2015,"ovf":[{"n":"Sandown WWTW","s":71,"h":889.2},{"n":"Sandown WWTW","s":69,"h":731.7},{"n":"Hope Beach WPS","s":9,"h":7.3},{"n":"Luccombe Ceo","s":5,"h":2.4},{"n":"Eastern Gardens WPS","s":2,"h":1.2},{"n":"Fishermans Cottage CSO","s":0,"h":0}],"ovfYear":2025},"geometry":{"type":"Point","coordinates":[-1.17316,50.62699]}},{"type":"Feature","properties":{"id":"ukj3400-18400","name":"Sandown","kind":"coastal","district":"Isle of Wight","undertaker":"Southern Water","rain":true,"desYr":1988,"cls":"Good","clsYear":2025,"clsFrom":2022,"hist":"GGEEEUEEGGG","histFrom":2015,"ovf":[{"n":"Sandown WWTW","s":71,"h":889.2},{"n":"Sandown WWTW","s":69,"h":731.7},{"n":"Hope Beach WPS","s":9,"h":7.3},{"n":"Eastern Gardens WPS","s":2,"h":1.2},{"n":"Fishermans Cottage CSO","s":0,"h":0}],"ovfYear":2025},"geometry":{"type":"Point","coordinates":[-1.15061,50.65495]}},{"type":"Feature","properties":{"id":"ukj3305-16700","name":"Stokes Bay","kind":"coastal","district":"Gosport","undertaker":"Southern Water","rain":false,"desYr":1988,"cls":"Good","clsYear":2025,"clsFrom":2022,"hist":"EEEEEUEEEGG","histFrom":2015,"ovf":[{"n":"Pier Road Southsea CSO","s":43,"h":58.9},{"n":"Gruneison Road Storm PS","s":39,"h":98.7},{"n":"Peel Common WWTW","s":37,"h":282.8},{"n":"North End Avenue Portsmouth CSO","s":31,"h":63.3},{"n":"Mile End Road CSO","s":18,"h":19.7},{"n":"Grove Road Gosport Ceo","s":8,"h":33.8},{"n":"Foster Road Gosport WPS Ceo","s":6,"h":11},{"n":"Widley Road Portsmouth CSO","s":5,"h":4.8},{"n":"Bury Road Gosport Ceo","s":4,"h":6.9},{"n":"Commercial Road/Rudmore Road CSO","s":4,"h":5.2},{"n":"Cambridge Road/Brockhurst Road PS","s":3,"h":1.8},{"n":"Gruneison Road Storm PS","s":3,"h":1.8},{"n":"Queens Road Lee-On-The-Solent Ceo","s":3,"h":3.2},{"n":"Green Crescent O/Flow","s":2,"h":19.4},{"n":"Village Road Alverstoke Ceo","s":2,"h":1.1},{"n":"Alver Road Gosport Ceo","s":1,"h":0.9},{"n":"Gruneison Road Storm PS","s":1,"h":0.4},{"n":"Harbour Road Gosport Ceo","s":1,"h":0.5},{"n":"Lakeside Lee-On-Solent Ceo","s":1,"h":0.9},{"n":"Gruneison Road Storm PS","s":0,"h":0},{"n":"Hardway Ceo, Priory Road, Gosport","s":0,"h":0},{"n":"Holbrook Road/Pyning Street CSO","s":0,"h":0},{"n":"Lees Lane Gosport Ceo","s":0,"h":0},{"n":"Middlecroft Lane Gosport CSO","s":0,"h":0},{"n":"Mumby Road Gosport WPS/Ceo","s":0,"h":0},{"n":"St Matthews Square Gosport Ceo","s":0,"h":0},{"n":"The Anchorage Gosport Ceo","s":0,"h":0}],"ovfYear":2025},"geometry":{"type":"Point","coordinates":[-1.15036,50.77757]}},{"type":"Feature","properties":{"id":"ukj3400-17900","name":"Ryde","kind":"coastal","district":"Isle of Wight","undertaker":"Southern Water","rain":true,"desYr":1988,"cls":"Good","clsYear":2025,"clsFrom":2022,"hist":"GGGGGUEGGGG","histFrom":2015,"ovf":[{"n":"Ryde (Appley Park) Headworks WPS","s":43,"h":360.6},{"n":"Prince Consort WPS","s":32,"h":41.1},{"n":"Fishbourne Weir CSO","s":28,"h":144.4},{"n":"Fishbourne Lane Fishbourne Iow Ceo","s":18,"h":74.2},{"n":"Seagrove WPS CSO","s":18,"h":104.4},{"n":"Ladies Walk Binstead Ceo","s":14,"h":59},{"n":"Westwood Road CSO","s":11,"h":12.8},{"n":"Havenstreet PS","s":6,"h":20.1},{"n":"Simeon Street CSO","s":5,"h":25},{"n":"Ashey Road CSO","s":4,"h":1.6},{"n":"Great Preston Road CSO","s":4,"h":3.6},{"n":"Augusta Road CSO","s":3,"h":1.9},{"n":"Park Road CSO","s":3,"h":14.3},{"n":"Seaview WPS","s":2,"h":0.8},{"n":"Salterns WPS CSO","s":1,"h":0.4},{"n":"Springvale WPS CSO","s":1,"h":0.2},{"n":"Spencer Road Ryde CSO","s":0,"h":0},{"n":"Springvale WPS CSO","s":0,"h":0}],"ovfYear":2025},"geometry":{"type":"Point","coordinates":[-1.14979,50.73081]}},{"type":"Feature","properties":{"id":"ukj3400-18350","name":"Yaverland","kind":"coastal","district":"Isle of Wight","undertaker":"Southern Water","rain":false,"desYr":2008,"cls":"Excellent","clsYear":2025,"clsFrom":2022,"hist":"GGGEEUEEEEE","histFrom":2015,"ovf":[{"n":"Sandown WWTW","s":71,"h":889.2},{"n":"Sandown WWTW","s":69,"h":731.7},{"n":"Hope Beach WPS","s":9,"h":7.3},{"n":"Eastern Gardens WPS","s":2,"h":1.2}],"ovfYear":2025},"geometry":{"type":"Point","coordinates":[-1.13321,50.6618]}},{"type":"Feature","properties":{"id":"ukj3400-18000","name":"Seagrove","kind":"coastal","district":"Isle of Wight","undertaker":"Southern Water","rain":true,"desYr":1988,"cls":"Excellent","clsYear":2025,"clsFrom":2022,"hist":"GGGGEUEEEEE","histFrom":2015,"ovf":[{"n":"St Helens WWTW","s":57,"h":516.4},{"n":"Ryde (Appley Park) Headworks WPS","s":43,"h":360.6},{"n":"Seagrove WPS CSO","s":18,"h":104.4},{"n":"St Helens WWTW","s":14,"h":20.4},{"n":"Westwood Road CSO","s":11,"h":12.8},{"n":"The Point Bembridge New Ceo","s":9,"h":20.9},{"n":"Simeon Street CSO","s":5,"h":25},{"n":"Great Preston Road CSO","s":4,"h":3.6},{"n":"Park Road CSO","s":3,"h":14.3},{"n":"Seaview WPS","s":2,"h":0.8},{"n":"Latimer Road St Helens Ceo","s":1,"h":0.6},{"n":"Salterns WPS CSO","s":1,"h":0.4},{"n":"Springvale WPS CSO","s":1,"h":0.2},{"n":"Spencer Road Ryde CSO","s":0,"h":0},{"n":"Springvale WPS CSO","s":0,"h":0},{"n":"St Helens Duver PS","s":0,"h":0}],"ovfYear":2025},"geometry":{"type":"Point","coordinates":[-1.10685,50.7163]}},{"type":"Feature","properties":{"id":"ukj3400-18100","name":"St Helens","kind":"transitional","district":"Isle of Wight","undertaker":"Southern Water","rain":false,"desYr":1988,"cls":"Excellent","clsYear":2025,"clsFrom":2022,"hist":"GEEEEUEEEEE","histFrom":2015,"ovf":[{"n":"St Helens WWTW","s":57,"h":516.4},{"n":"Lane End Transfer PS","s":27,"h":162.7},{"n":"Brading Wastewater Pumping Station","s":23,"h":105.2},{"n":"Hillway CSO (Hillway WPS)","s":21,"h":131.5},{"n":"Seagrove WPS CSO","s":18,"h":104.4},{"n":"St Helens WWTW","s":14,"h":20.4},{"n":"Westwood Road CSO","s":11,"h":12.8},{"n":"The Point Bembridge New Ceo","s":9,"h":20.9},{"n":"Seaview WPS","s":2,"h":0.8},{"n":"Latimer Road St Helens Ceo","s":1,"h":0.6},{"n":"Salterns WPS CSO","s":1,"h":0.4},{"n":"Springvale WPS CSO","s":1,"h":0.2},{"n":"Alverstone PS","s":0,"h":0},{"n":"Spencer Road Ryde CSO","s":0,"h":0},{"n":"Springvale WPS CSO","s":0,"h":0},{"n":"St Helens Duver PS","s":0,"h":0}],"ovfYear":2025},"geometry":{"type":"Point","coordinates":[-1.09862,50.69859]}},{"type":"Feature","properties":{"id":"ukj3400-18300","name":"Whitecliff Bay","kind":"coastal","district":"Isle of Wight","undertaker":"Southern Water","rain":false,"desYr":1988,"cls":"Excellent","clsYear":2025,"clsFrom":2022,"hist":"EEEEEUEEEEE","histFrom":2015,"ovf":[{"n":"Sandown WWTW","s":71,"h":889.2},{"n":"Sandown WWTW","s":69,"h":731.7}],"ovfYear":2025},"geometry":{"type":"Point","coordinates":[-1.09425,50.67193]}},{"type":"Feature","properties":{"id":"ukj3100-16600","name":"Southsea East","kind":"coastal","district":"City of Portsmouth","undertaker":"Southern Water","rain":true,"desYr":1988,"cls":"Poor","clsYear":2025,"clsFrom":2022,"hist":"GEEEEUGSPPP","histFrom":2015,"ovf":[{"n":"Henderson Road Eastney WPS","s":86,"h":499.6},{"n":"Pier Road Southsea CSO","s":43,"h":58.9},{"n":"Gruneison Road Storm PS","s":39,"h":98.7},{"n":"North End Avenue Portsmouth CSO","s":31,"h":63.3},{"n":"Mile End Road CSO","s":18,"h":19.7},{"n":"Fort Cumberland Stormwater Tanks","s":9,"h":23.5},{"n":"Grove Road Gosport Ceo","s":8,"h":33.8},{"n":"Foster Road Gosport WPS Ceo","s":6,"h":11},{"n":"Widley Road Portsmouth CSO","s":5,"h":4.8},{"n":"Bury Road Gosport Ceo","s":4,"h":6.9},{"n":"Commercial Road/Rudmore Road CSO","s":4,"h":5.2},{"n":"Cambridge Road/Brockhurst Road PS","s":3,"h":1.8},{"n":"Gruneison Road Storm PS","s":3,"h":1.8},{"n":"Village Road Alverstoke Ceo","s":2,"h":1.1},{"n":"Alver Road Gosport Ceo","s":1,"h":0.9},{"n":"Gruneison Road Storm PS","s":1,"h":0.4},{"n":"Harbour Road Gosport Ceo","s":1,"h":0.5},{"n":"Gruneison Road Storm PS","s":0,"h":0},{"n":"Hardway Ceo, Priory Road, Gosport","s":0,"h":0},{"n":"Holbrook Road/Pyning Street CSO","s":0,"h":0},{"n":"Lees Lane Gosport Ceo","s":0,"h":0},{"n":"Middlecroft Lane Gosport CSO","s":0,"h":0},{"n":"Mumby Road Gosport WPS/Ceo","s":0,"h":0},{"n":"St Matthews Square Gosport Ceo","s":0,"h":0},{"n":"The Anchorage Gosport Ceo","s":0,"h":0}],"ovfYear":2025},"geometry":{"type":"Point","coordinates":[-1.07942,50.77865]}},{"type":"Feature","properties":{"id":"ukj3400-18200","name":"Bembridge","kind":"coastal","district":"Isle of Wight","undertaker":"Southern Water","rain":true,"desYr":1988,"cls":"Good","clsYear":2025,"clsFrom":2022,"hist":"SGGEEUEEGGG","histFrom":2015,"ovf":[{"n":"St Helens WWTW","s":57,"h":516.4},{"n":"Lane End Transfer PS","s":27,"h":162.7},{"n":"Hillway CSO (Hillway WPS)","s":21,"h":131.5},{"n":"St Helens WWTW","s":14,"h":20.4},{"n":"The Point Bembridge New Ceo","s":9,"h":20.9},{"n":"Latimer Road St Helens Ceo","s":1,"h":0.6},{"n":"St Helens Duver PS","s":0,"h":0}],"ovfYear":2025},"geometry":{"type":"Point","coordinates":[-1.06967,50.6862]}},{"type":"Feature","properties":{"id":"ukj3100-16500","name":"Eastney","kind":"coastal","district":"City of Portsmouth","undertaker":"Southern Water","rain":false,"desYr":1988,"cls":"Good","clsYear":2025,"clsFrom":2022,"hist":"EEEEEUEEGGG","histFrom":2015,"ovf":[{"n":"Henderson Road Eastney WPS","s":86,"h":499.6},{"n":"Fort Cumberland Stormwater Tanks","s":9,"h":23.5},{"n":"Burrfields Road Portsmouth CSO","s":0,"h":0}],"ovfYear":2025},"geometry":{"type":"Point","coordinates":[-1.04512,50.78462]}},{"type":"Feature","properties":{"id":"ukj3307-16400","name":"Hayling Beachlands West","kind":"coastal","district":"Havant","undertaker":"Southern Water","rain":false,"desYr":1988,"cls":"Excellent","clsYear":2025,"clsFrom":2022,"hist":"EEEEEUEEEEE","histFrom":2015,"ovf":[{"n":"Henderson Road Eastney WPS","s":86,"h":499.6},{"n":"Fort Cumberland Stormwater Tanks","s":9,"h":23.5},{"n":"Burrfields Road Portsmouth CSO","s":0,"h":0},{"n":"Fishery Lane PS","s":0,"h":0},{"n":"Green Lane Hayling Island CSO","s":0,"h":0}],"ovfYear":2025},"geometry":{"type":"Point","coordinates":[-1.00131,50.78359]}},{"type":"Feature","properties":{"id":"ukj3307-16350","name":"Hayling Beachlands Central","kind":"coastal","district":"Havant","undertaker":"Southern Water","rain":false,"desYr":1998,"cls":"Excellent","clsYear":2025,"clsFrom":2022,"hist":"EEEEEUEEEEE","histFrom":2015,"ovf":[{"n":"Henderson Road Eastney WPS","s":86,"h":499.6},{"n":"Fort Cumberland Stormwater Tanks","s":9,"h":23.5},{"n":"Fishery Lane PS","s":0,"h":0},{"n":"Green Lane Hayling Island CSO","s":0,"h":0}],"ovfYear":2025},"geometry":{"type":"Point","coordinates":[-0.98925,50.78357]}},{"type":"Feature","properties":{"id":"ukj3307-16300","name":"Hayling Eastoke","kind":"coastal","district":"Havant","undertaker":"Southern Water","rain":false,"desYr":1988,"cls":"Excellent","clsYear":2025,"clsFrom":2022,"hist":"EEEEEUEEEEE","histFrom":2015,"ovf":[{"n":"Fishery Lane PS","s":0,"h":0},{"n":"Green Lane Hayling Island CSO","s":0,"h":0}],"ovfYear":2025},"geometry":{"type":"Point","coordinates":[-0.96733,50.78059]}},{"type":"Feature","properties":{"id":"ukj2403-16100","name":"West Wittering","kind":"coastal","district":"Chichester","undertaker":"Southern Water","rain":false,"desYr":1988,"cls":"Excellent","clsYear":2025,"clsFrom":2022,"hist":"EEEEEUEEEEE","histFrom":2015,"ovf":[{"n":"Fishery Lane PS","s":0,"h":0}],"ovfYear":2025},"geometry":{"type":"Point","coordinates":[-0.9121,50.77649]}},{"type":"Feature","properties":{"id":"ukj2403-16000","name":"Bracklesham Bay","kind":"coastal","district":"Chichester","undertaker":"Southern Water","rain":false,"desYr":1988,"cls":"Excellent","clsYear":2025,"clsFrom":2022,"hist":"EEEEEUEEEEE","histFrom":2015,"ovf":[],"ovfYear":2025},"geometry":{"type":"Point","coordinates":[-0.86054,50.76099]}},{"type":"Feature","properties":{"id":"ukj2403-15900","name":"Selsey","kind":"coastal","district":"Chichester","undertaker":"Southern Water","rain":false,"desYr":1988,"cls":"Excellent","clsYear":2025,"clsFrom":2022,"hist":"GGGEEUEEEEE","histFrom":2015,"ovf":[{"n":"Outside 83 East Beach Selsey Ceo","s":9,"h":61.5},{"n":"Church Road Selsey CSO","s":0,"h":0},{"n":"East Beach Road Selsey CSO","s":0,"h":0}],"ovfYear":2025},"geometry":{"type":"Point","coordinates":[-0.7703,50.73629]}},{"type":"Feature","properties":{"id":"ukj2402-15800","name":"Pagham","kind":"coastal","district":"Arun","undertaker":"Southern Water","rain":true,"desYr":1988,"cls":"Good","clsYear":2025,"clsFrom":2022,"hist":"GGGGEUEEGGG","histFrom":2015,"ovf":[{"n":"Bognor Regis Wastewater PS","s":62,"h":159.1},{"n":"Sidlesham WWTW","s":37,"h":435.8},{"n":"Summer Lane Pagham WWTW","s":22,"h":358},{"n":"Aldwick Avenue CSO","s":4,"h":15},{"n":"Carlton Avenue Bognor CSO","s":3,"h":14.9},{"n":"Aldwick Road/Victoria Road CSO","s":1,"h":0.9}],"ovfYear":2025},"geometry":{"type":"Point","coordinates":[-0.73647,50.76753]}},{"type":"Feature","properties":{"id":"ukj2402-15700","name":"Bognor Regis (Aldwick)","kind":"coastal","district":"Arun","undertaker":"Southern Water","rain":true,"desYr":1988,"cls":"Poor","clsYear":2025,"clsFrom":2022,"hist":"GSSSGUGPPPP","histFrom":2015,"ovf":[{"n":"Bognor Regis Wastewater PS","s":62,"h":159.1},{"n":"Bognor Main Ceo","s":10,"h":51.5},{"n":"Aldwick Avenue CSO","s":4,"h":15},{"n":"Carlton Avenue Bognor CSO","s":3,"h":14.9},{"n":"Gloucester Road CSO","s":3,"h":2.7},{"n":"Aldwick Road/Victoria Road CSO","s":1,"h":0.9},{"n":"Chichester Road Bognor CSO","s":1,"h":3.1},{"n":"Shripney Road P.S.","s":0,"h":0}],"ovfYear":2025},"geometry":{"type":"Point","coordinates":[-0.69133,50.77924]}},{"type":"Feature","properties":{"id":"ukj2402-15680","name":"Bognor Regis East","kind":"coastal","district":"Arun","undertaker":"Southern Water","rain":true,"desYr":1999,"cls":"Sufficient","clsYear":2025,"clsFrom":2022,"hist":"GGGGGUEGGSS","histFrom":2015,"ovf":[{"n":"Lidsey WWTW","s":157,"h":2406.9},{"n":"Bognor Regis Wastewater PS","s":62,"h":159.1},{"n":"Bognor Main Ceo","s":10,"h":51.5},{"n":"Tangmere Wastewater Treatment Works","s":10,"h":137.6},{"n":"Aldwick Avenue CSO","s":4,"h":15},{"n":"Carlton Avenue Bognor CSO","s":3,"h":14.9},{"n":"Gloucester Road CSO","s":3,"h":2.7},{"n":"Aldwick Road/Victoria Road CSO","s":1,"h":0.9},{"n":"Chichester Road Bognor CSO","s":1,"h":3.1},{"n":"Shripney Road P.S.","s":0,"h":0}],"ovfYear":2025},"geometry":{"type":"Point","coordinates":[-0.6694,50.78234]}},{"type":"Feature","properties":{"id":"ukj2402-15650","name":"Felpham","kind":"coastal","district":"Arun","undertaker":"Southern Water","rain":true,"desYr":1996,"cls":"Good","clsYear":2025,"clsFrom":2022,"hist":"GGSGGUGGGGG","histFrom":2015,"ovf":[{"n":"Lidsey WWTW","s":157,"h":2406.9},{"n":"Bognor Regis Wastewater PS","s":62,"h":159.1},{"n":"Bognor Main Ceo","s":10,"h":51.5},{"n":"Tangmere Wastewater Treatment Works","s":10,"h":137.6},{"n":"Aldwick Avenue CSO","s":4,"h":15},{"n":"Gloucester Road CSO","s":3,"h":2.7},{"n":"Aldwick Road/Victoria Road CSO","s":1,"h":0.9},{"n":"Ancton Lane Middleton-On-Sea CSO","s":1,"h":2},{"n":"Chichester Road Bognor CSO","s":1,"h":3.1},{"n":"Shripney Road P.S.","s":0,"h":0}],"ovfYear":2025},"geometry":{"type":"Point","coordinates":[-0.65254,50.78629]}},{"type":"Feature","properties":{"id":"ukj2402-15600","name":"Middleton-on-sea","kind":"coastal","district":"Arun","undertaker":"Southern Water","rain":false,"desYr":1988,"cls":"Excellent","clsYear":2025,"clsFrom":2022,"hist":"EEEEEUEEEEE","histFrom":2015,"ovf":[{"n":"Lidsey WWTW","s":157,"h":2406.9},{"n":"Bognor Main Ceo","s":10,"h":51.5},{"n":"Gloucester Road CSO","s":3,"h":2.7},{"n":"Ancton Lane Middleton-On-Sea CSO","s":1,"h":2},{"n":"Chichester Road Bognor CSO","s":1,"h":3.1},{"n":"Hobbs Cottage CSO, Climping Street","s":1,"h":0.5}],"ovfYear":2025},"geometry":{"type":"Point","coordinates":[-0.60391,50.7903]}},{"type":"Feature","properties":{"id":"ukj2402-15500","name":"Littlehampton","kind":"coastal","district":"Arun","undertaker":"Southern Water","rain":true,"desYr":1988,"cls":"Good","clsYear":2025,"clsFrom":2022,"hist":"GGGGGUGGGGG","histFrom":2015,"ovf":[{"n":"Littlehampton Wwps","s":97,"h":748.4},{"n":"Arundel Pumping Station","s":93,"h":115.3},{"n":"CSO East St/Avon Rd Littlehampton","s":39,"h":117.6},{"n":"South Terrace Littlehampton CSO","s":32,"h":201.8},{"n":"CSO At Town Quay PS Arundel","s":20,"h":25.1},{"n":"Hobbs Cottage CSO, Climping Street","s":1,"h":0.5},{"n":"Broadmark Pumping Station","s":0,"h":0},{"n":"Station Road Rustington Combined","s":0,"h":0},{"n":"Water Lane/Arundel Road","s":0,"h":0}],"ovfYear":2025},"geometry":{"type":"Point","coordinates":[-0.53884,50.80227]}},{"type":"Feature","properties":{"id":"ukj2407-15450","name":"Goring Beach","kind":"coastal","district":"Worthing","undertaker":"Southern Water","rain":false,"desYr":2024,"cls":"Good","clsYear":2025,"clsFrom":2022,"hist":"---------SG","histFrom":2015,"ovf":[{"n":"Sea Lane CSO Goring Worthing","s":4,"h":7.9},{"n":"Onslow Drive Ferring WPS, Ferring","s":1,"h":10.6}],"ovfYear":2025},"geometry":{"type":"Point","coordinates":[-0.41537,50.80529]}},{"type":"Feature","properties":{"id":"ukj2407-15400","name":"Worthing","kind":"coastal","district":"Worthing","undertaker":"Southern Water","rain":true,"desYr":1988,"cls":"Good","clsYear":2025,"clsFrom":2022,"hist":"GGSSSUGGGSG","histFrom":2015,"ovf":[{"n":"Sea Lane CSO Goring Worthing","s":4,"h":7.9},{"n":"Ivyarch Road PS","s":1,"h":0.3},{"n":"Carnegie Road Worthing CSO","s":0,"h":0},{"n":"Cortis Avenue Worthing CSO","s":0,"h":0},{"n":"CSO Sompting/Penfold Road Worthing","s":0,"h":0},{"n":"Sompting Road CSO Opposite No 22","s":0,"h":0},{"n":"Wigmore Road","s":0,"h":0},{"n":"Worthing WWTW","s":0,"h":0}],"ovfYear":2025},"geometry":{"type":"Point","coordinates":[-0.38483,50.80726]}},{"type":"Feature","properties":{"id":"ukj2407-15350","name":"Worthing Beach House","kind":"coastal","district":"Worthing","undertaker":"Southern Water","rain":true,"desYr":2024,"cls":"Poor","clsYear":2025,"clsFrom":2022,"hist":"---------PP","histFrom":2015,"ovf":[{"n":"Ivyarch Road PS","s":1,"h":0.3},{"n":"Carnegie Road Worthing CSO","s":0,"h":0},{"n":"Cortis Avenue Worthing CSO","s":0,"h":0},{"n":"CSO Sompting/Penfold Road Worthing","s":0,"h":0},{"n":"Sompting Road CSO Opposite No 22","s":0,"h":0},{"n":"Wigmore Road","s":0,"h":0},{"n":"Worthing WWTW","s":0,"h":0}],"ovfYear":2025},"geometry":{"type":"Point","coordinates":[-0.36086,50.81068]}},{"type":"Feature","properties":{"id":"ukj2401-15300","name":"Lancing, Beach Green","kind":"coastal","district":"Adur","undertaker":"Southern Water","rain":true,"desYr":1988,"cls":"Good","clsYear":2025,"clsFrom":2022,"hist":"SGGGGUGEEGG","histFrom":2015,"ovf":[{"n":"Ropetackle Street, Shoreham P.S.","s":2,"h":0.2},{"n":"Ivyarch Road PS","s":1,"h":0.3},{"n":"Carnegie Road Worthing CSO","s":0,"h":0},{"n":"Cortis Avenue Worthing CSO","s":0,"h":0},{"n":"CSO Sompting/Penfold Road Worthing","s":0,"h":0},{"n":"Sompting Road CSO Opposite No 22","s":0,"h":0},{"n":"Wigmore Road","s":0,"h":0},{"n":"Worthing WWTW","s":0,"h":0}],"ovfYear":2025},"geometry":{"type":"Point","coordinates":[-0.32192,50.81986]}},{"type":"Feature","properties":{"id":"ukj2401-15200","name":"Shoreham Beach","kind":"coastal","district":"Adur","undertaker":"Southern Water","rain":false,"desYr":2014,"cls":"Excellent","clsYear":2025,"clsFrom":2022,"hist":"EEEGEUEEEEE","histFrom":2015,"ovf":[{"n":"Shoreham WWTW","s":39,"h":109.9},{"n":"Upper Shoreham Road Shoreham CSO","s":5,"h":1.3},{"n":"Ropetackle Street, Shoreham P.S.","s":2,"h":0.2},{"n":"The Green Southwick CSO","s":1,"h":0.6},{"n":"Shoreham WWTW","s":0,"h":0}],"ovfYear":2025},"geometry":{"type":"Point","coordinates":[-0.2713,50.82658]}},{"type":"Feature","properties":{"id":"ukj2401-15100","name":"Southwick","kind":"coastal","district":"Adur","undertaker":"Southern Water","rain":false,"desYr":1988,"cls":"Excellent","clsYear":2025,"clsFrom":2022,"hist":"EEEEEUEEEEE","histFrom":2015,"ovf":[{"n":"Shoreham WWTW","s":39,"h":109.9},{"n":"Upper Shoreham Road Shoreham CSO","s":5,"h":1.3},{"n":"Ropetackle Street, Shoreham P.S.","s":2,"h":0.2},{"n":"The Green Southwick CSO","s":1,"h":0.6},{"n":"Shoreham WWTW","s":0,"h":0}],"ovfYear":2025},"geometry":{"type":"Point","coordinates":[-0.23558,50.82873]}},{"type":"Feature","properties":{"id":"ukj2100-15000","name":"Hove","kind":"coastal","district":"The City of Brighton and Hove","undertaker":"Southern Water","rain":false,"desYr":1988,"cls":"Excellent","clsYear":2025,"clsFrom":2022,"hist":"EEEEEUEEEEE","histFrom":2015,"ovf":[{"n":"Shoreham WWTW","s":39,"h":109.9},{"n":"Albion CSO","s":0,"h":0}],"ovfYear":2025},"geometry":{"type":"Point","coordinates":[-0.16668,50.82321]}},{"type":"Feature","properties":{"id":"ukj2100-14950","name":"Brighton Central","kind":"coastal","district":"The City of Brighton and Hove","undertaker":"Southern Water","rain":false,"desYr":2007,"cls":"Good","clsYear":2025,"clsFrom":2022,"hist":"EEEEEUEGGGG","histFrom":2015,"ovf":[{"n":"Albion CSO","s":0,"h":0},{"n":"Black Rock Wastewater Pumping Statn","s":0,"h":0}],"ovfYear":2025},"geometry":{"type":"Point","coordinates":[-0.14584,50.82026]}},{"type":"Feature","properties":{"id":"ukj2100-14900","name":"Brighton Kemptown","kind":"coastal","district":"The City of Brighton and Hove","undertaker":"Southern Water","rain":false,"desYr":1988,"cls":"Excellent","clsYear":2025,"clsFrom":2022,"hist":"EGGEEUEEEEE","histFrom":2015,"ovf":[{"n":"Albion CSO","s":0,"h":0},{"n":"Black Rock Wastewater Pumping Statn","s":0,"h":0}],"ovfYear":2025},"geometry":{"type":"Point","coordinates":[-0.12212,50.81595]}},{"type":"Feature","properties":{"id":"ukj2100-14850","name":"Rottingdean Beach","kind":"coastal","district":"The City of Brighton and Hove","undertaker":"Southern Water","rain":false,"desYr":2024,"cls":"Excellent","clsYear":2025,"clsFrom":2022,"hist":"---------GE","histFrom":2015,"ovf":[{"n":"Marine Drive Sewage Pumping Station","s":36,"h":119.7},{"n":"Portobello Sewage Pumping Station","s":6,"h":17.8},{"n":"Portobello Sewage Pumping Station","s":0,"h":0}],"ovfYear":2025},"geometry":{"type":"Point","coordinates":[-0.05673,50.80179]}},{"type":"Feature","properties":{"id":"ukj2100-14800","name":"Saltdean","kind":"coastal","district":"The City of Brighton and Hove","undertaker":"Southern Water","rain":false,"desYr":1988,"cls":"Excellent","clsYear":2025,"clsFrom":2022,"hist":"EEEEEUEEEEE","histFrom":2015,"ovf":[{"n":"Marine Drive Sewage Pumping Station","s":36,"h":119.7},{"n":"Portobello Sewage Pumping Station","s":6,"h":17.8},{"n":"Portobello Sewage Pumping Station","s":0,"h":0}],"ovfYear":2025},"geometry":{"type":"Point","coordinates":[-0.04167,50.79931]}},{"type":"Feature","properties":{"id":"ukj2203-14600","name":"Seaford","kind":"coastal","district":"Lewes","undertaker":"Southern Water","rain":false,"desYr":1988,"cls":"Excellent","clsYear":2025,"clsFrom":2022,"hist":"EEEEEUEEEEE","histFrom":2015,"ovf":[{"n":"Newhaven WWTW","s":72,"h":256.8},{"n":"Marine Drive Sewage Pumping Station","s":36,"h":119.7},{"n":"Cliff End Wwps Seaford","s":11,"h":9.6},{"n":"Portobello Sewage Pumping Station","s":6,"h":17.8},{"n":"Seaford Bay Outfall","s":1,"h":1.6},{"n":"Beach Road CSO, Newhaven","s":0,"h":0},{"n":"Denton Island Newhaven CSO","s":0,"h":0},{"n":"Fort Road Wastewater PS","s":0,"h":0},{"n":"Martello Road Seaford CSO","s":0,"h":0}],"ovfYear":2025},"geometry":{"type":"Point","coordinates":[0.09502,50.7713]}},{"type":"Feature","properties":{"id":"ukj2201-14550","name":"Birling Gap","kind":"coastal","district":"Wealden","undertaker":"Southern Water","rain":false,"desYr":1998,"cls":"Excellent","clsYear":2025,"clsFrom":2022,"hist":"EEEEEUEEEEE","histFrom":2015,"ovf":[{"n":"East Dean WWTW","s":4,"h":9.7}],"ovfYear":2025},"geometry":{"type":"Point","coordinates":[0.20071,50.74258]}}]}