{"type":"FeatureCollection","features":[{"type":"Feature","geometry":{"type":"Polygon","coordinates":[[[-2.02761,50.77101],[-2.02756,50.77175],[-2.02886,50.77128],[-2.02892,50.77071],[-2.03032,50.7706],[-2.03087,50.77025],[-2.02962,50.76924],[-2.02834,50.77053],[-2.02761,50.77101]]]},"properties":{"name":"Corfe Mullen Meadows","area_ha":2.3}},{"type":"Feature","geometry":{"type":"Polygon","coordinates":[[[-2.20937,50.71827],[-2.20663,50.71726],[-2.21133,50.71336],[-2.21237,50.71285],[-2.21241,50.71245],[-2.21381,50.71127],[-2.21135,50.71008],[-2.21081,50.71042],[-2.21072,50.71085],[-2.21026,50.71104],[-2.2094,50.71084],[-2.20836,50.71032],[-2.20837,50.70979],[-2.20791,50.70896],[-2.20691,50.70902],[-2.20649,50.70881],[-2.20687,50.70833],[-2.20621,50.7079],[-2.20403,50.70703],[-2.20253,50.70737],[-2.20102,50.70685],[-2.19774,50.70304],[-2.19647,50.70204],[-2.19441,50.70077],[-2.19219,50.70146],[-2.19047,50.70058],[-2.18936,50.70153],[-2.19012,50.70231],[-2.19264,50.704],[-2.2026,50.70979],[-2.20029,50.71079],[-2.20265,50.71307],[-2.20609,50.71747],[-2.20305,50.71935],[-2.20327,50.71959],[-2.20633,50.71793],[-2.20875,50.71849],[-2.20937,50.71827]]]},"properties":{"name":"Higher Hyde Heath","area_ha":84.1}},{"type":"Feature","geometry":{"type":"Polygon","coordinates":[[[-2.0962,50.64207],[-2.0955,50.64212],[-2.09316,50.6429],[-2.09224,50.64205],[-2.09119,50.6423],[-2.08826,50.64261],[-2.08756,50.64084],[-2.08611,50.64091],[-2.08609,50.64321],[-2.08589,50.64473],[-2.09053,50.64538],[-2.09182,50.64537],[-2.09146,50.64383],[-2.09223,50.64311],[-2.09379,50.64287],[-2.09554,50.64218],[-2.0962,50.64207]]]},"properties":{"name":"Kilwood","area_ha":15.2}},{"type":"Feature","geometry":{"type":"Polygon","coordinates":[[[-2.44065,50.55357],[-2.43161,50.55357],[-2.43161,50.55738],[-2.44065,50.55738],[-2.44065,50.55357]]]},"properties":{"name":"King Barrow Quarries","area_ha":27.1}},{"type":"Feature","geometry":{"type":"Polygon","coordinates":[[[-2.29679,50.68703],[-2.29634,50.68636],[-2.29665,50.683],[-2.29606,50.68261],[-2.29537,50.6825],[-2.29444,50.68272],[-2.29384,50.68264],[-2.29098,50.68321],[-2.2901,50.68357],[-2.28845,50.68375],[-2.28664,50.68464],[-2.28593,50.68519],[-2.28483,50.68549],[-2.28457,50.68601],[-2.28407,50.68603],[-2.28346,50.68656],[-2.28261,50.68698],[-2.28247,50.68749],[-2.28207,50.68774],[-2.28104,50.68796],[-2.28096,50.68835],[-2.27974,50.68862],[-2.27989,50.68902],[-2.27846,50.68962],[-2.2811,50.68958],[-2.28898,50.6902],[-2.29407,50.68911],[-2.29324,50.68789],[-2.29679,50.68703]]]},"properties":{"name":"Tadnoll &amp; Winfrith Heath","area_ha":62.3}},{"type":"Feature","geometry":{"type":"Polygon","coordinates":[[[-1.96986,50.6052],[-1.96985,50.60395],[-1.96942,50.60171],[-1.96613,50.60164],[-1.96575,50.6017],[-1.9658,50.60238],[-1.96437,50.60205],[-1.96361,50.60213],[-1.9643,50.60404],[-1.96513,50.60434],[-1.96495,50.6052],[-1.96688,50.60524],[-1.96986,50.6052]]]},"properties":{"name":"Townsend","area_ha":14.5}},{"type":"Feature","geometry":{"type":"Polygon","coordinates":[[[-1.82319,50.77577],[-1.82289,50.77627],[-1.82305,50.77699],[-1.82415,50.77884],[-1.82482,50.78059],[-1.8241,50.78218],[-1.8252,50.78166],[-1.82568,50.78056],[-1.82626,50.77985],[-1.82539,50.77957],[-1.82554,50.77843],[-1.82501,50.7778],[-1.8244,50.77766],[-1.82434,50.77719],[-1.82319,50.77577]]]},"properties":{"name":"Troublefield","area_ha":5.6}},{"type":"Feature","geometry":{"type":"Polygon","coordinates":[[[-2.03037,50.75277],[-2.03135,50.75305],[-2.02885,50.74803],[-2.03032,50.74774],[-2.03001,50.74712],[-2.03108,50.74691],[-2.03189,50.74854],[-2.03271,50.7482],[-2.03394,50.74827],[-2.03515,50.748],[-2.03609,50.74718],[-2.03328,50.74743],[-2.03342,50.74786],[-2.03203,50.74804],[-2.03175,50.74718],[-2.03314,50.747],[-2.03323,50.74727],[-2.03625,50.74704],[-2.03692,50.74635],[-2.0365,50.74608],[-2.03584,50.74614],[-2.03523,50.74565],[-2.03566,50.74489],[-2.03393,50.74414],[-2.03323,50.7441],[-2.03246,50.74366],[-2.03141,50.7434],[-2.02688,50.74289],[-2.02474,50.74248],[-2.01861,50.74078],[-2.01563,50.74025],[-2.01444,50.74025],[-2.01324,50.74127],[-2.01231,50.74254],[-2.01195,50.74465],[-2.01136,50.74668],[-2.01139,50.74741],[-2.01222,50.74823],[-2.01049,50.74852],[-2.01109,50.7496],[-2.01336,50.75013],[-2.01366,50.75142],[-2.01363,50.75223],[-2.01193,50.75283],[-2.01187,50.75403],[-2.01166,50.75482],[-2.01201,50.75572],[-2.01331,50.75557],[-2.01314,50.75494],[-2.01492,50.75476],[-2.01508,50.75528],[-2.01671,50.75507],[-2.01679,50.75669],[-2.01914,50.75739],[-2.02055,50.7574],[-2.0219,50.75775],[-2.02358,50.75788],[-2.02276,50.75873],[-2.02026,50.7593],[-2.01866,50.7592],[-2.01907,50.76035],[-2.01832,50.76086],[-2.01797,50.76188],[-2.0187,50.762],[-2.01916,50.76121],[-2.02028,50.76116],[-2.02134,50.76217],[-2.02333,50.76261],[-2.02371,50.76207],[-2.02294,50.76176],[-2.02358,50.76122],[-2.02418,50.76149],[-2.02453,50.76121],[-2.02386,50.76085],[-2.02423,50.76026],[-2.02629,50.7583],[-2.02723,50.75783],[-2.02276,50.75627],[-2.02312,50.7559],[-2.02413,50.75543],[-2.02593,50.75482],[-2.02736,50.75397],[-2.02802,50.75309],[-2.03037,50.75277]]]},"properties":{"name":"Upton Heath Nature Reserve, nr Upton, Poole, Dorset","area_ha":230.8}},{"type":"Feature","properties":{"name":"Ashley Wood"},"geometry":{"type":"Point","coordinates":[-2.103494,50.84312]}},{"type":"Feature","properties":{"name":"Bracketts Coppice"},"geometry":{"type":"Point","coordinates":[-2.6909348964691,50.863330841064]}},{"type":"Feature","properties":{"name":"Broad Oak Orchard"},"geometry":{"type":"Point","coordinates":[-2.300896,50.911695]}},{"type":"Feature","properties":{"name":"Bugdens Meadows"},"geometry":{"type":"Point","coordinates":[-1.872508,50.880653]}},{"type":"Feature","properties":{"name":"Collyer&#039;s Brook"},"geometry":{"type":"Point","coordinates":[-2.186559,50.950707]}},{"type":"Feature","properties":{"name":"Fontmell Down"},"geometry":{"type":"Point","coordinates":[-2.162355,50.965253]}},{"type":"Feature","properties":{"name":"Girdlers Coppice"},"geometry":{"type":"Point","coordinates":[-2.286613,50.919443]}},{"type":"Feature","properties":{"name":"Greenhill Down"},"geometry":{"type":"Point","coordinates":[-2.300686,50.83299]}},{"type":"Feature","properties":{"name":"Happy Bottom"},"geometry":{"type":"Point","coordinates":[-2.0068969726562,50.78067779541]}},{"type":"Feature","properties":{"name":"Haydon Hill"},"geometry":{"type":"Point","coordinates":[-2.469517,50.750102]}},{"type":"Feature","properties":{"name":"Hendover Coppice"},"geometry":{"type":"Point","coordinates":[-2.520541,50.832735]}},{"type":"Feature","properties":{"name":"Hibbitt Woods"},"geometry":{"type":"Point","coordinates":[-2.644484,50.865967]}},{"type":"Feature","properties":{"name":"Holway Woods"},"geometry":{"type":"Point","coordinates":[-2.522377,50.980143]}},{"type":"Feature","properties":{"name":"King&#039;s Lane Orchard"},"geometry":{"type":"Point","coordinates":[-2.684749,50.761685]}},{"type":"Feature","properties":{"name":"Loscombe"},"geometry":{"type":"Point","coordinates":[-2.708228,50.778489]}},{"type":"Feature","properties":{"name":"Lyscombe"},"geometry":{"type":"Point","coordinates":[-2.370057,50.801363]}},{"type":"Feature","properties":{"name":"Lytchett Bay"},"geometry":{"type":"Point","coordinates":[-2.03654,50.73527]}},{"type":"Feature","properties":{"name":"Mill Ham Island"},"geometry":{"type":"Point","coordinates":[-2.251925,50.912604]}},{"type":"Feature","properties":{"name":"Nunnery Mead"},"geometry":{"type":"Point","coordinates":[-2.5457507,50.7546143]}},{"type":"Feature","properties":{"name":"Peascombe"},"geometry":{"type":"Point","coordinates":[-2.712294,50.746886]}},{"type":"Feature","properties":{"name":"Powerstock Common"},"geometry":{"type":"Point","coordinates":[-2.64387,50.774297]}},{"type":"Feature","properties":{"name":"Sopley Common"},"geometry":{"type":"Point","coordinates":[-1.818457,50.77396]}},{"type":"Feature","properties":{"name":"South Poorton"},"geometry":{"type":"Point","coordinates":[-2.692046,50.777499]}},{"type":"Feature","properties":{"name":"Sovell Down"},"geometry":{"type":"Point","coordinates":[-2.011274,50.896777]}},{"type":"Feature","properties":{"name":"Stonehill Down"},"geometry":{"type":"Point","coordinates":[-2.11135,50.638689]}},{"type":"Feature","properties":{"name":"Sutton Holms"},"geometry":{"type":"Point","coordinates":[-1.918355,50.889247]}},{"type":"Feature","properties":{"name":"Tout Quarries"},"geometry":{"type":"Point","coordinates":[-2.446521,50.550666]}},{"type":"Feature","properties":{"name":"West Bexington"},"geometry":{"type":"Point","coordinates":[-2.668691,50.677633]}},{"type":"Feature","properties":{"name":"Wild Woodbury"},"geometry":{"type":"Point","coordinates":[-2.217196,50.751461]}}]}