{"type":"FeatureCollection","features":[{"type":"Feature","properties":{"name":"Kingcombe Visitor Centre","description":"Gateway to Kingcombe National Nature Reserve — wildlife gardens, bird hide, café and trails.","source":"Postcode DT2 0EQ (Nominatim); matches OSM Lower Kingcombe car park/toilets"},"geometry":{"type":"Point","coordinates":[-2.63299,50.78984]}},{"type":"Feature","properties":{"name":"Fine Foundation Wild Seas Centre","description":"On Kimmeridge Bay — marine wildlife and rockpools.","source":"OSM node \"Fine Foundation Marine Centre\" (operator:wikidata Q5298872)"},"geometry":{"type":"Point","coordinates":[-2.12982,50.60877]}},{"type":"Feature","properties":{"name":"Fine Foundation Wild Chesil Centre","description":"Chesil Beach and the Fleet Lagoon, on the Jurassic Coast.","source":"OSM/Nominatim \"Chesil Beach Visitor Centre\", Portland Beach Road"},"geometry":{"type":"Point","coordinates":[-2.46981,50.57913]}},{"type":"Feature","properties":{"name":"Lorton Meadows","description":"Tranquil, wildlife-rich meadows on the edge of Weymouth.","source":"OSM \"Lorton Meadows Conservation Centre\" (Nominatim agreement ~1 m)"},"geometry":{"type":"Point","coordinates":[-2.46228,50.64255]}},{"type":"Feature","properties":{"name":"The Villa Wildlife Centre","description":"Brownsea Island and its lagoon, in Poole Harbour.","source":"OSM way \"The Villa\", Brownsea Island"},"geometry":{"type":"Point","coordinates":[-1.96472,50.69307]}},{"type":"Feature","properties":{"name":"Brooklands Farm","description":"Dorset Wildlife Trust headquarters.","source":"Postcode DT2 7AA (Nominatim), Forston/Charminster"},"geometry":{"type":"Point","coordinates":[-2.47548,50.75534]}}]}