{"type":"FeatureCollection","features":[{"type":"Feature","properties":{"bufferKm":3,"areaKm2":34217},"geometry":{"type":"MultiPolygon","coordinates":[[[[-6.2,49.85],[-6.021333333333241,49.85],[-6.01207,49.85024],[-5.98429,49.85096],[-5.95651,49.85167],[-5.92872,49.85238],[-5.90094,49.85308],[-5.87315,49.85377],[-5.84536,49.85446],[-5.81757,49.85514],[-5.78978,49.85581],[-5.76199,49.85648],[-5.7342,49.85714],[-5.70641,49.85779],[-5.67861,49.85843],[-5.65082,49.85907],[-5.62302,49.85971],[-5.59522,49.86033],[-5.56743,49.86095],[-5.5668450250417365,49.85],[-5.227180188679252,49.85],[-5.17735,49.85095],[-5.14954,49.85147],[-5.12174,49.85198],[-5.06614,49.85298],[-5.03833,49.85348],[-5.01053,49.85396],[-4.98272,49.85444],[-4.95491,49.85491],[-4.92711,49.85538],[-4.8993,49.85584],[-4.87149,49.85629],[-4.87219,49.87427],[-4.84437,49.87472],[-4.84368,49.85674],[-4.81587,49.85718],[-4.78806,49.85761],[-4.73244,49.85845],[-4.70462,49.85886],[-4.67681,49.85927],[-4.649,49.85967],[-4.62118,49.86006],[-4.59337,49.86045],[-4.56555,49.86083],[-4.5652006451612905,49.85],[-3.889534285713748,49.85],[-3.86967,49.85015],[-3.81403,49.85055],[-3.78621,49.85074],[-3.7584,49.85093],[-3.73058,49.85111],[-3.70276,49.85128],[-3.67494,49.85144],[-3.64712,49.8516],[-3.6193,49.85176],[-3.59148,49.8519],[-3.56366,49.85204],[-3.53584,49.85217],[-3.50802,49.8523],[-3.4802,49.85242],[-3.45238,49.85253],[-3.42456,49.85263],[-3.39674,49.85273],[-3.36891,49.85282],[-3.34109,49.85291],[-3.31327,49.85299],[-3.28545,49.85306],[-3.25763,49.85312],[-3.22981,49.85318],[-3.20198,49.85323],[-3.17416,49.85328],[-3.14634,49.85332],[-3.11852,49.85335],[-3.0907,49.85337],[-3.06287,49.85339],[-3.03505,49.8534],[-3.00723,49.85341],[-2.97941,49.85341],[-2.95158,49.8534],[-2.92376,49.85338],[-2.89594,49.85336],[-2.86812,49.85333],[-2.8403,49.8533],[-2.81247,49.85326],[-2.78465,49.85321],[-2.75683,49.85315],[-2.72901,49.85309],[-2.70119,49.85302],[-2.67336,49.85295],[-2.64554,49.85287],[-2.61772,49.85278],[-2.5899,49.85268],[-2.56208,49.85258],[-2.53426,49.85247],[-2.50644,49.85236],[-2.47862,49.85224],[-2.4508,49.85211],[-2.42298,49.85197],[-2.39516,49.85183],[-2.36734,49.85168],[-2.33952,49.85153],[-2.3117,49.85137],[-2.28388,49.8512],[-2.25606,49.85102],[-2.22824,49.85084],[-2.20042,49.85065],[-2.1726,49.85046],[-2.14479,49.85026],[-2.11697,49.85005],[-2.1106472727272316,49.85],[-1.4214333574207894,49.85],[-1.42109,49.86065],[-1.39327,49.86026],[-1.36546,49.85987],[-1.33764,49.85948],[-1.30983,49.85908],[-1.28202,49.85867],[-1.2542,49.85825],[-1.22639,49.85783],[-1.19858,49.8574],[-1.17077,49.85697],[-1.14296,49.85652],[-1.11515,49.85607],[-1.08734,49.85562],[-1.05953,49.85516],[-1.03173,49.85469],[-1.00392,49.85421],[-0.97612,49.85373],[-0.94831,49.85324],[-0.92051,49.85274],[-0.8927,49.85224],[-0.8649,49.85173],[-0.8371,49.85122],[-0.8093,49.8507],[-0.7815,49.85017],[-0.7727481481483107,49.85],[-0.6980309404563161,49.85],[-0.69725,49.86651],[-0.66944,49.86596],[-0.66858,49.88393],[-0.66771,49.90191],[-0.63988,49.90134],[-0.63901,49.91932],[-0.61117,49.91874],[-0.61028,49.93672],[-0.60939,49.95469],[-0.58154,49.95411],[-0.58063,49.97208],[-0.55277,49.9715],[-0.55186,49.98947],[-0.55094,50.00744],[-0.52306,50.00685],[-0.52213,50.02482],[-0.52121,50.04279],[-0.4933,50.04219],[-0.49237,50.06016],[-0.46445,50.05956],[-0.4635,50.07753],[-0.43558,50.07691],[-0.43462,50.09488],[-0.40669,50.09426],[-0.40572,50.11223],[-0.37777,50.1116],[-0.37679,50.12957],[-0.34884,50.12894],[-0.34784,50.14691],[-0.31988,50.14626],[-0.31888,50.16423],[-0.29091,50.16358],[-0.28989,50.18155],[-0.26191,50.18089],[-0.23393,50.18023],[-0.23289,50.1982],[-0.2049,50.19753],[-0.17691,50.19685],[-0.14893,50.19616],[-0.14786,50.21413],[-0.11986,50.21344],[-0.09186,50.21274],[-0.06387,50.21204],[-0.06277,50.23],[-0.03476,50.22929],[-0.00676,50.22857],[0.02124,50.22784],[0.04924,50.22711],[0.05039,50.24507],[0.05154,50.26304],[0.07955,50.2623],[0.08071,50.28026],[0.10874,50.27951],[0.13677,50.27876],[0.13559,50.2608],[0.16361,50.26004],[0.19162,50.25927],[0.21964,50.2585],[0.245,50.257793795073184],[0.245,50.47369865979381],[0.23427,50.474],[0.23549,50.49195],[0.23672,50.50991],[0.23795,50.52787],[0.23918,50.54583],[0.24041,50.56379],[0.24165,50.58174],[0.24288,50.5997],[0.24412,50.61766],[0.245,50.630509430894314],[0.245,50.77057499127209],[0.23805782518893762,50.77076670264494],[0.23751573625644254,50.77210575831396],[0.23390234022500062,50.776872652495555],[0.2288869540256338,50.781102205339934],[0.22266204115656538,50.78463181170153],[0.21546673016647822,50.787325741449386],[0.2075776225943197,50.789080378474225],[0.19929813062098803,50.78982822345265],[0.17096187813732724,50.79060877099441],[0.1543000860228161,50.79105696435704],[0.15375137926985952,50.79240355297365],[0.15012454895755653,50.79716779240796],[0.14509597736909913,50.80139317395183],[0.13885869527653383,50.804917202430666],[0.1316523818515311,50.807604320220584],[0.12375414833254106,50.809351141255476],[0.11546785250429226,50.810090446160864],[0.09883000975987681,50.81053180039321],[0.09828145856511442,50.8118750697233],[0.0946488385121547,50.81663923302471],[0.08961373747907679,50.82086387806488],[0.08336951649737717,50.82438647139708],[0.07615622012135594,50.82707145507138],[0.07498196986504758,50.82733056775283],[0.07433917637483725,50.827877915752644],[0.07183596940174876,50.82935209375145],[0.07192006492650199,50.829487936630834],[0.07354841713444037,50.83067731720891],[0.07783897323156219,50.835578671991136],[0.08043509420964846,50.84093368473723],[0.08122434874544682,50.84651166255569],[0.08017208115809696,50.85207222477342],[0.0792742048387501,50.85457253139443],[0.07693937017646388,50.85914106145579],[0.07335781244557672,50.86337588579222],[0.07121662817335904,50.865086581207855],[0.06946125110010773,50.86747139306084],[0.06620142863626628,50.87108383049208],[0.06473745579568858,50.876469560701196],[0.06242642188418761,50.88171696764515],[0.05849083797466388,50.88656437059492],[0.058357875314843086,50.886669019364746],[0.05876696139699911,50.889166050159936],[0.05808690357297128,50.89420723595794],[0.05592578611725956,50.89907954833315],[0.05235922336453585,50.90361150238068],[0.04646215525953462,50.90961330997675],[0.04128928614624138,50.91386579106623],[0.0348838987156631,50.91738928723168],[0.02749889385275199,50.920044542864005],[0.019426053638766653,50.921726595055596],[0.010984479547858073,50.922368941145436],[0.00250792568365197,50.92194618088615],[-0.0056684617684592134,50.92047502623671],[-0.006468827287869804,50.92027492099347],[-0.013944726785656857,50.917844989264644],[-0.02052145110286454,50.9145399992281],[-0.023494413566998152,50.912717166568264],[-0.03016655340726403,50.90869274413119],[-0.03448284982402342,50.90566332300926],[-0.03668233673873126,50.903862686101924],[-0.0408696455842424,50.89969472124595],[-0.043782438643435555,50.89511556185806],[-0.04532359727336251,50.8902784895717],[-0.04544197713628523,50.88534537136187],[-0.04413406451950187,50.88048123726222],[-0.04144403464412466,50.875848758895486],[-0.03746221787376966,50.8716028136277],[-0.03703315774470293,50.871228247519845],[-0.03687893267256142,50.87111739261919],[-0.036517701467706686,50.87073827227295],[-0.03547047560949813,50.869864074721434],[-0.02875669092167532,50.864002956469164],[-0.02254144933828,50.85965949386739],[-0.02196206159451018,50.859399033220484],[-0.02179581957346337,50.858354681921],[-0.019291479685890886,50.85323089763391],[-0.01809021994729208,50.85143129304937],[-0.01459144327747214,50.84725475556934],[-0.011291996134336724,50.844580750695094],[-0.012402137392874131,50.8431977039846],[-0.015557902035728979,50.83799127901945],[-0.01695087115717709,50.83248653214947],[-0.016878075368129384,50.83154116545529],[-0.02511560936044971,50.83175259778225],[-0.04178393363285373,50.832176956777126],[-0.042340796234037525,50.8335282010402],[-0.04599019145598895,50.838286938348645],[-0.05104052597328752,50.842504488309125],[-0.0572979106391818,50.84601863970406],[-0.06452186638707051,50.848694200602424],[-0.07243457272605892,50.8504282188608],[-0.08073158210842979,50.85115396093822],[-0.13747977983436827,50.85255483884063],[-0.15414781074196285,50.852963274010484],[-0.15470336900456486,50.85430317673883],[-0.1583645316158419,50.859058565377126],[-0.16342594203182265,50.863271605972066],[-0.16969330407857552,50.86678027698332],[-0.17692577838906337,50.8694496109084],[-0.18484524405115652,50.87117690562513],[-0.19314702367440453,50.8718956931584],[-0.2215433664778453,50.87257617204261],[-0.2499286985931214,50.87324662262657],[-0.2783171458502838,50.873916906556765],[-0.28668672107407406,50.87359404777188],[-0.29479519838068347,50.87224614640373],[-0.3023302076910079,50.86992513182078],[-0.30900157607363,50.86672041575886],[-0.31455254118439435,50.86275543256637],[-0.3187696503837295,50.858182866010395],[-0.3194797915320551,50.856877126389676],[-0.33614552074300913,50.85725818015208],[-0.3445091762460083,50.85692966818685],[-0.35261024715153594,50.855576863722554],[-0.3601368263468463,50.853251855481844],[-0.3667992307946683,50.85004415818855],[-0.3723411895538405,50.84607725080366],[-0.3765497181922289,50.84150380433918],[-0.3772547393965363,50.840203810326535],[-0.3939100612981023,50.840578886360895],[-0.42229384973790013,50.84120949701473],[-0.45067764161493135,50.841830098444014],[-0.45903626809919534,50.84149289410144],[-0.46712981475052917,50.84013199942271],[-0.47464676889683644,50.8377997972409],[-0.48129791569613417,50.83458604927522],[-0.4868275041396507,50.83061442598329],[-0.48769791176994687,50.82966504275291],[-0.4998964465185156,50.82957112691808],[-0.5009533739167618,50.83092814251185],[-0.5060419669742048,50.83512509189393],[-0.5079135054911171,50.83616375315388],[-0.5078421081067157,50.836210033487845],[-0.5036969737090381,50.84003245124733],[-0.5006480241313699,50.84424618546195],[-0.500083269851975,50.84524588688484],[-0.4963857488285796,50.847052315884525],[-0.49121821680857236,50.85069117630521],[-0.48717457364763705,50.85485866474475],[-0.48438771575263123,50.85941813682464],[-0.4829494198349931,50.86422005491092],[-0.4829072896269267,50.86910688342951],[-0.4832052957730169,50.87130698240185],[-0.4847504860736319,50.876541782872664],[-0.4878958685216319,50.881482958337806],[-0.492519294806069,50.88593786234974],[-0.4980181876664312,50.89023941428219],[-0.5009734198003559,50.89217636023066],[-0.5011114527887345,50.89239130255971],[-0.5013012117661134,50.89257841888188],[-0.5007248148540802,50.89649423607146],[-0.5007232567730305,50.898194228508665],[-0.5012794448600486,50.9016325444532],[-0.500105051404766,50.90261991758123],[-0.4965692639760504,50.907172710786746],[-0.49490187549844605,50.91101269654691],[-0.49258832462146296,50.91166397006835],[-0.4862103350674986,50.91441960216461],[-0.48391067052841885,50.91561907020198],[-0.47818812517273396,50.91922997207666],[-0.4736459763314692,50.923455424136534],[-0.4706904170062713,50.92778755875976],[-0.4706000557395002,50.927852066489415],[-0.46603056013780786,50.931777513043514],[-0.46265423891929963,50.93615642714865],[-0.46116631111629036,50.93952288419591],[-0.45934205241731907,50.94150408801562],[-0.4566359932677213,50.94646629139076],[-0.45550540229717773,50.951664548953914],[-0.4559935653525239,50.956902263914905],[-0.45808255045016294,50.96198128170089],[-0.4616938059496165,50.96670938847913],[-0.4666910611417022,50.97090759434265],[-0.47288543019669044,50.974416923865085],[-0.48004253409996855,50.97710445421798],[-0.4878913747239772,50.978868368796384],[-0.4961346242111866,50.97964183137733],[-0.5044599347682454,50.97939553086284],[-0.5125518316832998,50.97813879787235],[-0.5161535639031888,50.97733836997841],[-0.5242089454731335,50.974927976037186],[-0.5312964018782173,50.97151951424132],[-0.5371086984295497,50.96726085152648],[-0.5401397891874565,50.96377810570374],[-0.5477910540712908,50.962138438596575],[-0.555039464079809,50.96009480029659],[-0.5615636260215104,50.957243255363004],[-0.5671391252265617,50.95368195367566],[-0.5678643139253197,50.95300370470819],[-0.5730588449701659,50.95104113979846],[-0.5793522563743465,50.9474242171689],[-0.5843837901152654,50.94309394426563],[-0.5879545127586963,50.93822184789987],[-0.5899234965553165,50.93300086161616],[-0.5908197519746746,50.928800520618026],[-0.5911801278753799,50.92435307541927],[-0.5910029645627086,50.923379920245324],[-0.5913515588276722,50.92293243832921],[-0.5961454979248234,50.91473077311489],[-0.598124657183558,50.91012102034268],[-0.5987832941646662,50.90536353491034],[-0.5982046270927944,50.90132885790672],[-0.5983110723867594,50.90121166003889],[-0.6019548264191654,50.89598288690174],[-0.6037709007422014,50.89038758079989],[-0.6036785270513211,50.88467662366722],[-0.6016825347830912,50.87910599173687],[-0.5978730125011468,50.873925282424],[-0.5932320124504278,50.869044210616],[-0.5971770280359272,50.865863072379874],[-0.6009584528598066,50.86113333105029],[-0.6055530495876067,50.85363174687296],[-0.6074174613299529,50.84940367940601],[-0.6088077029055702,50.84802044190044],[-0.611717985991062,50.84345694582048],[-0.612558641485199,50.84084035577768],[-0.6157146599474188,50.837032129369106],[-0.6181224626256754,50.8315713824389],[-0.6185211531327762,50.83007123326176],[-0.619053162242996,50.8242108042017],[-0.6185565055609421,50.82227619814082],[-0.6240961888065677,50.819586459616914],[-0.6285146018621118,50.81639809914597],[-0.6321133689315788,50.815936910240595],[-0.6380206339133221,50.81461841970434],[-0.648627767638472,50.814094380527614],[-0.6549814767584706,50.81347328160787],[-0.661115330941392,50.81225621004437],[-0.6684325774187091,50.81041102893341],[-0.6794955729873065,50.81063314560178],[-0.6878492747847113,50.81028128882196],[-0.6959334073050907,50.80890566004744],[-0.7034366611402733,50.806559236726386],[-0.707271276233181,50.80469400262403],[-0.7073139001210813,50.804688233790756],[-0.732426149949613,50.79938539491923],[-0.739238954076125,50.79751497449041],[-0.7420891002943233,50.79653792926344],[-0.7481325673275601,50.79837973269375],[-0.7515705224577447,50.79891734873362],[-0.7507293133552524,50.80302809896508],[-0.7498629460300487,50.82099771804122],[-0.7504290930305848,50.8262725562427],[-0.7526134968807557,50.83137626348543],[-0.7563327314336391,50.83611272780023],[-0.7614442794828902,50.840299891580536],[-0.7677519556727304,50.84377676484787],[-0.7742107931844023,50.84611865319919],[-0.7752633181060212,50.8472058287685],[-0.781081126634907,50.85115640814482],[-0.7880286819222,50.85429684897899],[-0.7958280100993391,50.85650141000609],[-0.8041668793933452,50.85768180599918],[-0.8127113452399133,50.8577907596914],[-0.8151216875227592,50.857513649503744],[-0.8173778193065432,50.85935757635042],[-0.8236944211070067,50.862831537375406],[-0.8309643449330189,50.865460574416566],[-0.8389079717994203,50.86714351726142],[-0.8472196348697318,50.867815593244956],[-0.8639197655518207,50.86812234977085],[-0.8644933644341337,50.86945360246764],[-0.8682272186336405,50.87418716714076],[-0.8733535452096911,50.87836997796051],[-0.8796755435565756,50.88184117407311],[-0.8869502644287209,50.88446722849187],[-0.8948979543835331,50.8861471040193],[-0.9032128451101584,50.886816157746395],[-0.931629227116608,50.887326516614486],[-0.9600530660686323,50.887827001424476],[-0.9684180075452448,50.88745417798398],[-0.9765065132010573,50.88605831043712],[-0.9840071272256365,50.88369315236046],[-0.9906311389144424,50.88044977478963],[-0.9961237334484812,50.87645304386625],[-1.0002738099884176,50.87185679459955],[-1.0011066108811988,50.87027862962983],[-1.0017317469613103,50.87038852373676],[-1.0096520610185118,50.871284480075495],[-1.0176982844617073,50.87122748220262],[-1.0255848842353354,50.87021955093752],[-1.0323883108475804,50.86891884676384],[-1.040463222594822,50.86678324830796],[-1.0462298340082352,50.86428222206885],[-1.0509047352900522,50.86683772600056],[-1.058185803131495,50.869452864947505],[-1.062197675445286,50.87029477330222],[-1.063343292052087,50.8729243472245],[-1.067098409198627,50.87765131072115],[-1.0722436163859999,50.88182506768165],[-1.078581389487402,50.88528510891046],[-1.0858681761282045,50.887898339546446],[-1.0938237635736732,50.88956421822836],[-1.1021420858781976,50.89021864235612],[-1.130558474396743,50.890678966177674],[-1.138921846346353,50.89029445069694],[-1.1448407270188314,50.88926426488618],[-1.1506479579079942,50.890477794219926],[-1.1589663273462278,50.891129149423264],[-1.1873927230515657,50.89157946571668],[-1.195756692401064,50.89119187453438],[-1.2038396515550942,50.88978170180993],[-1.2113303561268274,50.88740325277275],[-1.2179404758721069,50.88414811122541],[-1.2234157305545794,50.88014159732326],[-1.2275456870892583,50.87553792377768],[-1.230171838166838,50.87051424061639],[-1.2308844505082968,50.866852724330904],[-1.2304148824856256,50.8791527634178],[-1.2273020540907247,50.88017659617026],[-1.2209224752595038,50.883373771821915],[-1.215618870728752,50.88727596523627],[-1.2115838373464303,50.89174168241904],[-1.2089641027181435,50.896608953614475],[-1.2078551624851233,50.9017011931003],[-1.2082977566129245,50.90683359519784],[-1.2102763207895206,50.91181983635699],[-1.2137194791600112,50.916478840964025],[-1.215118696271176,50.91797927721642],[-1.2197155159214506,50.92200741672206],[-1.2254058481568995,50.92543638520222],[-1.2258059138587865,50.925636475857935],[-1.231197187386068,50.9278598707385],[-1.234005264616545,50.93065489097276],[-1.2396318281324845,50.934412950482944],[-1.2462930047339302,50.93742568423208],[-1.2537442838125108,50.9395824239406],[-1.2617120009099003,50.940803931278815],[-1.2699034248168886,50.94104532254103],[-1.2780175619741874,50.940297726126246],[-1.2857562721681948,50.93858861041283],[-1.292835276889729,50.93598076964255],[-1.2989946460533166,50.932570005966056],[-1.303019796944203,50.929287794920505],[-1.3138952309468692,50.92944516780886],[-1.3135671480070648,50.93842848276051],[-1.3141973322934137,50.94370178153167],[-1.3164484272889614,50.94879622488925],[-1.3202344097234362,50.95351597632384],[-1.325410136129021,50.957679546111855],[-1.331776869580579,50.96112678590237],[-1.3390898952521517,50.963725067772856],[-1.3470679353763515,50.96537440643933],[-1.355404000045053,50.96601132381611],[-1.3838804670151783,50.96641160564528],[-1.3922564001215645,50.96600924333685],[-1.4003463068341289,50.96458471563503],[-1.4078386543795463,50.96219288459807],[-1.414445031213393,50.95892585577024],[-1.4199112865487367,50.954909415508624],[-1.424027322760961,50.95029816883529],[-1.4247111230909297,50.94897973365651],[-1.4414303452007187,50.949202243508935],[-1.4487159550705222,50.94930025724294],[-1.4528911317108066,50.951479265136236],[-1.4616382828873213,50.95501217292529],[-1.464939598756798,50.95601269721855],[-1.4728996144300643,50.95783894477384],[-1.4812750463079816,50.95864200028652],[-1.4897376792983386,50.95839039100677],[-1.497955862559293,50.95709397589168],[-1.5056075723245417,50.95480355753732],[-1.5123930882197387,50.951608881811424],[-1.5180467750503261,50.94763510544136],[-1.5188013467552104,50.94682858856627],[-1.5224294929691473,50.94565275156605],[-1.5289794070474978,50.94237827385673],[-1.5343936038748232,50.938363990958614],[-1.5384657308019503,50.93376313270734],[-1.5410408054022946,50.92875127174675],[-1.54202108173693,50.923519607019124],[-1.542584602053181,50.90553935347681],[-1.541927752280678,50.90026743544651],[-1.5396531377876612,50.89517761868216],[-1.5358486226442543,50.89046537465855],[-1.5306607078643442,50.886311617964544],[-1.5242888533627343,50.88287577634324],[-1.5169777946346037,50.880289690642],[-1.5129657038766857,50.87946561287377],[-1.5117916915404899,50.8768344526174],[-1.5079896748245134,50.872120562950165],[-1.5028039812147216,50.86796521155084],[-1.496434074749362,50.86452795893553],[-1.489124725940474,50.86194075927105],[-1.481156615737259,50.86030291413374],[-1.4728355896141283,50.85967727794521],[-1.4587615106816492,50.859494929585345],[-1.4590535721101126,50.85049932612667],[-1.4584040143352333,50.84522839072998],[-1.4562616290234458,50.840413939419605],[-1.4614448033144225,50.83949511434138],[-1.4689111199748057,50.83709947382374],[-1.4754930719672035,50.83382968704692],[-1.4809376041615032,50.829811569062635],[-1.485035582368888,50.8251996943326],[-1.4876298170430047,50.82017143090876],[-1.4886210603223136,50.814920102197384],[-1.4889667287738466,50.80427262914582],[-1.4909899998359195,50.803913479080855],[-1.4984530414147839,50.80151578754845],[-1.5050312653808435,50.798243335261276],[-1.5104715414350538,50.79422214866781],[-1.51456471834931,50.78960705397224],[-1.51524643118698,50.78828232056205],[-1.5319018931078576,50.78849301523487],[-1.560260059033622,50.78885316275282],[-1.5686034392509887,50.78843896383939],[-1.5766581657257286,50.78700282921845],[-1.5841140128285278,50.78460007680784],[-1.5906839302314981,50.78132324732895],[-1.59611513113927,50.777298524315015],[-1.6001988332638026,50.77268085596248],[-1.6018656939895142,50.76942868734102],[-1.6092294337283737,50.770937390405805],[-1.61753555098353,50.771553921283584],[-1.6458837111208855,50.771884059401096],[-1.6742318715341626,50.77221419465871],[-1.7025956675952996,50.77253450502208],[-1.7309513214650376,50.77284471800525],[-1.7592994835433362,50.77315484484349],[-1.7876890447924099,50.77344529941212],[-1.816037085213505,50.7737354174481],[-1.8243730701780463,50.77330086106577],[-1.8324144000663545,50.771845579287564],[-1.839851522754503,50.76942559953649],[-1.8463982557052052,50.76613407910269],[-1.8518028346400726,50.76209770313249],[-1.8558576096250226,50.757471789621235],[-1.8565226450461003,50.75615782314542],[-1.873196984553297,50.7563158781593],[-1.9015350267049418,50.75658598787896],[-1.909866832364581,50.75614558838845],[-1.9157274794110215,50.755080199649285],[-1.9215872801021647,50.756263047552366],[-1.9298963226705697,50.75685630830881],[-1.9582345840910726,50.757106414474876],[-1.9707511332987446,50.757217686699946],[-1.9757441949578962,50.75908141541034],[-1.98297982723113,50.760762594300715],[-1.989483176544942,50.76186321123725],[-1.9977595879522525,50.762723345920854],[-2.006142151827673,50.762541787355595],[-2.013246132906662,50.76194145309356],[-2.0210944336045102,50.76079219649076],[-2.0284605627724517,50.75872950885013],[-2.0313825981834057,50.75744864977747],[-2.0373690989368245,50.758226416473946],[-2.045548099464779,50.75828014355056],[-2.0535926911059907,50.757344614650904],[-2.061206502295798,50.75545429663632],[-2.069609711474269,50.752752919486774],[-2.0769679596928343,50.74974849025559],[-2.083199958963308,50.745856043442714],[-2.088042857270529,50.741239945426784],[-2.0886887090636166,50.74021756636213],[-2.1003343129038337,50.74030721697885],[-2.108659509148023,50.73985231734984],[-2.1166841797357523,50.738377924278296],[-2.1240995729072014,50.73594077226432],[-2.130620490412657,50.73263463185615],[-2.135996292076166,50.72858668579866],[-2.140020543057392,50.723952617379354],[-2.141322513163859,50.72134611186485],[-2.1453613646886818,50.720602085893326],[-2.152772369184305,50.718161908371336],[-2.1592882342745305,50.714852916146455],[-2.1646584663760433,50.710802426068305],[-2.1686768054889365,50.706166249103575],[-2.1711891364950384,50.70112267742461],[-2.1720993666186406,50.69586561133029],[-2.172413073842445,50.67788546854966],[-2.1716873603587534,50.67261822427197],[-2.169354928836792,50.66754180743234],[-2.1655058179493687,50.6628510948056],[-2.160288171096053,50.6587261010275],[-2.1539024994194973,50.655325086128116],[-2.146593962921536,50.65277850270679],[-2.138642968809831,50.65118401135743],[-2.130354445983187,50.650602751891306],[-2.1020706762861536,50.65038290495599],[-2.073774345314262,50.650162961715964],[-2.070707656867433,50.650138380233216],[-2.068745201947459,50.64908255580993],[-2.0612574763297977,50.64647307306355],[-2.0534656535624793,50.64493655414901],[-2.0526967146337176,50.64399545429022],[-2.047488644967621,50.63986391201401],[-2.041110422899169,50.636455872917274],[-2.0338071241663567,50.63390216612274],[-2.0258591853424184,50.63230080555563],[-2.017628453187046,50.63171727253303],[-2.0458283818475396,50.63195678265917],[-2.0741158676664755,50.63217703877112],[-2.0907447604701552,50.632313217241034],[-2.0913539539153643,50.63364545699565],[-2.0951939559135844,50.63833914550329],[-2.1004046238276337,50.642467406089665],[-2.106785901640306,50.64587147780037],[-2.114092551155429,50.648420418542436],[-2.1220435869999843,50.650016161223775],[-2.130333115072979,50.650597303335125],[-2.1586190390155666,50.6508074476669],[-2.2151911734765726,50.65120772429052],[-2.243492513077683,50.651387954957364],[-2.2601165034587343,50.65149460579421],[-2.2607319532603674,50.65282929082557],[-2.2645897595206215,50.65751808206228],[-2.269817057380659,50.661639481681824],[-2.2762131206555534,50.66503496921553],[-2.2835321050854973,50.66757391362582],[-2.2914925083962285,50.66915861821583],[-2.2997880305643688,50.66972809646462],[-2.3280942625027023,50.669898214701654],[-2.3563978689415674,50.67005836936484],[-2.384693579002078,50.67020847391099],[-2.4129917691079292,50.670358534392776],[-2.441319129512049,50.670488780247425],[-2.4496258337901904,50.670007715169305],[-2.457624637948168,50.668508699262574],[-2.465007968581856,50.666049380855625],[-2.4714920309930113,50.662724327722614],[-2.4768277524921722,50.658661374617566],[-2.480810362901409,50.65401668945616],[-2.4820882879275032,50.65141239050131],[-2.4861155274860454,50.650656932270145],[-2.493498488162797,50.64819548923707],[-2.4999813600155627,50.64486768981799],[-2.5024611214965766,50.642977323645354],[-2.503420215141432,50.64325844388572],[-2.509243487072551,50.64416986199894],[-2.5127250154619873,50.64734751055355],[-2.512978328184975,50.64909626764018],[-2.5153464977178457,50.65416639199441],[-2.519229636709974,50.658846159002906],[-2.52447888875356,50.662955662264224],[-2.530892726420864,50.666336874444944],[-2.538224675145532,50.668859743179574],[-2.5461927959372255,50.67042721254467],[-2.5544905604419497,50.67097897328668],[-2.567995696229479,50.671032344349065],[-2.568052148273698,50.67108481133047],[-2.5742496188324857,50.67488784558891],[-2.581530557125423,50.67782057711839],[-2.589595732939027,50.67976240749727],[-2.598113519082201,50.68063347322432],[-2.6012615261809238,50.68075017106171],[-2.6146457211905676,50.686740364466],[-2.6165939316179596,50.687562158139485],[-2.630257963352877,50.69298697235687],[-2.632128664583903,50.69523121621829],[-2.6373934615135166,50.6993364293119],[-2.6438224485461537,50.70271182561495],[-2.6511684512209874,50.70522751522678],[-2.655192253157914,50.706013739279264],[-2.656425398407288,50.70863005246218],[-2.6603292303385673,50.713304838973045],[-2.665599001958888,50.717407410655795],[-2.672032367453784,50.72077998420644],[-2.679382065116307,50.72329282108544],[-2.6873654320493223,50.724849237645884],[-2.6956753090128998,50.72538934153797],[-2.717677150140409,50.725444325218156],[-2.7201514468126198,50.72629633018389],[-2.7608673227084415,50.73900287691797],[-2.764248604943956,50.73994425015744],[-2.7772545161048194,50.74314596500627],[-2.7880398995024827,50.74481787738725],[-2.7995463945653984,50.7456183363096],[-2.803819453985811,50.745690231296585],[-2.807119304765629,50.74666198682484],[-2.8163461714817464,50.74860462460084],[-2.8276522525699614,50.750105469520975],[-2.8353799703153353,50.75067187773957],[-2.837673078261942,50.750573903203495],[-2.862528774308899,50.75560066484337],[-2.8661456441539577,50.75622222959131],[-2.8879572635035027,50.75932396921418],[-2.8935920107512514,50.759877397940535],[-2.9081002600691708,50.76067785695811],[-2.9111461182328147,50.7606699604484],[-2.9139861299944068,50.76121675738543],[-2.9223080279445854,50.76173960183929],[-2.9506643376443327,50.761749608782445],[-2.958983793023821,50.76123306084408],[-2.9669837413932045,50.75969943112157],[-2.9743564275733463,50.757207726452016],[-2.980818341820361,50.75385380371287],[-2.986121156376281,50.74976666586229],[-2.9900612805702385,50.745103480832974],[-2.9913150296607247,50.74248906528329],[-2.995347445080999,50.74171420749668],[-3.0027143953494173,50.739220528736084],[-3.00917050647255,50.73586513432287],[-3.014467739123365,50.73177704994557],[-3.014948363988923,50.731207493083836],[-3.018719844929017,50.735637931563],[-3.0242494527482906,50.73982035912286],[-3.030996049560824,50.74321325152439],[-3.0386838575114443,50.745677803038596],[-3.0469984258006777,50.747113168462256],[-3.05559953519267,50.747460607937725],[-3.0641351815058466,50.746705902375304],[-3.0722560532461545,50.74487993827005],[-3.0772580673762238,50.743379159520195],[-3.0848546347497643,50.74044923747623],[-3.0913239192722632,50.73658507433357],[-3.096384198407299,50.73195512991404],[-3.099815369329658,50.72676119457245],[-3.1001602254008525,50.72560735814862],[-3.1043386518241567,50.724543221164105],[-3.111724567532881,50.72140052585682],[-3.1179174430460925,50.717354928294014],[-3.1191136987451014,50.716148142392306],[-3.1231250721671255,50.713954048699186],[-3.1233352047344547,50.71378899238877],[-3.1258367539647267,50.71385450802045],[-3.1404451199291747,50.71345427615118],[-3.1468449249870902,50.712969374688456],[-3.1495129000859574,50.71263594547789],[-3.1546933055606035,50.7129539008394],[-3.1611861004862027,50.713037233473415],[-3.167623369405796,50.71249443723322],[-3.172128093899485,50.711890206626784],[-3.193162380943303,50.7114657838402],[-3.201265013404476,50.710805054772166],[-3.2090190720179232,50.70917665894466],[-3.2100724393744637,50.70888172602703],[-3.2155544876373137,50.7085745619975],[-3.219884160314924,50.708189150269206],[-3.2402952331388803,50.70568773669036],[-3.2500229492275436,50.70370342411986],[-3.2604171532225084,50.70066849166732],[-3.2693006603970822,50.699163812841654],[-3.27992312994423,50.696342323586954],[-3.288225804602895,50.69324079040355],[-3.2945943777739557,50.6903283376333],[-3.3000095039896467,50.68672423564759],[-3.3016640174117384,50.685110245489774],[-3.3072376951929217,50.685219553058],[-3.315426952081177,50.68435875094822],[-3.3231964550540405,50.68250709741834],[-3.33025053323866,50.67973507375377],[-3.3363208691051685,50.676148178575275],[-3.3411767311427276,50.671882895640955],[-3.3446337478925834,50.66710148154369],[-3.3465608891170726,50.66198577522933],[-3.3474050600397534,50.65809684521649],[-3.348919487233727,50.65598883131738],[-3.352014543698652,50.64978888807021],[-3.352017450664902,50.649760520427456],[-3.353264656543518,50.64936678998508],[-3.358837385336903,50.651234547690834],[-3.366830656563695,50.65274600616399],[-3.3751356559333656,50.65323920715395],[-3.3877831883504506,50.653199795852075],[-3.389889215230807,50.65577025546433],[-3.392204216796518,50.65765567194908],[-3.3957176897321597,50.66452664442842],[-3.3990620787545724,50.669379742661114],[-3.401213281465604,50.67181628530387],[-3.4054437621649325,50.67911245204713],[-3.408516645125609,50.683275761893995],[-3.4121574614355157,50.68658988991527],[-3.413006148314057,50.68803202488579],[-3.416797193367029,50.69290657734202],[-3.4220541721711326,50.69720078840011],[-3.4285639665399565,50.70074027077685],[-3.4360623984675724,50.70338125134291],[-3.4405344699988105,50.7042750233334],[-3.4496684447754604,50.70984275393448],[-3.4558428916440858,50.71296192994927],[-3.462821205604969,50.71530542002877],[-3.466748823498178,50.71607993679061],[-3.473337294167034,50.718508596957676],[-3.4817995389866843,50.72027044026383],[-3.4913046305336954,50.72157116444872],[-3.499836463737421,50.72217785711469],[-3.5083871409422365,50.721688978952784],[-3.5166090360060682,50.72012440604796],[-3.5241679557146717,50.71754774298316],[-3.5307567827948367,50.71406372467686],[-3.5361079929219517,50.709813940387455],[-3.5400045293233013,50.70497105748953],[-3.5422885909767046,50.69973178422507],[-3.5428679812334343,50.694308861751566],[-3.541719768269968,50.68892241438556],[-3.5388911219549537,50.68379101154636],[-3.53449730826373,50.67912280477475],[-3.5287169372533644,50.675107098232836],[-3.521784669256753,50.67190669179276],[-3.513981682420539,50.66965130324849],[-3.513094240748698,50.669460506057334],[-3.51241760886963,50.66907025183066],[-3.5112393192819384,50.6680517724674],[-3.5099732650223645,50.66713622479242],[-3.509856407934028,50.66284263786727],[-3.508988656879965,50.65786803695052],[-3.5066867521644913,50.65308059721417],[-3.5046845942766516,50.64998127210542],[-3.502032379296862,50.64682160076232],[-3.502474303367607,50.643770645414286],[-3.5022880520465915,50.62579072602075],[-3.5020917051663467,50.607791229310756],[-3.5012176826923684,50.60253185563603],[-3.4987443137709704,50.59748169317722],[-3.4981118146544152,50.596742751706316],[-3.498934017561193,50.596092506978906],[-3.5048725258258617,50.58980321500962],[-3.5081692001743,50.58490211692763],[-3.5101225042649506,50.58078354811599],[-3.515812601198338,50.58075880883566],[-3.524096643659218,50.58020376399327],[-3.532050466818435,50.57863248704667],[-3.539367895889146,50.57610547274779],[-3.5457673695429253,50.572719999122064],[-3.546047389070374,50.5725000038178],[-3.559200413660914,50.572855180424476],[-3.5688040782806563,50.572420015343226],[-3.5780061956702975,50.57062182711966],[-3.5817262271158685,50.569251062758994],[-3.587494683277043,50.56843803633477],[-3.595940905996401,50.565921967018305],[-3.5979587731895464,50.56513851322938],[-3.604180135531339,50.56404744892477],[-3.61183175232965,50.5615655849802],[-3.618539591449541,50.55815591905946],[-3.624029046028546,50.55395815496056],[-3.6276276492866653,50.550557072326015],[-3.63159888008552,50.545857992300235],[-3.634037047410555,50.540754239946125],[-3.634847316686193,50.535445390164476],[-3.633998561310372,50.53013897004845],[-3.6315244952011896,50.525042342708],[-3.627522271453739,50.52035460818838],[-3.622148614809014,50.51625883714777],[-3.6197486516403043,50.51475944786776],[-3.6134499424818944,50.511514117605415],[-3.6062962986217117,50.509089427936466],[-3.598548616116791,50.50757377157233],[-3.5904893449867727,50.50702239564187],[-3.5824122367884295,50.507455397430796],[-3.5746116902895495,50.50885699541931],[-3.567372074090875,50.51117610154414],[-3.5660374308970604,50.51183198894155],[-3.556253334909081,50.51229483296773],[-3.5541771164603753,50.51257355038461],[-3.5552361656005274,50.509731417918026],[-3.5552344194481735,50.507815417941345],[-3.5565895410595654,50.50489808668025],[-3.557344245304948,50.499630970187575],[-3.55724109490866,50.490635678426464],[-3.5712235426571795,50.490568627739506],[-3.579491019810872,50.49000967271337],[-3.5874277337879694,50.48843466954044],[-3.594728177581946,50.485904254731366],[-3.601111451802158,50.48251583444464],[-3.606332105930363,50.47839981848793],[-3.6101895871659564,50.47371458205552],[-3.6125359315074177,50.46864035278096],[-3.6132814041800265,50.463372261950475],[-3.6131421256651333,50.452762175759204],[-3.6148951115879697,50.45309039589835],[-3.6161744589785196,50.455697511036696],[-3.6201510976816516,50.46034063633373],[-3.625474949864033,50.46440047985048],[-3.6319415495655747,50.467720880060504],[-3.6393023129847317,50.47017408878512],[-3.647274107283584,50.47166570515504],[-3.655550176234213,50.472138324178985],[-3.6837362413591292,50.471978211142684],[-3.691998832471543,50.4714114992961],[-3.6999284611525765,50.46982913480895],[-3.707219918360797,50.467292032774495],[-3.7135926741156653,50.46389784891365],[-3.7188017034233765,50.45977720424495],[-3.7226469177406734,50.45508863910241],[-3.7249808373639013,50.45001249436077],[-3.7257142126313356,50.44474395891293],[-3.7254381211254,50.42675407910685],[-3.7251620410463495,50.40876396606412],[-3.7248859827587375,50.39078371486199],[-3.723992342244632,50.38552597995202],[-3.721507627835062,50.380480369580674],[-3.7175277506013478,50.37584066001699],[-3.7122059216037453,50.37178498524845],[-3.7057467213588065,50.36846901419467],[-3.6983982250021956,50.36601999474233],[-3.69044248780828,50.36453188957911],[-3.682184753942883,50.36406178689864],[-3.6656471711848657,50.36415665898323],[-3.6649942548410115,50.36282703085016],[-3.6610202972906047,50.35818518673985],[-3.6557040295172576,50.35412693234998],[-3.6492498584240187,50.35080806584727],[-3.641905714507575,50.34835597091893],[-3.639904528173795,50.34798076015501],[-3.6398589191274526,50.344647321045954],[-3.6418708231765926,50.344245563699374],[-3.6491449981951734,50.341711453688205],[-3.6555038556751596,50.338320004223434],[-3.6607029343396333,50.33420171477734],[-3.664542550822544,50.32951501543215],[-3.665746472647148,50.32689621588927],[-3.669723399330889,50.32610041488168],[-3.6769921377392767,50.32356436642741],[-3.683345479255796,50.320171433342765],[-3.688539227029667,50.31605214434657],[-3.6923739452652633,50.311364934172495],[-3.6947026041531723,50.3062900309964],[-3.6954361823215813,50.301022510642966],[-3.6951921834282584,50.284528132131754],[-3.695826081262091,50.28829078889091],[-3.69830156394926,50.29333849525305],[-3.7022717960912574,50.29798047439435],[-3.707584444022899,50.30203813951672],[-3.714035376441948,50.30535534150414],[-3.7213764971187424,50.30780439703225],[-3.7293252994054393,50.3092910222066],[-3.737575772634703,50.309757978202086],[-3.7656617004077675,50.30957785170959],[-3.7937552383739126,50.30938766849675],[-3.8019869907530275,50.30881230090226],[-3.807239659990646,50.307754577694254],[-3.8072191477357786,50.30896791626568],[-3.8087540128270776,50.31417690200519],[-3.8118545955459444,50.3190936578251],[-3.8164016067947513,50.323528289762855],[-3.822219756608445,50.327309474608384],[-3.8290844871085614,50.330291096625466],[-3.8336861068609966,50.33189189217028],[-3.8413977744715324,50.3339713089514],[-3.8496006948657744,50.335039189877],[-3.857972558289751,50.33505357372267],[-3.866184383917987,50.33401389620708],[-3.8739135114979826,50.33196101212892],[-3.880856338443117,50.32897558204291],[-3.8843438984649965,50.326722928248714],[-3.892279078724328,50.32666385259229],[-3.8924009593309314,50.32788051289529],[-3.894561622212248,50.333028811162535],[-3.8982663045297183,50.33780540142615],[-3.90337075015278,50.34202372438882],[-3.9096758800627165,50.3455189790344],[-3.9169355406962185,50.34815458057854],[-3.9248661227172095,50.34982751777426],[-3.9290683380986726,50.35042784645838],[-3.9372235608793686,50.351070347849806],[-3.9454195050055407,50.350693645092896],[-3.953346106999275,50.349311990476835],[-3.9607035435438056,50.346977652361545],[-3.9671974643508925,50.3437868685143],[-3.9712255588988787,50.34349969634954],[-3.979124530346975,50.341897687018935],[-3.986381189524859,50.33934244423994],[-3.9876235349747957,50.338673772588734],[-3.988314531937173,50.34244297961035],[-3.990242944067222,50.34792527293975],[-3.993909697679928,50.353033683573535],[-3.9991561695779567,50.357546488216165],[-4.005754987029648,50.36126775662384],[-4.0134198579296445,50.364035883282305],[-4.018822146936265,50.36553666069048],[-4.026363879907187,50.36711320079254],[-4.034234864334481,50.36776278844556],[-4.042157518593452,50.367462515314706],[-4.0498524302376575,50.36622297234012],[-4.057048258906899,50.364087874226584],[-4.061640476806057,50.361981555306976],[-4.061653370901309,50.36255540817037],[-4.058501490067333,50.36427808232218],[-4.05320145133951,50.36767671889557],[-4.048371755794229,50.3713835074764],[-4.044652527561684,50.37557912485436],[-4.042162674407378,50.38012977986274],[-4.042122481346058,50.3802918528132],[-4.041460467030376,50.38110459699998],[-4.039169984686765,50.38602484349806],[-4.038382013101235,50.3911326249403],[-4.039125549319094,50.39624311752934],[-4.0413741650205655,50.40117134028752],[-4.045046893986587,50.405738853834315],[-4.050011103048289,50.409780230298296],[-4.056087251155335,50.413149058485914],[-4.063055370257221,50.41572326436083],[-4.070663035904155,50.41740955115261],[-4.0786345377206885,50.4181467952126],[-4.086680912832078,50.41790827192414],[-4.094510471165959,50.41670262911893],[-4.099512835274986,50.41560203185136],[-4.102773596181588,50.414648434140155],[-4.105169349461238,50.414775917301704],[-4.133315358855635,50.41450572773769],[-4.146112420946838,50.41437917483993],[-4.145759216513009,50.41476607267667],[-4.145373187995316,50.41551755234792],[-4.145135076595294,50.415652622116546],[-4.139602500653538,50.419458331208354],[-4.135314519829978,50.423868198181296],[-4.127243321794116,50.434286670917054],[-4.122217549734661,50.43801465382931],[-4.11827246704735,50.44237496542426],[-4.115666963283413,50.44712596563073],[-4.114492056626152,50.452102440191815],[-4.114789069222284,50.45713128120452],[-4.116548128405825,50.462037504323824],[-4.119708446516591,50.46665033875975],[-4.12416037836884,50.47080917795823],[-4.129749192750455,50.47436918269626],[-4.136280432764292,50.47720633957358],[-4.143382906217311,50.4797075816239],[-4.15095053047579,50.48178898234233],[-4.159008562604595,50.48289857997884],[-4.167251848435716,50.48299435252767],[-4.175013784087306,50.48211293148667],[-4.175656482907252,50.48683515346172],[-4.1769403624250385,50.491482960395146],[-4.179477983577061,50.49591730281853],[-4.183191998944317,50.50000243002973],[-4.1884902300845335,50.50480400856414],[-4.194253827740014,50.50901938806923],[-4.201259943986735,50.512389152718555],[-4.209208037103507,50.51476864025202],[-4.21280974628778,50.515569067287274],[-4.2135133528454665,50.51567741251709],[-4.217411038904101,50.51662322259586],[-4.219712213949523,50.517023440025625],[-4.230900334647761,50.51797873231988],[-4.2311004488854485,50.517978732040035],[-4.23923952435504,50.51747744789112],[-4.247075800083745,50.51599228140953],[-4.2543178168933915,50.51357848042984],[-4.260696323578228,50.51032582578539],[-4.265974319255037,50.50635527709742],[-4.269955871332517,50.5018144570055],[-4.272493379280809,50.49687214501236],[-4.2734930163876435,50.491711988914616],[-4.2730718604656115,50.487912508490226],[-4.275599933399435,50.48674470137347],[-4.281321339831761,50.48278133332048],[-4.285691687335289,50.478174104371185],[-4.288537350051755,50.47310648995562],[-4.289745541006882,50.467780238116475],[-4.289268730452145,50.462407324397056],[-4.287126451397633,50.457201509798494],[-4.283404434014957,50.4523698389133],[-4.278251117269101,50.448104415953885],[-4.276761663280666,50.447280404381296],[-4.276676872180058,50.447139402764556],[-4.277775182414355,50.445145261576776],[-4.27893203042437,50.439799992577385],[-4.278395456421736,50.43441502320906],[-4.276187487760985,50.429205733411656],[-4.274857344182884,50.42751260438802],[-4.275076882501888,50.42772169071237],[-4.280923392218536,50.43144776169934],[-4.287796070789065,50.434378652867814],[-4.295432652530663,50.436402450924646],[-4.303541572110929,50.43744186768388],[-4.311813138930387,50.437457205123806],[-4.319931420021591,50.43644787880927],[-4.3275863671181,50.434452440116985],[-4.334485713298683,50.43154709642516],[-4.340366174319557,50.42784278718403],[-4.345003518897913,50.42348093010128],[-4.348221119284904,50.41862800322248],[-4.349896656063477,50.413469173361825],[-4.349966726126899,50.408201217405946],[-4.348765846614323,50.40415849337933],[-4.349017549971337,50.4028063079389],[-4.3491150508637775,50.40000627872974],[-4.3485610854455405,50.39501640071017],[-4.348235792765966,50.394225216295766],[-4.35792315266156,50.39411415599049],[-4.386070387170429,50.393773796110196],[-4.4141767180898785,50.393443792122405],[-4.442327654600611,50.39309324860272],[-4.450453245956399,50.39299232585508],[-4.455272877876856,50.39344740753102],[-4.463633822400529,50.393174334304696],[-4.465943402396647,50.39279931424702],[-4.470439312719493,50.39274318112117],[-4.478677404194468,50.39212144370053],[-4.486566497024381,50.39048659121652],[-4.49380301626639,50.38790154556616],[-4.500108616677942,50.38446578518981],[-4.505240920491925,50.380311500234754],[-4.509002843142673,50.37559848734536],[-4.509597724680665,50.37425109386329],[-4.526140579836499,50.37403242013283],[-4.534373463547906,50.37340437155344],[-4.54225564182994,50.37176366996543],[-4.549483863461321,50.369173450521444],[-4.555780155514961,50.36573337196892],[-4.56090254459122,50.361575765587],[-4.564572164171736,50.356963845744126],[-4.572015146130317,50.358106495522506],[-4.5749125426144,50.36139515628383],[-4.580306877530258,50.365411133437675],[-4.586826703968511,50.36867833022854],[-4.591970099370505,50.37034266441645],[-4.592607198222295,50.37333079397957],[-4.5951216637475465,50.37812440535569],[-4.599217817256916,50.384025777251004],[-4.6049591647313415,50.39003046794731],[-4.613557549050831,50.396832902330814],[-4.6190902388070505,50.40045403269445],[-4.625586359197539,50.403353431335425],[-4.632488690189697,50.40585466119069],[-4.640292095004408,50.40805149443353],[-4.648628676251613,50.409206059703706],[-4.657159346130614,50.409271393655544],[-4.66553708356193,50.40824484045691],[-4.673421120709782,50.40616816005633],[-4.680490868690421,50.403125820907654],[-4.686459002921464,50.39924154832246],[-4.6910831660831525,50.39467327206445],[-4.6941758079073965,50.3896066828541],[-4.695611762661654,50.38424766426279],[-4.6960084825381125,50.380547530975406],[-4.695789136382437,50.37540666036106],[-4.695534302974069,50.37467344025451],[-4.701163413116048,50.37466513759192],[-4.708574374586313,50.37380157592292],[-4.71367694755658,50.37290107373093],[-4.720127984084917,50.3713316044871],[-4.722912263449091,50.37129077571512],[-4.751038287068588,50.37087033334446],[-4.759268114334906,50.37022762073339],[-4.76714280054815,50.36857283284782],[-4.774359364277813,50.36596965118943],[-4.780640264985315,50.362518239744674],[-4.785744107912061,50.358351374160755],[-4.789474930185684,50.353629314639456],[-4.790622194221289,50.35098986644914],[-4.794573386084996,50.350157895042415],[-4.801784961102771,50.34755282451167],[-4.808060760799286,50.34409987938604],[-4.81315961324361,50.33993187970942],[-4.81688576896658,50.33520911167108],[-4.819096400723161,50.33011314483093],[-4.819707041599522,50.32483983615716],[-4.819300209775389,50.314184316706175],[-4.821302075558637,50.313761628506676],[-4.828504725998632,50.31115443997068],[-4.834771913947872,50.307699973142135],[-4.8398628767515435,50.303531063502334],[-4.843582231362518,50.29880798025118],[-4.845787457576735,50.293712246222476],[-4.8463943226449135,50.288439646018844],[-4.845698393459065,50.270469953451546],[-4.845364483402965,50.26184523078458],[-4.8458344308632295,50.26186954041969],[-4.851145366063714,50.261786061390815],[-4.8559924872618225,50.26262425613591],[-4.864578986777096,50.262953610934375],[-4.873091453831798,50.26216262783522],[-4.881175691657362,50.2602842224246],[-4.888495408884126,50.25739655191766],[-4.899697427282999,50.251894070322216],[-4.906482556113384,50.24771110522698],[-4.909303192454955,50.2449564989307],[-4.911123649508325,50.24410479852987],[-4.913589564228126,50.24238565688901],[-4.913770165492631,50.242382677605285],[-4.914452677221974,50.24585080983058],[-4.917014125697749,50.25080867715867],[-4.921022009699751,50.255358038549986],[-4.926326454363422,50.259328331648334],[-4.9327288295808485,50.26257066529],[-4.939989179203234,50.264963421102586],[-4.947835227648678,50.26641683301269],[-4.954674574811021,50.26680310469365],[-4.951946824414885,50.270156645211344],[-4.94971161968324,50.27477322071662],[-4.94961137049407,50.27507318618016],[-4.9486817243576935,50.28093709539946],[-4.949767266516011,50.2867900441896],[-4.952816893929248,50.29235260442327],[-4.953716159000619,50.293552901603256],[-4.9581273247886015,50.298179880674326],[-4.963897775398975,50.3021503125247],[-4.970794847543022,50.30530390086148],[-4.9785402185239995,50.30751329998808],[-4.986821159914014,50.30868927777872],[-4.995303210226934,50.3087843356489],[-5.003643745715052,50.307794636085106],[-5.011505888700386,50.30576015806407],[-5.018572177888269,50.30276307398761],[-5.024557435725343,50.298924415326994],[-5.028787778277834,50.29481896824221],[-5.029543832652398,50.29443082937592],[-5.0349513373246415,50.29110816749625],[-5.039352336983903,50.28722647532153],[-5.042608039160957,50.28290839981842],[-5.0436070355658895,50.28061086215324],[-5.046610145458975,50.27773694686969],[-5.047670648356174,50.276107956282075],[-5.054209666260214,50.27486061698959],[-5.0615857600951,50.27235628133453],[-5.066286975920927,50.270355331662465],[-5.072911031510459,50.2668649120249],[-5.078292133929291,50.26258980756097],[-5.082207809248174,50.25770705492857],[-5.0844964234672405,50.252418795691256],[-5.0850638115915645,50.2469438891915],[-5.083887089355597,50.24150884323419],[-5.081015503669817,50.236338440295526],[-5.080511959922049,50.23580723513957],[-5.090481642543032,50.236372094418364],[-5.096976032022645,50.23641853977004],[-5.1040800228140935,50.23611835338596],[-5.115701836057412,50.234554647461756],[-5.128607760536622,50.23155302413418],[-5.136007346172204,50.229288255715915],[-5.142580788416189,50.22614973484224],[-5.14807927429853,50.22225634942961],[-5.152294855698418,50.21775554855297],[-5.1550683073554024,50.21281773981355],[-5.156295113005244,50.207629821161596],[-5.155929358826612,50.20238809512436],[-5.153985396001794,50.19729083581238],[-5.15053722066174,50.19253079092526],[-5.1457156062289995,50.18828790200029],[-5.139703106861099,50.18472251651825],[-5.132727128375531,50.18196934576945],[-5.128993570247863,50.181075921357774],[-5.13093673014076,50.17867875051591],[-5.133251799794192,50.17349502779636],[-5.133910715887884,50.16812005388691],[-5.132887713427174,50.162768542404955],[-5.13022419538549,50.157654198562156],[-5.126026993308477,50.15298119057878],[-5.120959882515565,50.14845454794367],[-5.120872337912246,50.146477638599535],[-5.12261397759953,50.1456041910531],[-5.127790577043311,50.14182136383396],[-5.131780296288305,50.13748824114492],[-5.134444589897257,50.132755662433155],[-5.134988476426005,50.13058847369673],[-5.162016551750552,50.13008545083778],[-5.170198832011801,50.12941350782578],[-5.1780190511615185,50.12773089148129],[-5.185176355118792,50.12510234824197],[-5.191395512437103,50.121629008223934],[-5.196437528198368,50.117444477572214],[-5.198438414807582,50.114864110794244],[-5.202798113034167,50.111270187803406],[-5.206523687925151,50.10647281603562],[-5.208696398161067,50.101297828677595],[-5.209230971158593,50.0959495490043],[-5.20810685325872,50.09063907323892],[-5.206804041138243,50.08713954433594],[-5.204084212752094,50.082101010410184],[-5.2006199777240285,50.0783189910669],[-5.198004333725158,50.0736402076756],[-5.1938536186168935,50.069171551939995],[-5.188444353988416,50.06529713204088],[-5.181977768066615,50.06216088209255],[-5.1746942208262565,50.05987928879825],[-5.1668642854265645,50.0585370818627],[-5.15877873103768,50.05818410125176],[-5.1308644401357375,50.05869374619066],[-5.118532108099267,50.058919654132154],[-5.1184874137348695,50.05881628704853],[-5.117271635150642,50.05722523774862],[-5.118909722976495,50.056873545146075],[-5.126061727823471,50.05424992082003],[-5.132278288961709,50.05078067066165],[-5.13732046686162,50.04659926755812],[-5.140994652093972,50.041866544071006],[-5.142117884946761,50.03922006729468],[-5.146034432311752,50.03837731283729],[-5.153180364693008,50.035751597978695],[-5.155180563288198,50.03463386038196],[-5.155799452199007,50.034675063932625],[-5.163444210685657,50.034283380949645],[-5.170850406238148,50.03300501020985],[-5.177770772555586,50.03088263887975],[-5.1879739174177475,50.026980735212916],[-5.194056111670714,50.02415217793256],[-5.198859471156182,50.020938348761966],[-5.199289401473157,50.03042430715321],[-5.200334922978394,50.03567058402412],[-5.202954588095577,50.04068490158083],[-5.207048113772274,50.04527440552189],[-5.2124584076884455,50.04926252818491],[-5.218977566686077,50.05249579820063],[-5.226354857975215,50.054849765518426],[-5.234306377979358,50.05623381014167],[-5.235271858927924,50.05627622452268],[-5.238035556585793,50.06240724762323],[-5.240416442870994,50.066445013309384],[-5.2437708976636594,50.070187162211404],[-5.255666745435395,50.0812907332386],[-5.259811827029989,50.08457418964362],[-5.2786111420552295,50.09727913293307],[-5.287753264462524,50.101943032530755],[-5.297517715608559,50.10563301151241],[-5.302357484805624,50.1094461140643],[-5.3084894914164025,50.112738739485984],[-5.315483299182237,50.1152272707824],[-5.323085864040296,50.116821631607856],[-5.336993156192328,50.11882270078207],[-5.3461462313809465,50.11947646077182],[-5.349966262178862,50.119209795576054],[-5.351844961886192,50.12016516650422],[-5.35490670644623,50.121451350938926],[-5.35808,50.1192],[-5.35866,50.11857],[-5.35903,50.11787],[-5.35917,50.11714],[-5.35908,50.11641],[-5.35876,50.11571],[-5.35855,50.11545],[-5.35873,50.11533],[-5.36038,50.11442],[-5.36218,50.11384],[-5.36292,50.11346],[-5.36356,50.11329],[-5.36447,50.11289],[-5.36449,50.1129],[-5.36552,50.11315],[-5.36662,50.11327],[-5.36859,50.11437],[-5.36962,50.11474],[-5.37029,50.11488],[-5.37321,50.11614],[-5.37446,50.11644],[-5.37704,50.11665],[-5.37802,50.11714],[-5.37924,50.11749],[-5.37996,50.11758],[-5.3809,50.11802],[-5.38173,50.11828],[-5.38377,50.11869],[-5.38478,50.11877],[-5.38579,50.11873],[-5.38873,50.11826],[-5.38992,50.11792],[-5.3902,50.11805],[-5.3913,50.11837],[-5.39247,50.11852],[-5.39653,50.11851],[-5.39766,50.11836],[-5.39871,50.11806],[-5.39965,50.11763],[-5.40043,50.11708],[-5.40156,50.11587],[-5.40259,50.11511],[-5.40238,50.11499],[-5.40301,50.115],[-5.40417,50.11527],[-5.40508,50.11567],[-5.40606,50.11594],[-5.40711,50.11609],[-5.40818,50.11611],[-5.4087,50.11606],[-5.40882,50.11622],[-5.40967,50.11687],[-5.41323,50.11858],[-5.41394,50.11879],[-5.41385,50.11918],[-5.41386,50.11967],[-5.41299,50.12146],[-5.41287,50.1221],[-5.41292,50.12274],[-5.41315,50.12337],[-5.41355,50.12396],[-5.41405,50.12444],[-5.41404,50.12497],[-5.41421,50.12563],[-5.41479,50.12665],[-5.41473,50.12748],[-5.41427,50.12806],[-5.41395,50.12892],[-5.41396,50.12954],[-5.41377,50.12977],[-5.41286,50.13042],[-5.41228,50.13106],[-5.41191,50.13176],[-5.41178,50.13249],[-5.4121,50.1349],[-5.412222045257872,50.13513813708853],[-5.4123536909380645,50.135234449918414],[-5.418899332020428,50.13845597394422],[-5.426300843915508,50.14079653328503],[-5.4302912778726,50.14148206929407],[-5.4316545236514715,50.14405937713494],[-5.433382918396547,50.14597947282579],[-5.43632,50.14599],[-5.44181,50.14668],[-5.447,50.14802],[-5.45169,50.14995],[-5.45574,50.15242],[-5.45899,50.15533],[-5.46133,50.15858],[-5.461603104601304,50.159281979975205],[-5.463138909976459,50.15954571820986],[-5.471376043915258,50.15989169175254],[-5.499351805927678,50.15930128010158],[-5.527351012345905,50.158690356738845],[-5.5553091129703365,50.158080098219756],[-5.56349054077603,50.15738179340309],[-5.571301783967784,50.155674100676464],[-5.578442355710051,50.153022727368565],[-5.584637689845866,50.14952967525679],[-5.589649727815492,50.14532929951052],[-5.593286073205423,50.14058312172915],[-5.595407360846941,50.13547360025091],[-5.595932560759581,50.13019710082536],[-5.594966777731942,50.11222752922461],[-5.594388006248496,50.10157095610333],[-5.596361346208201,50.10113824923477],[-5.603491034289483,50.098484811774156],[-5.6096761027772395,50.09499016067908],[-5.614678933463919,50.09078868671815],[-5.6183075203120225,50.08604192261856],[-5.618863058393116,50.08470010084229],[-5.635272984939019,50.08432882229381],[-5.64344254263072,50.08362440263578],[-5.650645111334364,50.082041285665184],[-5.652366513549376,50.08526685668527],[-5.656510108333978,50.0898415094687],[-5.6592652062383335,50.091844687495694],[-5.65925,50.09179],[-5.65919,50.08863],[-5.66051,50.08332],[-5.66266,50.07967],[-5.66398,50.07834],[-5.66762,50.0724],[-5.67299,50.06766],[-5.68137,50.06297],[-5.68229,50.06262],[-5.68312,50.06213],[-5.68378,50.06154],[-5.68424,50.06088],[-5.68577,50.05657],[-5.68715,50.05462],[-5.68728,50.05505],[-5.68768,50.05569],[-5.68826,50.05627],[-5.689,50.05677],[-5.689664222101196,50.05706437115849],[-5.69061,50.07406],[-5.71853,50.0734],[-5.718056480778495,50.06497979681363],[-5.734819419036352,50.0550307664314],[-5.74542,50.05478],[-5.77333,50.05412],[-5.80123,50.05345],[-5.82914,50.05277],[-5.85704,50.05208],[-5.88494,50.05139],[-5.88386,50.03343],[-5.91175,50.03273],[-5.93964,50.03203],[-5.96753,50.03132],[-5.99542,50.0306],[-6.0233,50.02988],[-6.05119,50.02915],[-6.05005,50.01118],[-6.07792,50.01045],[-6.1058,50.0097],[-6.13367,50.00895],[-6.16154,50.0082],[-6.1894,50.00743],[-6.18822,49.98947],[-6.18703,49.97151],[-6.18584,49.95355],[-6.18466,49.93559],[-6.18347,49.91763],[-6.2,49.91717248382459],[-6.2,49.85]],[[-3.3182211473270162,50.602625336775134],[-3.31419,50.60437],[-3.30237,50.6077],[-3.29877,50.6083],[-3.29564,50.60902],[-3.29263,50.60995],[-3.28937,50.61127],[-3.28681,50.61258],[-3.28285,50.61503],[-3.27623,50.61962],[-3.26967,50.62451],[-3.26577,50.62801],[-3.2619,50.63183],[-3.26024,50.63405],[-3.25785,50.63826],[-3.25601,50.64044],[-3.24578,50.64888],[-3.23331,50.6552],[-3.2295,50.65663],[-3.22408,50.6581],[-3.21313,50.66026],[-3.20014,50.6615],[-3.19566,50.66175],[-3.19098,50.66234],[-3.18032,50.66313],[-3.16533,50.66295],[-3.14755,50.66467],[-3.14418,50.66465],[-3.14219,50.6648],[-3.1346,50.66474],[-3.12188,50.66549],[-3.11559,50.66541],[-3.10126,50.66458],[-3.09705,50.66455],[-3.09313,50.66486],[-3.0922536630441355,50.66499660546665],[-3.09225,50.6628],[-3.12054,50.66278],[-3.1205,50.64479],[-3.14878,50.64476],[-3.17707,50.64472],[-3.177,50.62673],[-3.20528,50.62669],[-3.2052,50.6087],[-3.23347,50.60865],[-3.26173,50.60859],[-3.26163,50.5906],[-3.28989,50.59053],[-3.31814,50.59046],[-3.3182211473270162,50.602625336775134]],[[-3.00735,50.64485],[-3.00735,50.66284],[-2.97905,50.66284],[-2.97905,50.68082],[-2.95074,50.68081],[-2.9507283560889705,50.6912836979713],[-2.9456,50.69237],[-2.9421,50.69329],[-2.92809,50.6986],[-2.927520250365291,50.69878361599602],[-2.9224,50.69878],[-2.92243,50.6808],[-2.92246,50.66281],[-2.92249,50.64483],[-2.95078,50.64484],[-2.97906,50.64485],[-3.00735,50.64485]],[[-1.438722021481016,50.67936178811649],[-1.428160621056131,50.67921978920494],[-1.4200852000898545,50.67775295539824],[-1.4115897630828524,50.67732792681271],[-1.4031307359923952,50.67798288280297],[-1.3991596331437541,50.6788223250001],[-1.3938025039230895,50.67874823074193],[-1.3854779458603148,50.679151395842545],[-1.3774371440760524,50.680575572604404],[-1.3699888055811347,50.68296608838156],[-1.363418999072432,50.686231164191206],[-1.3579802047039338,50.69024542275747],[-1.3538816262941231,50.69485468401077],[-1.3532041980255887,50.69616437699809],[-1.3508466991390817,50.69613112097613],[-1.3511632016730062,50.687148889046576],[-1.3505309353360748,50.68187670608242],[-1.3482881297733498,50.67678391272266],[-1.3445213992036174,50.672066042222895],[-1.3393757516506213,50.66790417676626],[-1.3330489700027617,50.66445801275264],[-1.3257839949879362,50.66185975191905],[-1.3178596056227279,50.66020904910337],[-1.3095797532374633,50.65956920680051],[-1.281295975436737,50.65914950028422],[-1.272973951848779,50.6595434926839],[-1.2649327569118167,50.66095876215609],[-1.25748110064495,50.66334097991217],[-1.2509051672960863,50.66659868894656],[-1.2454576612791668,50.670606799646755],[-1.241348111405759,50.67521137409455],[-1.2387348030616592,50.68023551894285],[-1.237718650252014,50.68548616422848],[-1.2373806741133304,50.69447367272784],[-1.223364464306705,50.69426002841634],[-1.1950644568476647,50.693820394028464],[-1.1668841121029165,50.69338263671858],[-1.1750661161884135,50.693001912642515],[-1.1831143043360464,50.69159198429849],[-1.1905728540621912,50.68921392536523],[-1.197154720465717,50.68595928932252],[-1.202606751210482,50.68195335605307],[-1.2067194385488635,50.677350290504556],[-1.209334961234473,50.6723271903743],[-1.2103532090430809,50.6670772555948],[-1.2110369546983417,50.64909694831047],[-1.211417133623226,50.63895805186688],[-1.2117524331321792,50.63839842781502],[-1.2134694175684855,50.6380965921077],[-1.2209180142434717,50.635715612963935],[-1.2274899533219212,50.63245821418179],[-1.2329324180754395,50.628449805024516],[-1.2370362300560573,50.623844674070035],[-1.2377155762217384,50.6225357623956],[-1.2825790250955877,50.62320084991028],[-1.2908907875051336,50.622803833882635],[-1.296744749098716,50.621769774199215],[-1.2986218377255756,50.62216067674029],[-1.2997720214682604,50.62478274507737],[-1.3035316733660076,50.62950334163472],[-1.3086718708588432,50.63366772700173],[-1.314995193731331,50.637115685292144],[-1.322258539552622,50.639714531251876],[-1.3301824786612118,50.64136423566426],[-1.3384620357639858,50.64200129232423],[-1.3516492315890776,50.64218882156079],[-1.3531956867618515,50.64313350405651],[-1.356360664790336,50.644884190396105],[-1.3569670628898223,50.64518751253382],[-1.359448298846178,50.64829430201549],[-1.3645950603230428,50.6524547037949],[-1.3709238244382083,50.65589839942107],[-1.37819140561125,50.658492936662206],[-1.3861183563526944,50.66013850416849],[-1.3943997440525153,50.66077178802651],[-1.3986423686251306,50.66083047805283],[-1.4094876173777593,50.66294691930074],[-1.4120619392481133,50.663857910157716],[-1.413071009085405,50.66415040842273],[-1.415403664071774,50.66706394503219],[-1.420559571270116,50.67122250580014],[-1.4268975142554121,50.674663317929294],[-1.4341738322535986,50.67725397390588],[-1.4381532777707382,50.67807694317226],[-1.438722021481016,50.67936178811649]]],[[[0.0784,50.24433],[0.1064,50.24359],[0.13441,50.24284],[0.13559,50.2608],[0.10757,50.26155],[0.07955,50.2623],[0.0784,50.24433]]]]}}]}