{"type":"FeatureCollection","features":[{"type":"Feature","properties":{"sp":"sandlizard","n":5957,"res":10000},"geometry":{"type":"Polygon","coordinates":[[[-2.142716,50.619619],[-2.001361,50.619707],[-2.001364,50.709634],[-2.142989,50.709546],[-2.142716,50.619619]]]}},{"type":"Feature","properties":{"sp":"sandlizard","n":5511,"res":10000},"geometry":{"type":"Polygon","coordinates":[[[-1.859739,50.70955],[-1.718115,50.709294],[-1.717575,50.799219],[-1.85947,50.799476],[-1.859739,50.70955]]]}},{"type":"Feature","properties":{"sp":"sandlizard","n":4673,"res":10000},"geometry":{"type":"Polygon","coordinates":[[[-2.001364,50.709634],[-1.859739,50.70955],[-1.85947,50.799476],[-2.001367,50.799561],[-2.001364,50.709634]]]}},{"type":"Feature","properties":{"sp":"sandlizard","n":3766,"res":10000},"geometry":{"type":"Polygon","coordinates":[[[-2.142989,50.709546],[-2.001364,50.709634],[-2.001367,50.799561],[-2.143264,50.799472],[-2.142989,50.709546]]]}},{"type":"Feature","properties":{"sp":"sandlizard","n":2072,"res":10000},"geometry":{"type":"Polygon","coordinates":[[[-2.28407,50.61936],[-2.142716,50.619619],[-2.142989,50.709546],[-2.284613,50.709286],[-2.28407,50.61936]]]}},{"type":"Feature","properties":{"sp":"sandlizard","n":2045,"res":10000},"geometry":{"type":"Polygon","coordinates":[[[-2.284613,50.709286],[-2.142989,50.709546],[-2.143264,50.799472],[-2.28516,50.799211],[-2.284613,50.709286]]]}},{"type":"Feature","properties":{"sp":"sandlizard","n":1806,"res":10000},"geometry":{"type":"Polygon","coordinates":[[[-2.001367,50.799561],[-1.85947,50.799476],[-1.8592,50.889401],[-2.00137,50.889485],[-2.001367,50.799561]]]}},{"type":"Feature","properties":{"sp":"sandlizard","n":157,"res":10000},"geometry":{"type":"Polygon","coordinates":[[[-2.425421,50.618929],[-2.28407,50.61936],[-2.284613,50.709286],[-2.426234,50.708854],[-2.425421,50.618929]]]}},{"type":"Feature","properties":{"sp":"sandlizard","n":79,"res":10000},"geometry":{"type":"Polygon","coordinates":[[[-2.426234,50.708854],[-2.284613,50.709286],[-2.28516,50.799211],[-2.427052,50.798778],[-2.426234,50.708854]]]}},{"type":"Feature","properties":{"sp":"sandlizard","n":68,"res":10000},"geometry":{"type":"Polygon","coordinates":[[[-2.00137,50.889485],[-1.8592,50.889401],[-1.858929,50.979324],[-2.001373,50.979409],[-2.00137,50.889485]]]}},{"type":"Feature","properties":{"sp":"sandlizard","n":1,"res":10000},"geometry":{"type":"Polygon","coordinates":[[[-2.992663,50.705406],[-2.851067,50.706526],[-2.8527,50.796442],[-2.994567,50.795319],[-2.992663,50.705406]]]}},{"type":"Feature","properties":{"sp":"smoothsnake","n":2325,"res":10000},"geometry":{"type":"Polygon","coordinates":[[[-2.142716,50.619619],[-2.001361,50.619707],[-2.001364,50.709634],[-2.142989,50.709546],[-2.142716,50.619619]]]}},{"type":"Feature","properties":{"sp":"smoothsnake","n":1494,"res":10000},"geometry":{"type":"Polygon","coordinates":[[[-2.001364,50.709634],[-1.859739,50.70955],[-1.85947,50.799476],[-2.001367,50.799561],[-2.001364,50.709634]]]}},{"type":"Feature","properties":{"sp":"smoothsnake","n":1370,"res":10000},"geometry":{"type":"Polygon","coordinates":[[[-2.142989,50.709546],[-2.001364,50.709634],[-2.001367,50.799561],[-2.143264,50.799472],[-2.142989,50.709546]]]}},{"type":"Feature","properties":{"sp":"smoothsnake","n":887,"res":10000},"geometry":{"type":"Polygon","coordinates":[[[-1.859739,50.70955],[-1.718115,50.709294],[-1.717575,50.799219],[-1.85947,50.799476],[-1.859739,50.70955]]]}},{"type":"Feature","properties":{"sp":"smoothsnake","n":823,"res":10000},"geometry":{"type":"Polygon","coordinates":[[[-2.284613,50.709286],[-2.142989,50.709546],[-2.143264,50.799472],[-2.28516,50.799211],[-2.284613,50.709286]]]}},{"type":"Feature","properties":{"sp":"smoothsnake","n":727,"res":10000},"geometry":{"type":"Polygon","coordinates":[[[-2.001367,50.799561],[-1.85947,50.799476],[-1.8592,50.889401],[-2.00137,50.889485],[-2.001367,50.799561]]]}},{"type":"Feature","properties":{"sp":"smoothsnake","n":712,"res":10000},"geometry":{"type":"Polygon","coordinates":[[[-2.28407,50.61936],[-2.142716,50.619619],[-2.142989,50.709546],[-2.284613,50.709286],[-2.28407,50.61936]]]}},{"type":"Feature","properties":{"sp":"smoothsnake","n":415,"res":10000},"geometry":{"type":"Polygon","coordinates":[[[-2.425421,50.618929],[-2.28407,50.61936],[-2.284613,50.709286],[-2.426234,50.708854],[-2.425421,50.618929]]]}},{"type":"Feature","properties":{"sp":"smoothsnake","n":139,"res":10000},"geometry":{"type":"Polygon","coordinates":[[[-2.426234,50.708854],[-2.284613,50.709286],[-2.28516,50.799211],[-2.427052,50.798778],[-2.426234,50.708854]]]}},{"type":"Feature","properties":{"sp":"smoothsnake","n":104,"res":10000},"geometry":{"type":"Polygon","coordinates":[[[-2.00137,50.889485],[-1.8592,50.889401],[-1.858929,50.979324],[-2.001373,50.979409],[-2.00137,50.889485]]]}},{"type":"Feature","properties":{"sp":"smoothsnake","n":1,"res":10000},"geometry":{"type":"Polygon","coordinates":[[[-2.427052,50.798778],[-2.28516,50.799211],[-2.285709,50.889135],[-2.427875,50.8887],[-2.427052,50.798778]]]}},{"type":"Feature","properties":{"sp":"smoothsnake","n":1,"res":10000},"geometry":{"type":"Polygon","coordinates":[[[-2.428701,50.978621],[-2.286261,50.979057],[-2.286816,51.068978],[-2.429532,51.068541],[-2.428701,50.978621]]]}},{"type":"Feature","properties":{"sp":"smoothsnake","n":1,"res":10000},"geometry":{"type":"Polygon","coordinates":[[[-2.143264,50.799472],[-2.001367,50.799561],[-2.00137,50.889485],[-2.14354,50.889397],[-2.143264,50.799472]]]}},{"type":"Feature","properties":{"sp":"ssblue","n":1587,"res":2000},"geometry":{"type":"Polygon","coordinates":[[[-1.97307,50.655675],[-1.944777,50.655665],[-1.944756,50.673651],[-1.973059,50.673661],[-1.97307,50.655675]]]}},{"type":"Feature","properties":{"sp":"ssblue","n":771,"res":2000},"geometry":{"type":"Polygon","coordinates":[[[-2.114533,50.655622],[-2.08624,50.655646],[-2.086273,50.673631],[-2.114577,50.673607],[-2.114533,50.655622]]]}},{"type":"Feature","properties":{"sp":"ssblue","n":730,"res":2000},"geometry":{"type":"Polygon","coordinates":[[[-1.916229,50.799531],[-1.88785,50.799507],[-1.887807,50.817492],[-1.916197,50.817516],[-1.916229,50.799531]]]}},{"type":"Feature","properties":{"sp":"ssblue","n":701,"res":2000},"geometry":{"type":"Polygon","coordinates":[[[-1.831026,50.817424],[-1.802636,50.817379],[-1.80256,50.835364],[-1.830961,50.835409],[-1.831026,50.817424]]]}},{"type":"Feature","properties":{"sp":"ssblue","n":697,"res":2000},"geometry":{"type":"Polygon","coordinates":[[[-1.83122,50.763469],[-1.802863,50.763424],[-1.802787,50.781409],[-1.831156,50.781454],[-1.83122,50.763469]]]}},{"type":"Feature","properties":{"sp":"ssblue","n":692,"res":2000},"geometry":{"type":"Polygon","coordinates":[[[-2.227964,50.709411],[-2.199639,50.709463],[-2.199716,50.727448],[-2.228051,50.727396],[-2.227964,50.709411]]]}},{"type":"Feature","properties":{"sp":"ssblue","n":655,"res":2000},"geometry":{"type":"Polygon","coordinates":[[[-2.452999,50.546882],[-2.424773,50.546988],[-2.424934,50.564974],[-2.453172,50.564867],[-2.452999,50.546882]]]}},{"type":"Feature","properties":{"sp":"ssblue","n":452,"res":2000},"geometry":{"type":"Polygon","coordinates":[[[-2.312698,50.673243],[-2.284396,50.673316],[-2.284504,50.691301],[-2.312818,50.691229],[-2.312698,50.673243]]]}},{"type":"Feature","properties":{"sp":"ssblue","n":434,"res":2000},"geometry":{"type":"Polygon","coordinates":[[[-1.887764,50.835477],[-1.859362,50.835446],[-1.859308,50.853431],[-1.88772,50.853462],[-1.887764,50.835477]]]}},{"type":"Feature","properties":{"sp":"ssblue","n":398,"res":2000},"geometry":{"type":"Polygon","coordinates":[[[-2.452827,50.528896],[-2.424611,50.529003],[-2.424773,50.546988],[-2.452999,50.546882],[-2.452827,50.528896]]]}},{"type":"Feature","properties":{"sp":"ssblue","n":176,"res":2000},"geometry":{"type":"Polygon","coordinates":[[[-2.029712,50.745601],[-2.001365,50.745605],[-2.001366,50.76359],[-2.029724,50.763586],[-2.029712,50.745601]]]}},{"type":"Feature","properties":{"sp":"ssblue","n":163,"res":2000},"geometry":{"type":"Polygon","coordinates":[[[-2.05797,50.673649],[-2.029666,50.67366],[-2.029678,50.691645],[-2.057992,50.691634],[-2.05797,50.673649]]]}},{"type":"Feature","properties":{"sp":"ssblue","n":118,"res":2000},"geometry":{"type":"Polygon","coordinates":[[[-2.227877,50.691426],[-2.199563,50.691478],[-2.199639,50.709463],[-2.227964,50.709411],[-2.227877,50.691426]]]}},{"type":"Feature","properties":{"sp":"ssblue","n":116,"res":2000},"geometry":{"type":"Polygon","coordinates":[[[-2.284396,50.673316],[-2.256093,50.673382],[-2.256191,50.691367],[-2.284504,50.691301],[-2.284396,50.673316]]]}},{"type":"Feature","properties":{"sp":"ssblue","n":102,"res":2000},"geometry":{"type":"Polygon","coordinates":[[[-2.19941,50.655507],[-2.171118,50.655552],[-2.171183,50.673537],[-2.199486,50.673492],[-2.19941,50.655507]]]}},{"type":"Feature","properties":{"sp":"ssblue","n":77,"res":2000},"geometry":{"type":"Polygon","coordinates":[[[-2.08624,50.655646],[-2.057947,50.655664],[-2.05797,50.673649],[-2.086273,50.673631],[-2.08624,50.655646]]]}},{"type":"Feature","properties":{"sp":"ssblue","n":76,"res":2000},"geometry":{"type":"Polygon","coordinates":[[[-2.142989,50.709546],[-2.114664,50.709578],[-2.114708,50.727563],[-2.143044,50.727532],[-2.142989,50.709546]]]}},{"type":"Feature","properties":{"sp":"ssblue","n":67,"res":2000},"geometry":{"type":"Polygon","coordinates":[[[-1.916165,50.835501],[-1.887764,50.835477],[-1.88772,50.853462],[-1.916133,50.853486],[-1.916165,50.835501]]]}},{"type":"Feature","properties":{"sp":"ssblue","n":66,"res":2000},"geometry":{"type":"Polygon","coordinates":[[[-2.256289,50.709352],[-2.227964,50.709411],[-2.228051,50.727396],[-2.256387,50.727337],[-2.256289,50.709352]]]}},{"type":"Feature","properties":{"sp":"ssblue","n":59,"res":2000},"geometry":{"type":"Polygon","coordinates":[[[-2.17138,50.727493],[-2.143044,50.727532],[-2.143099,50.745517],[-2.171446,50.745479],[-2.17138,50.727493]]]}},{"type":"Feature","properties":{"sp":"ssblue","n":56,"res":2000},"geometry":{"type":"Polygon","coordinates":[[[-1.944566,50.835518],[-1.916165,50.835501],[-1.916133,50.853486],[-1.944545,50.853503],[-1.944566,50.835518]]]}},{"type":"Feature","properties":{"sp":"ssblue","n":56,"res":2000},"geometry":{"type":"Polygon","coordinates":[[[-2.058014,50.70962],[-2.029689,50.709631],[-2.029701,50.727616],[-2.058037,50.727605],[-2.058014,50.70962]]]}},{"type":"Feature","properties":{"sp":"ssblue","n":50,"res":2000},"geometry":{"type":"Polygon","coordinates":[[[-2.142935,50.691561],[-2.11462,50.691592],[-2.114664,50.709578],[-2.142989,50.709546],[-2.142935,50.691561]]]}},{"type":"Feature","properties":{"sp":"ssblue","n":49,"res":2000},"geometry":{"type":"Polygon","coordinates":[[[-2.086339,50.709602],[-2.058014,50.70962],[-2.058037,50.727605],[-2.086372,50.727588],[-2.086339,50.709602]]]}},{"type":"Feature","properties":{"sp":"ssblue","n":49,"res":2000},"geometry":{"type":"Polygon","coordinates":[[[-1.973018,50.745602],[-1.944672,50.745592],[-1.944651,50.763577],[-1.973008,50.763587],[-1.973018,50.745602]]]}},{"type":"Feature","properties":{"sp":"ssblue","n":48,"res":2000},"geometry":{"type":"Polygon","coordinates":[[[-1.831091,50.799439],[-1.802712,50.799394],[-1.802636,50.817379],[-1.831026,50.817424],[-1.831091,50.799439]]]}},{"type":"Feature","properties":{"sp":"ssblue","n":48,"res":2000},"geometry":{"type":"Polygon","coordinates":[[[-2.086273,50.673631],[-2.05797,50.673649],[-2.057992,50.691634],[-2.086306,50.691617],[-2.086273,50.673631]]]}},{"type":"Feature","properties":{"sp":"ssblue","n":43,"res":2000},"geometry":{"type":"Polygon","coordinates":[[[-2.057992,50.691634],[-2.029678,50.691645],[-2.029689,50.709631],[-2.058014,50.70962],[-2.057992,50.691634]]]}},{"type":"Feature","properties":{"sp":"ssblue","n":39,"res":2000},"geometry":{"type":"Polygon","coordinates":[[[-2.029701,50.727616],[-2.001365,50.72762],[-2.001365,50.745605],[-2.029712,50.745601],[-2.029701,50.727616]]]}},{"type":"Feature","properties":{"sp":"ssblue","n":36,"res":2000},"geometry":{"type":"Polygon","coordinates":[[[-2.284722,50.727272],[-2.256387,50.727337],[-2.256485,50.745322],[-2.284832,50.745257],[-2.284722,50.727272]]]}},{"type":"Feature","properties":{"sp":"ssblue","n":31,"res":2000},"geometry":{"type":"Polygon","coordinates":[[[-2.171314,50.709508],[-2.142989,50.709546],[-2.143044,50.727532],[-2.17138,50.727493],[-2.171314,50.709508]]]}},{"type":"Feature","properties":{"sp":"ssblue","n":30,"res":2000},"geometry":{"type":"Polygon","coordinates":[[[-2.143044,50.727532],[-2.114708,50.727563],[-2.114752,50.745548],[-2.143099,50.745517],[-2.143044,50.727532]]]}},{"type":"Feature","properties":{"sp":"ssblue","n":30,"res":2000},"geometry":{"type":"Polygon","coordinates":[[[-1.887892,50.781522],[-1.859524,50.781491],[-1.85947,50.799476],[-1.88785,50.799507],[-1.887892,50.781522]]]}},{"type":"Feature","properties":{"sp":"ssblue","n":26,"res":2000},"geometry":{"type":"Polygon","coordinates":[[[-1.887807,50.817492],[-1.859416,50.817461],[-1.859362,50.835446],[-1.887764,50.835477],[-1.887807,50.817492]]]}},{"type":"Feature","properties":{"sp":"ssblue","n":26,"res":2000},"geometry":{"type":"Polygon","coordinates":[[[-1.8592,50.889401],[-1.830766,50.889363],[-1.830701,50.907348],[-1.859146,50.907386],[-1.8592,50.889401]]]}},{"type":"Feature","properties":{"sp":"ssblue","n":26,"res":2000},"geometry":{"type":"Polygon","coordinates":[[[-2.171052,50.637567],[-2.142771,50.637605],[-2.142825,50.65559],[-2.171118,50.655552],[-2.171052,50.637567]]]}},{"type":"Feature","properties":{"sp":"ssblue","n":26,"res":2000},"geometry":{"type":"Polygon","coordinates":[[[-1.97308,50.637689],[-1.944798,50.63768],[-1.944777,50.655665],[-1.97307,50.655675],[-1.97308,50.637689]]]}},{"type":"Feature","properties":{"sp":"ssblue","n":25,"res":2000},"geometry":{"type":"Polygon","coordinates":[[[-2.255799,50.619426],[-2.227528,50.619484],[-2.227615,50.63747],[-2.255897,50.637411],[-2.255799,50.619426]]]}},{"type":"Feature","properties":{"sp":"ssblue","n":25,"res":2000},"geometry":{"type":"Polygon","coordinates":[[[-2.114489,50.637636],[-2.086207,50.63766],[-2.08624,50.655646],[-2.114533,50.655622],[-2.114489,50.637636]]]}},{"type":"Feature","properties":{"sp":"ssblue","n":24,"res":2000},"geometry":{"type":"Polygon","coordinates":[[[-2.114664,50.709578],[-2.086339,50.709602],[-2.086372,50.727588],[-2.114708,50.727563],[-2.114664,50.709578]]]}},{"type":"Feature","properties":{"sp":"ssblue","n":24,"res":2000},"geometry":{"type":"Polygon","coordinates":[[[-2.001362,50.637692],[-1.97308,50.637689],[-1.97307,50.655675],[-2.001362,50.655678],[-2.001362,50.637692]]]}},{"type":"Feature","properties":{"sp":"ssblue","n":23,"res":2000},"geometry":{"type":"Polygon","coordinates":[[[-1.944587,50.817533],[-1.916197,50.817516],[-1.916165,50.835501],[-1.944566,50.835518],[-1.944587,50.817533]]]}},{"type":"Feature","properties":{"sp":"ssblue","n":23,"res":2000},"geometry":{"type":"Polygon","coordinates":[[[-2.142825,50.65559],[-2.114533,50.655622],[-2.114577,50.673607],[-2.14288,50.673576],[-2.142825,50.65559]]]}},{"type":"Feature","properties":{"sp":"ssblue","n":22,"res":2000},"geometry":{"type":"Polygon","coordinates":[[[-1.859524,50.781491],[-1.831156,50.781454],[-1.831091,50.799439],[-1.85947,50.799476],[-1.859524,50.781491]]]}},{"type":"Feature","properties":{"sp":"ssblue","n":20,"res":2000},"geometry":{"type":"Polygon","coordinates":[[[-1.831156,50.781454],[-1.802787,50.781409],[-1.802712,50.799394],[-1.831091,50.799439],[-1.831156,50.781454]]]}},{"type":"Feature","properties":{"sp":"ssblue","n":18,"res":2000},"geometry":{"type":"Polygon","coordinates":[[[-1.831285,50.745483],[-1.802938,50.745439],[-1.802863,50.763424],[-1.83122,50.763469],[-1.831285,50.745483]]]}},{"type":"Feature","properties":{"sp":"ssblue","n":18,"res":2000},"geometry":{"type":"Polygon","coordinates":[[[-1.802938,50.745439],[-1.774592,50.745388],[-1.774505,50.763373],[-1.802863,50.763424],[-1.802938,50.745439]]]}},{"type":"Feature","properties":{"sp":"ssblue","n":17,"res":2000},"geometry":{"type":"Polygon","coordinates":[[[-2.312818,50.691229],[-2.284504,50.691301],[-2.284613,50.709286],[-2.312938,50.709214],[-2.312818,50.691229]]]}},{"type":"Feature","properties":{"sp":"ssblue","n":17,"res":2000},"geometry":{"type":"Polygon","coordinates":[[[-2.284613,50.709286],[-2.256289,50.709352],[-2.256387,50.727337],[-2.284722,50.727272],[-2.284613,50.709286]]]}},{"type":"Feature","properties":{"sp":"ssblue","n":17,"res":2000},"geometry":{"type":"Polygon","coordinates":[[[-2.057947,50.655664],[-2.029655,50.655674],[-2.029666,50.67366],[-2.05797,50.673649],[-2.057947,50.655664]]]}},{"type":"Feature","properties":{"sp":"ssblue","n":16,"res":2000},"geometry":{"type":"Polygon","coordinates":[[[-2.029689,50.709631],[-2.001364,50.709634],[-2.001365,50.72762],[-2.029701,50.727616],[-2.029689,50.709631]]]}},{"type":"Feature","properties":{"sp":"ssblue","n":14,"res":2000},"geometry":{"type":"Polygon","coordinates":[[[-1.887634,50.889432],[-1.8592,50.889401],[-1.859146,50.907386],[-1.887591,50.907416],[-1.887634,50.889432]]]}},{"type":"Feature","properties":{"sp":"ssblue","n":14,"res":2000},"geometry":{"type":"Polygon","coordinates":[[[-2.199716,50.727448],[-2.17138,50.727493],[-2.171446,50.745479],[-2.199792,50.745433],[-2.199716,50.727448]]]}},{"type":"Feature","properties":{"sp":"ssblue","n":14,"res":2000},"geometry":{"type":"Polygon","coordinates":[[[-2.029678,50.691645],[-2.001363,50.691649],[-2.001364,50.709634],[-2.029689,50.709631],[-2.029678,50.691645]]]}},{"type":"Feature","properties":{"sp":"ssblue","n":14,"res":2000},"geometry":{"type":"Polygon","coordinates":[[[-1.973008,50.763587],[-1.944651,50.763577],[-1.944629,50.781562],[-1.972998,50.781572],[-1.973008,50.763587]]]}},{"type":"Feature","properties":{"sp":"ssblue","n":12,"res":2000},"geometry":{"type":"Polygon","coordinates":[[[-2.199639,50.709463],[-2.171314,50.709508],[-2.17138,50.727493],[-2.199716,50.727448],[-2.199639,50.709463]]]}},{"type":"Feature","properties":{"sp":"ssblue","n":11,"res":2000},"geometry":{"type":"Polygon","coordinates":[[[-1.85947,50.799476],[-1.831091,50.799439],[-1.831026,50.817424],[-1.859416,50.817461],[-1.85947,50.799476]]]}},{"type":"Feature","properties":{"sp":"ssblue","n":11,"res":2000},"geometry":{"type":"Polygon","coordinates":[[[-2.171183,50.673537],[-2.14288,50.673576],[-2.142935,50.691561],[-2.171249,50.691523],[-2.171183,50.673537]]]}},{"type":"Feature","properties":{"sp":"ssblue","n":11,"res":2000},"geometry":{"type":"Polygon","coordinates":[[[-1.774764,50.709417],[-1.746439,50.709359],[-1.746342,50.727344],[-1.774678,50.727403],[-1.774764,50.709417]]]}},{"type":"Feature","properties":{"sp":"ssblue","n":10,"res":2000},"geometry":{"type":"Polygon","coordinates":[[[-1.859362,50.835446],[-1.830961,50.835409],[-1.830896,50.853394],[-1.859308,50.853431],[-1.859362,50.835446]]]}},{"type":"Feature","properties":{"sp":"ssblue","n":10,"res":2000},"geometry":{"type":"Polygon","coordinates":[[[-2.199563,50.691478],[-2.171249,50.691523],[-2.171314,50.709508],[-2.199639,50.709463],[-2.199563,50.691478]]]}},{"type":"Feature","properties":{"sp":"ssblue","n":10,"res":2000},"geometry":{"type":"Polygon","coordinates":[[[-1.97309,50.619704],[-1.944819,50.619694],[-1.944798,50.63768],[-1.97308,50.637689],[-1.97309,50.619704]]]}},{"type":"Feature","properties":{"sp":"ssblue","n":10,"res":2000},"geometry":{"type":"Polygon","coordinates":[[[-2.001366,50.76359],[-1.973008,50.763587],[-1.972998,50.781572],[-2.001367,50.781575],[-2.001366,50.76359]]]}},{"type":"Feature","properties":{"sp":"ssblue","n":9,"res":2000},"geometry":{"type":"Polygon","coordinates":[[[-1.859416,50.817461],[-1.831026,50.817424],[-1.830961,50.835409],[-1.859362,50.835446],[-1.859416,50.817461]]]}},{"type":"Feature","properties":{"sp":"ssblue","n":9,"res":2000},"geometry":{"type":"Polygon","coordinates":[[[-2.369304,50.673078],[-2.341001,50.673164],[-2.341132,50.691149],[-2.369445,50.691063],[-2.369304,50.673078]]]}},{"type":"Feature","properties":{"sp":"ssblue","n":9,"res":2000},"geometry":{"type":"Polygon","coordinates":[[[-2.11462,50.691592],[-2.086306,50.691617],[-2.086339,50.709602],[-2.114664,50.709578],[-2.11462,50.691592]]]}},{"type":"Feature","properties":{"sp":"ssblue","n":9,"res":2000},"geometry":{"type":"Polygon","coordinates":[[[-1.916357,50.72759],[-1.888021,50.727566],[-1.887978,50.745552],[-1.916325,50.745575],[-1.916357,50.72759]]]}},{"type":"Feature","properties":{"sp":"ssblue","n":8,"res":2000},"geometry":{"type":"Polygon","coordinates":[[[-1.88785,50.799507],[-1.85947,50.799476],[-1.859416,50.817461],[-1.887807,50.817492],[-1.88785,50.799507]]]}},{"type":"Feature","properties":{"sp":"ssblue","n":8,"res":2000},"geometry":{"type":"Polygon","coordinates":[[[-2.142771,50.637605],[-2.114489,50.637636],[-2.114533,50.655622],[-2.142825,50.65559],[-2.142771,50.637605]]]}},{"type":"Feature","properties":{"sp":"ssblue","n":8,"res":2000},"geometry":{"type":"Polygon","coordinates":[[[-2.086207,50.63766],[-2.057925,50.637678],[-2.057947,50.655664],[-2.08624,50.655646],[-2.086207,50.63766]]]}},{"type":"Feature","properties":{"sp":"ssblue","n":8,"res":2000},"geometry":{"type":"Polygon","coordinates":[[[-2.029655,50.655674],[-2.001362,50.655678],[-2.001363,50.673664],[-2.029666,50.67366],[-2.029655,50.655674]]]}},{"type":"Feature","properties":{"sp":"ssblue","n":7,"res":2000},"geometry":{"type":"Polygon","coordinates":[[[-2.199334,50.637522],[-2.171052,50.637567],[-2.171118,50.655552],[-2.19941,50.655507],[-2.199334,50.637522]]]}},{"type":"Feature","properties":{"sp":"ssblue","n":7,"res":2000},"geometry":{"type":"Polygon","coordinates":[[[-1.944693,50.727607],[-1.916357,50.72759],[-1.916325,50.745575],[-1.944672,50.745592],[-1.944693,50.727607]]]}},{"type":"Feature","properties":{"sp":"ssblue","n":7,"res":2000},"geometry":{"type":"Polygon","coordinates":[[[-1.916261,50.781546],[-1.887892,50.781522],[-1.88785,50.799507],[-1.916229,50.799531],[-1.916261,50.781546]]]}},{"type":"Feature","properties":{"sp":"ssblue","n":6,"res":2000},"geometry":{"type":"Polygon","coordinates":[[[-1.944608,50.799548],[-1.916229,50.799531],[-1.916197,50.817516],[-1.944587,50.817533],[-1.944608,50.799548]]]}},{"type":"Feature","properties":{"sp":"ssblue","n":6,"res":2000},"geometry":{"type":"Polygon","coordinates":[[[-2.256093,50.673382],[-2.22779,50.67344],[-2.227877,50.691426],[-2.256191,50.691367],[-2.256093,50.673382]]]}},{"type":"Feature","properties":{"sp":"ssblue","n":6,"res":2000},"geometry":{"type":"Polygon","coordinates":[[[-2.227702,50.655455],[-2.19941,50.655507],[-2.199486,50.673492],[-2.22779,50.67344],[-2.227702,50.655455]]]}},{"type":"Feature","properties":{"sp":"ssblue","n":6,"res":2000},"geometry":{"type":"Polygon","coordinates":[[[-2.199258,50.619536],[-2.170987,50.619581],[-2.171052,50.637567],[-2.199334,50.637522],[-2.199258,50.619536]]]}},{"type":"Feature","properties":{"sp":"ssblue","n":6,"res":2000},"geometry":{"type":"Polygon","coordinates":[[[-2.171249,50.691523],[-2.142935,50.691561],[-2.142989,50.709546],[-2.171314,50.709508],[-2.171249,50.691523]]]}},{"type":"Feature","properties":{"sp":"ssblue","n":6,"res":2000},"geometry":{"type":"Polygon","coordinates":[[[-1.973059,50.673661],[-1.944756,50.673651],[-1.944735,50.691636],[-1.973049,50.691646],[-1.973059,50.673661]]]}},{"type":"Feature","properties":{"sp":"ssblue","n":6,"res":2000},"geometry":{"type":"Polygon","coordinates":[[[-1.944672,50.745592],[-1.916325,50.745575],[-1.916293,50.76356],[-1.944651,50.763577],[-1.944672,50.745592]]]}},{"type":"Feature","properties":{"sp":"ssblue","n":5,"res":2000},"geometry":{"type":"Polygon","coordinates":[[[-1.916197,50.817516],[-1.887807,50.817492],[-1.887764,50.835477],[-1.916165,50.835501],[-1.916197,50.817516]]]}},{"type":"Feature","properties":{"sp":"ssblue","n":5,"res":2000},"geometry":{"type":"Polygon","coordinates":[[[-1.972885,50.979406],[-1.944396,50.979396],[-1.944374,50.99738],[-1.972874,50.99739],[-1.972885,50.979406]]]}},{"type":"Feature","properties":{"sp":"ssblue","n":5,"res":2000},"geometry":{"type":"Polygon","coordinates":[[[-2.171118,50.655552],[-2.142825,50.65559],[-2.14288,50.673576],[-2.171183,50.673537],[-2.171118,50.655552]]]}},{"type":"Feature","properties":{"sp":"ssblue","n":5,"res":2000},"geometry":{"type":"Polygon","coordinates":[[[-2.256387,50.727337],[-2.228051,50.727396],[-2.228139,50.745381],[-2.256485,50.745322],[-2.256387,50.727337]]]}},{"type":"Feature","properties":{"sp":"ssblue","n":5,"res":2000},"geometry":{"type":"Polygon","coordinates":[[[-2.058037,50.727605],[-2.029701,50.727616],[-2.029712,50.745601],[-2.058059,50.745591],[-2.058037,50.727605]]]}},{"type":"Feature","properties":{"sp":"ssblue","n":5,"res":2000},"geometry":{"type":"Polygon","coordinates":[[[-1.916325,50.745575],[-1.887978,50.745552],[-1.887935,50.763537],[-1.916293,50.76356],[-1.916325,50.745575]]]}},{"type":"Feature","properties":{"sp":"ssblue","n":5,"res":2000},"geometry":{"type":"Polygon","coordinates":[[[-1.916293,50.76356],[-1.887935,50.763537],[-1.887892,50.781522],[-1.916261,50.781546],[-1.916293,50.76356]]]}},{"type":"Feature","properties":{"sp":"ssblue","n":4,"res":2000},"geometry":{"type":"Polygon","coordinates":[[[-2.34061,50.619208],[-2.31234,50.619288],[-2.312459,50.637273],[-2.340741,50.637194],[-2.34061,50.619208]]]}},{"type":"Feature","properties":{"sp":"ssblue","n":4,"res":2000},"geometry":{"type":"Polygon","coordinates":[[[-2.256191,50.691367],[-2.227877,50.691426],[-2.227964,50.709411],[-2.256289,50.709352],[-2.256191,50.691367]]]}},{"type":"Feature","properties":{"sp":"ssblue","n":4,"res":2000},"geometry":{"type":"Polygon","coordinates":[[[-2.029724,50.763586],[-2.001366,50.76359],[-2.001367,50.781575],[-2.029735,50.781572],[-2.029724,50.763586]]]}},{"type":"Feature","properties":{"sp":"ssblue","n":4,"res":2000},"geometry":{"type":"Polygon","coordinates":[[[-1.973049,50.691646],[-1.944735,50.691636],[-1.944714,50.709621],[-1.973039,50.709631],[-1.973049,50.691646]]]}},{"type":"Feature","properties":{"sp":"ssblue","n":3,"res":2000},"geometry":{"type":"Polygon","coordinates":[[[-1.916133,50.853486],[-1.88772,50.853462],[-1.887677,50.871447],[-1.9161,50.871471],[-1.916133,50.853486]]]}},{"type":"Feature","properties":{"sp":"ssblue","n":3,"res":2000},"geometry":{"type":"Polygon","coordinates":[[[-1.887677,50.871447],[-1.859254,50.871416],[-1.8592,50.889401],[-1.887634,50.889432],[-1.887677,50.871447]]]}},{"type":"Feature","properties":{"sp":"ssblue","n":3,"res":2000},"geometry":{"type":"Polygon","coordinates":[[[-2.114577,50.673607],[-2.086273,50.673631],[-2.086306,50.691617],[-2.11462,50.691592],[-2.114577,50.673607]]]}},{"type":"Feature","properties":{"sp":"ssblue","n":3,"res":2000},"geometry":{"type":"Polygon","coordinates":[[[-2.057925,50.637678],[-2.029643,50.637689],[-2.029655,50.655674],[-2.057947,50.655664],[-2.057925,50.637678]]]}},{"type":"Feature","properties":{"sp":"ssblue","n":3,"res":2000},"geometry":{"type":"Polygon","coordinates":[[[-2.058059,50.745591],[-2.029712,50.745601],[-2.029724,50.763586],[-2.058081,50.763576],[-2.058059,50.745591]]]}},{"type":"Feature","properties":{"sp":"ssblue","n":3,"res":2000},"geometry":{"type":"Polygon","coordinates":[[[-1.944651,50.763577],[-1.916293,50.76356],[-1.916261,50.781546],[-1.944629,50.781562],[-1.944651,50.763577]]]}},{"type":"Feature","properties":{"sp":"ssblue","n":2,"res":2000},"geometry":{"type":"Polygon","coordinates":[[[-2.570476,50.92406],[-2.542022,50.924196],[-2.542231,50.94218],[-2.570696,50.942044],[-2.570476,50.92406]]]}},{"type":"Feature","properties":{"sp":"ssblue","n":2,"res":2000},"geometry":{"type":"Polygon","coordinates":[[[-2.285379,50.835181],[-2.256978,50.835247],[-2.257077,50.853232],[-2.285489,50.853166],[-2.285379,50.835181]]]}},{"type":"Feature","properties":{"sp":"ssblue","n":2,"res":2000},"geometry":{"type":"Polygon","coordinates":[[[-2.058148,50.817531],[-2.029758,50.817542],[-2.02977,50.835527],[-2.058171,50.835516],[-2.058148,50.817531]]]}},{"type":"Feature","properties":{"sp":"ssblue","n":2,"res":2000},"geometry":{"type":"Polygon","coordinates":[[[-2.029804,50.889482],[-2.00137,50.889485],[-2.001371,50.90747],[-2.029816,50.907466],[-2.029804,50.889482]]]}},{"type":"Feature","properties":{"sp":"ssblue","n":2,"res":2000},"geometry":{"type":"Polygon","coordinates":[[[-1.88772,50.853462],[-1.859308,50.853431],[-1.859254,50.871416],[-1.887677,50.871447],[-1.88772,50.853462]]]}},{"type":"Feature","properties":{"sp":"ssblue","n":2,"res":2000},"geometry":{"type":"Polygon","coordinates":[[[-1.944502,50.889472],[-1.916068,50.889455],[-1.916036,50.90744],[-1.944481,50.907457],[-1.944502,50.889472]]]}},{"type":"Feature","properties":{"sp":"ssblue","n":2,"res":2000},"geometry":{"type":"Polygon","coordinates":[[[-1.887591,50.907416],[-1.859146,50.907386],[-1.859092,50.92537],[-1.887548,50.925401],[-1.887591,50.907416]]]}},{"type":"Feature","properties":{"sp":"ssblue","n":2,"res":2000},"geometry":{"type":"Polygon","coordinates":[[[-1.830961,50.835409],[-1.80256,50.835364],[-1.802484,50.853349],[-1.830896,50.853394],[-1.830961,50.835409]]]}},{"type":"Feature","properties":{"sp":"ssblue","n":2,"res":2000},"geometry":{"type":"Polygon","coordinates":[[[-2.737502,50.689314],[-2.709191,50.68949],[-2.709463,50.707474],[-2.737784,50.707298],[-2.737502,50.689314]]]}},{"type":"Feature","properties":{"sp":"ssblue","n":2,"res":2000},"geometry":{"type":"Polygon","coordinates":[[[-2.340871,50.655179],[-2.312579,50.655258],[-2.312698,50.673243],[-2.341001,50.673164],[-2.340871,50.655179]]]}},{"type":"Feature","properties":{"sp":"ssblue","n":2,"res":2000},"geometry":{"type":"Polygon","coordinates":[[[-2.341132,50.691149],[-2.312818,50.691229],[-2.312938,50.709214],[-2.341262,50.709134],[-2.341132,50.691149]]]}},{"type":"Feature","properties":{"sp":"ssblue","n":2,"res":2000},"geometry":{"type":"Polygon","coordinates":[[[-2.284287,50.655331],[-2.255995,50.655396],[-2.256093,50.673382],[-2.284396,50.673316],[-2.284287,50.655331]]]}},{"type":"Feature","properties":{"sp":"ssblue","n":2,"res":2000},"geometry":{"type":"Polygon","coordinates":[[[-2.255897,50.637411],[-2.227615,50.63747],[-2.227702,50.655455],[-2.255995,50.655396],[-2.255897,50.637411]]]}},{"type":"Feature","properties":{"sp":"ssblue","n":2,"res":2000},"geometry":{"type":"Polygon","coordinates":[[[-2.170987,50.619581],[-2.142716,50.619619],[-2.142771,50.637605],[-2.171052,50.637567],[-2.170987,50.619581]]]}},{"type":"Feature","properties":{"sp":"ssblue","n":2,"res":2000},"geometry":{"type":"Polygon","coordinates":[[[-2.057859,50.583721],[-2.029609,50.583732],[-2.029621,50.601717],[-2.057881,50.601707],[-2.057859,50.583721]]]}},{"type":"Feature","properties":{"sp":"ssblue","n":2,"res":2000},"geometry":{"type":"Polygon","coordinates":[[[-2.029632,50.619703],[-2.001361,50.619707],[-2.001362,50.637692],[-2.029643,50.637689],[-2.029632,50.619703]]]}},{"type":"Feature","properties":{"sp":"ssblue","n":2,"res":2000},"geometry":{"type":"Polygon","coordinates":[[[-2.029643,50.637689],[-2.001362,50.637692],[-2.001362,50.655678],[-2.029655,50.655674],[-2.029643,50.637689]]]}},{"type":"Feature","properties":{"sp":"ssblue","n":2,"res":2000},"geometry":{"type":"Polygon","coordinates":[[[-2.029666,50.67366],[-2.001363,50.673664],[-2.001363,50.691649],[-2.029678,50.691645],[-2.029666,50.67366]]]}},{"type":"Feature","properties":{"sp":"ssblue","n":2,"res":2000},"geometry":{"type":"Polygon","coordinates":[[[-2.143154,50.763502],[-2.114796,50.763534],[-2.114841,50.781519],[-2.143209,50.781487],[-2.143154,50.763502]]]}},{"type":"Feature","properties":{"sp":"ssblue","n":2,"res":2000},"geometry":{"type":"Polygon","coordinates":[[[-2.029735,50.781572],[-2.001367,50.781575],[-2.001367,50.799561],[-2.029747,50.799557],[-2.029735,50.781572]]]}},{"type":"Feature","properties":{"sp":"ssblue","n":2,"res":2000},"geometry":{"type":"Polygon","coordinates":[[[-1.97311,50.583732],[-1.944861,50.583723],[-1.94484,50.601708],[-1.9731,50.601718],[-1.97311,50.583732]]]}},{"type":"Feature","properties":{"sp":"ssblue","n":2,"res":2000},"geometry":{"type":"Polygon","coordinates":[[[-2.001362,50.655678],[-1.97307,50.655675],[-1.973059,50.673661],[-2.001363,50.673664],[-2.001362,50.655678]]]}},{"type":"Feature","properties":{"sp":"ssblue","n":2,"res":2000},"geometry":{"type":"Polygon","coordinates":[[[-2.001364,50.709634],[-1.973039,50.709631],[-1.973029,50.727617],[-2.001365,50.72762],[-2.001364,50.709634]]]}},{"type":"Feature","properties":{"sp":"ssblue","n":2,"res":2000},"geometry":{"type":"Polygon","coordinates":[[[-2.001365,50.745605],[-1.973018,50.745602],[-1.973008,50.763587],[-2.001366,50.76359],[-2.001365,50.745605]]]}},{"type":"Feature","properties":{"sp":"ssblue","n":2,"res":2000},"geometry":{"type":"Polygon","coordinates":[[[-1.973029,50.727617],[-1.944693,50.727607],[-1.944672,50.745592],[-1.973018,50.745602],[-1.973029,50.727617]]]}},{"type":"Feature","properties":{"sp":"ssblue","n":2,"res":2000},"geometry":{"type":"Polygon","coordinates":[[[-1.859578,50.763506],[-1.83122,50.763469],[-1.831156,50.781454],[-1.859524,50.781491],[-1.859578,50.763506]]]}},{"type":"Feature","properties":{"sp":"ssblue","n":1,"res":2000},"geometry":{"type":"Polygon","coordinates":[[[-2.28516,50.799211],[-2.256781,50.799277],[-2.256879,50.817262],[-2.285269,50.817196],[-2.28516,50.799211]]]}},{"type":"Feature","properties":{"sp":"ssblue","n":1,"res":2000},"geometry":{"type":"Polygon","coordinates":[[[-2.17224,50.961297],[-2.143762,50.961335],[-2.143818,50.97932],[-2.172307,50.979281],[-2.17224,50.961297]]]}},{"type":"Feature","properties":{"sp":"ssblue","n":1,"res":2000},"geometry":{"type":"Polygon","coordinates":[[[-2.115018,50.853459],[-2.086605,50.853483],[-2.086639,50.871468],[-2.115062,50.871444],[-2.115018,50.853459]]]}},{"type":"Feature","properties":{"sp":"ssblue","n":1,"res":2000},"geometry":{"type":"Polygon","coordinates":[[[-2.029781,50.853512],[-2.001369,50.853516],[-2.00137,50.871501],[-2.029793,50.871497],[-2.029781,50.853512]]]}},{"type":"Feature","properties":{"sp":"ssblue","n":1,"res":2000},"geometry":{"type":"Polygon","coordinates":[[[-2.14354,50.889397],[-2.115106,50.889428],[-2.115151,50.907413],[-2.143596,50.907382],[-2.14354,50.889397]]]}},{"type":"Feature","properties":{"sp":"ssblue","n":1,"res":2000},"geometry":{"type":"Polygon","coordinates":[[[-2.058261,50.907456],[-2.029816,50.907466],[-2.029828,50.925451],[-2.058283,50.92544],[-2.058261,50.907456]]]}},{"type":"Feature","properties":{"sp":"ssblue","n":1,"res":2000},"geometry":{"type":"Polygon","coordinates":[[[-2.029816,50.907466],[-2.001371,50.90747],[-2.001372,50.925455],[-2.029828,50.925451],[-2.029816,50.907466]]]}},{"type":"Feature","properties":{"sp":"ssblue","n":1,"res":2000},"geometry":{"type":"Polygon","coordinates":[[[-2.001367,50.799561],[-1.972988,50.799558],[-1.972977,50.817543],[-2.001368,50.817546],[-2.001367,50.799561]]]}},{"type":"Feature","properties":{"sp":"ssblue","n":1,"res":2000},"geometry":{"type":"Polygon","coordinates":[[[-1.972967,50.835528],[-1.944566,50.835518],[-1.944545,50.853503],[-1.972957,50.853513],[-1.972967,50.835528]]]}},{"type":"Feature","properties":{"sp":"ssblue","n":1,"res":2000},"geometry":{"type":"Polygon","coordinates":[[[-1.944545,50.853503],[-1.916133,50.853486],[-1.9161,50.871471],[-1.944523,50.871488],[-1.944545,50.853503]]]}},{"type":"Feature","properties":{"sp":"ssblue","n":1,"res":2000},"geometry":{"type":"Polygon","coordinates":[[[-1.9161,50.871471],[-1.887677,50.871447],[-1.887634,50.889432],[-1.916068,50.889455],[-1.9161,50.871471]]]}},{"type":"Feature","properties":{"sp":"ssblue","n":1,"res":2000},"geometry":{"type":"Polygon","coordinates":[[[-2.510035,50.600604],[-2.481776,50.600724],[-2.48196,50.618709],[-2.510229,50.618589],[-2.510035,50.600604]]]}},{"type":"Feature","properties":{"sp":"ssblue","n":1,"res":2000},"geometry":{"type":"Polygon","coordinates":[[[-2.481409,50.564754],[-2.453172,50.564867],[-2.453344,50.582852],[-2.481592,50.582739],[-2.481409,50.564754]]]}},{"type":"Feature","properties":{"sp":"ssblue","n":1,"res":2000},"geometry":{"type":"Polygon","coordinates":[[[-2.567417,50.672281],[-2.539116,50.672416],[-2.539322,50.6904],[-2.567634,50.690266],[-2.567417,50.672281]]]}},{"type":"Feature","properties":{"sp":"ssblue","n":1,"res":2000},"geometry":{"type":"Polygon","coordinates":[[[-2.398063,50.726939],[-2.369728,50.727033],[-2.36987,50.745018],[-2.398215,50.744924],[-2.398063,50.726939]]]}},{"type":"Feature","properties":{"sp":"ssblue","n":1,"res":2000},"geometry":{"type":"Polygon","coordinates":[[[-2.369728,50.727033],[-2.341393,50.727119],[-2.341524,50.745104],[-2.36987,50.745018],[-2.369728,50.727033]]]}},{"type":"Feature","properties":{"sp":"ssblue","n":1,"res":2000},"geometry":{"type":"Polygon","coordinates":[[[-2.341786,50.781074],[-2.313418,50.781154],[-2.313538,50.799139],[-2.341917,50.799059],[-2.341786,50.781074]]]}},{"type":"Feature","properties":{"sp":"ssblue","n":1,"res":2000},"geometry":{"type":"Polygon","coordinates":[[[-2.313058,50.727199],[-2.284722,50.727272],[-2.284832,50.745257],[-2.313178,50.745184],[-2.313058,50.727199]]]}},{"type":"Feature","properties":{"sp":"ssblue","n":1,"res":2000},"geometry":{"type":"Polygon","coordinates":[[[-2.284178,50.637345],[-2.255897,50.637411],[-2.255995,50.655396],[-2.284287,50.655331],[-2.284178,50.637345]]]}},{"type":"Feature","properties":{"sp":"ssblue","n":1,"res":2000},"geometry":{"type":"Polygon","coordinates":[[[-2.255995,50.655396],[-2.227702,50.655455],[-2.22779,50.67344],[-2.256093,50.673382],[-2.255995,50.655396]]]}},{"type":"Feature","properties":{"sp":"ssblue","n":1,"res":2000},"geometry":{"type":"Polygon","coordinates":[[[-2.199486,50.673492],[-2.171183,50.673537],[-2.171249,50.691523],[-2.199563,50.691478],[-2.199486,50.673492]]]}},{"type":"Feature","properties":{"sp":"ssblue","n":1,"res":2000},"geometry":{"type":"Polygon","coordinates":[[[-2.284941,50.763242],[-2.256584,50.763308],[-2.256682,50.781293],[-2.28505,50.781227],[-2.284941,50.763242]]]}},{"type":"Feature","properties":{"sp":"ssblue","n":1,"res":2000},"geometry":{"type":"Polygon","coordinates":[[[-2.228051,50.727396],[-2.199716,50.727448],[-2.199792,50.745433],[-2.228139,50.745381],[-2.228051,50.727396]]]}},{"type":"Feature","properties":{"sp":"ssblue","n":1,"res":2000},"geometry":{"type":"Polygon","coordinates":[[[-2.029609,50.583732],[-2.00136,50.583735],[-2.00136,50.601721],[-2.029621,50.601717],[-2.029609,50.583732]]]}},{"type":"Feature","properties":{"sp":"ssblue","n":1,"res":2000},"geometry":{"type":"Polygon","coordinates":[[[-2.142716,50.619619],[-2.114445,50.61965],[-2.114489,50.637636],[-2.142771,50.637605],[-2.142716,50.619619]]]}},{"type":"Feature","properties":{"sp":"ssblue","n":1,"res":2000},"geometry":{"type":"Polygon","coordinates":[[[-2.114445,50.61965],[-2.086174,50.619675],[-2.086207,50.63766],[-2.114489,50.637636],[-2.114445,50.61965]]]}},{"type":"Feature","properties":{"sp":"ssblue","n":1,"res":2000},"geometry":{"type":"Polygon","coordinates":[[[-2.086174,50.619675],[-2.057903,50.619692],[-2.057925,50.637678],[-2.086207,50.63766],[-2.086174,50.619675]]]}},{"type":"Feature","properties":{"sp":"ssblue","n":1,"res":2000},"geometry":{"type":"Polygon","coordinates":[[[-2.086372,50.727588],[-2.058037,50.727605],[-2.058059,50.745591],[-2.086406,50.745573],[-2.086372,50.727588]]]}},{"type":"Feature","properties":{"sp":"ssblue","n":1,"res":2000},"geometry":{"type":"Polygon","coordinates":[[[-2.058104,50.781561],[-2.029735,50.781572],[-2.029747,50.799557],[-2.058126,50.799546],[-2.058104,50.781561]]]}},{"type":"Feature","properties":{"sp":"ssblue","n":1,"res":2000},"geometry":{"type":"Polygon","coordinates":[[[-1.9731,50.601718],[-1.94484,50.601708],[-1.944819,50.619694],[-1.97309,50.619704],[-1.9731,50.601718]]]}},{"type":"Feature","properties":{"sp":"ssblue","n":1,"res":2000},"geometry":{"type":"Polygon","coordinates":[[[-2.001361,50.619707],[-1.97309,50.619704],[-1.97308,50.637689],[-2.001362,50.637692],[-2.001361,50.619707]]]}},{"type":"Feature","properties":{"sp":"ssblue","n":1,"res":2000},"geometry":{"type":"Polygon","coordinates":[[[-1.944735,50.691636],[-1.916421,50.691619],[-1.916389,50.709605],[-1.944714,50.709621],[-1.944735,50.691636]]]}},{"type":"Feature","properties":{"sp":"ssblue","n":1,"res":2000},"geometry":{"type":"Polygon","coordinates":[[[-2.001365,50.72762],[-1.973029,50.727617],[-1.973018,50.745602],[-2.001365,50.745605],[-2.001365,50.72762]]]}},{"type":"Feature","properties":{"sp":"ssblue","n":1,"res":2000},"geometry":{"type":"Polygon","coordinates":[[[-1.859685,50.727536],[-1.831349,50.727498],[-1.831285,50.745483],[-1.859631,50.745521],[-1.859685,50.727536]]]}},{"type":"Feature","properties":{"sp":"ssblue","n":1,"res":2000},"geometry":{"type":"Polygon","coordinates":[[[-1.746342,50.727344],[-1.718007,50.727279],[-1.717899,50.745265],[-1.746245,50.74533],[-1.746342,50.727344]]]}},{"type":"Feature","properties":{"sp":"ladybirdspider","n":27,"res":10000},"geometry":{"type":"Polygon","coordinates":[[[-2.284613,50.709286],[-2.142989,50.709546],[-2.143264,50.799472],[-2.28516,50.799211],[-2.284613,50.709286]]]}},{"type":"Feature","properties":{"sp":"ladybirdspider","n":1,"res":10000},"geometry":{"type":"Polygon","coordinates":[[[-2.001364,50.709634],[-1.859739,50.70955],[-1.85947,50.799476],[-2.001367,50.799561],[-2.001364,50.709634]]]}},{"type":"Feature","properties":{"sp":"dartford","n":2258,"res":10000},"geometry":{"type":"Polygon","coordinates":[[[-2.142989,50.709546],[-2.001364,50.709634],[-2.001367,50.799561],[-2.143264,50.799472],[-2.142989,50.709546]]]}},{"type":"Feature","properties":{"sp":"dartford","n":2217,"res":10000},"geometry":{"type":"Polygon","coordinates":[[[-2.142716,50.619619],[-2.001361,50.619707],[-2.001364,50.709634],[-2.142989,50.709546],[-2.142716,50.619619]]]}},{"type":"Feature","properties":{"sp":"dartford","n":1178,"res":10000},"geometry":{"type":"Polygon","coordinates":[[[-1.859739,50.70955],[-1.718115,50.709294],[-1.717575,50.799219],[-1.85947,50.799476],[-1.859739,50.70955]]]}},{"type":"Feature","properties":{"sp":"dartford","n":609,"res":10000},"geometry":{"type":"Polygon","coordinates":[[[-2.001367,50.799561],[-1.85947,50.799476],[-1.8592,50.889401],[-2.00137,50.889485],[-2.001367,50.799561]]]}},{"type":"Feature","properties":{"sp":"dartford","n":530,"res":10000},"geometry":{"type":"Polygon","coordinates":[[[-2.001364,50.709634],[-1.859739,50.70955],[-1.85947,50.799476],[-2.001367,50.799561],[-2.001364,50.709634]]]}},{"type":"Feature","properties":{"sp":"dartford","n":327,"res":10000},"geometry":{"type":"Polygon","coordinates":[[[-2.284613,50.709286],[-2.142989,50.709546],[-2.143264,50.799472],[-2.28516,50.799211],[-2.284613,50.709286]]]}},{"type":"Feature","properties":{"sp":"dartford","n":295,"res":10000},"geometry":{"type":"Polygon","coordinates":[[[-2.28407,50.61936],[-2.142716,50.619619],[-2.142989,50.709546],[-2.284613,50.709286],[-2.28407,50.61936]]]}},{"type":"Feature","properties":{"sp":"dartford","n":265,"res":10000},"geometry":{"type":"Polygon","coordinates":[[[-2.425421,50.618929],[-2.28407,50.61936],[-2.284613,50.709286],[-2.426234,50.708854],[-2.425421,50.618929]]]}},{"type":"Feature","properties":{"sp":"dartford","n":61,"res":10000},"geometry":{"type":"Polygon","coordinates":[[[-2.00137,50.889485],[-1.8592,50.889401],[-1.858929,50.979324],[-2.001373,50.979409],[-2.00137,50.889485]]]}},{"type":"Feature","properties":{"sp":"dartford","n":49,"res":10000},"geometry":{"type":"Polygon","coordinates":[[[-2.566767,50.618327],[-2.425421,50.618929],[-2.426234,50.708854],[-2.567851,50.70825],[-2.566767,50.618327]]]}},{"type":"Feature","properties":{"sp":"dartford","n":17,"res":10000},"geometry":{"type":"Polygon","coordinates":[[[-2.992663,50.705406],[-2.851067,50.706526],[-2.8527,50.796442],[-2.994567,50.795319],[-2.992663,50.705406]]]}},{"type":"Feature","properties":{"sp":"dartford","n":14,"res":10000},"geometry":{"type":"Polygon","coordinates":[[[-2.851067,50.706526],[-2.709463,50.707474],[-2.710824,50.797393],[-2.8527,50.796442],[-2.851067,50.706526]]]}},{"type":"Feature","properties":{"sp":"dartford","n":11,"res":10000},"geometry":{"type":"Polygon","coordinates":[[[-2.426234,50.708854],[-2.284613,50.709286],[-2.28516,50.799211],[-2.427052,50.798778],[-2.426234,50.708854]]]}},{"type":"Feature","properties":{"sp":"dartford","n":4,"res":10000},"geometry":{"type":"Polygon","coordinates":[[[-2.8527,50.796442],[-2.710824,50.797393],[-2.712192,50.887311],[-2.854341,50.886357],[-2.8527,50.796442]]]}},{"type":"Feature","properties":{"sp":"dartford","n":2,"res":10000},"geometry":{"type":"Polygon","coordinates":[[[-2.570036,50.888092],[-2.427875,50.8887],[-2.428701,50.978621],[-2.571137,50.978011],[-2.570036,50.888092]]]}},{"type":"Feature","properties":{"sp":"dartford","n":1,"res":10000},"geometry":{"type":"Polygon","coordinates":[[[-2.427052,50.798778],[-2.28516,50.799211],[-2.285709,50.889135],[-2.427875,50.8887],[-2.427052,50.798778]]]}},{"type":"Feature","properties":{"sp":"dartford","n":1,"res":10000},"geometry":{"type":"Polygon","coordinates":[[[-2.427875,50.8887],[-2.285709,50.889135],[-2.286261,50.979057],[-2.428701,50.978621],[-2.427875,50.8887]]]}},{"type":"Feature","properties":{"sp":"dartford","n":1,"res":10000},"geometry":{"type":"Polygon","coordinates":[[[-2.286261,50.979057],[-2.143818,50.97932],[-2.144097,51.069242],[-2.286816,51.068978],[-2.286261,50.979057]]]}},{"type":"Feature","properties":{"sp":"dartford","n":1,"res":10000},"geometry":{"type":"Polygon","coordinates":[[[-2.143264,50.799472],[-2.001367,50.799561],[-2.00137,50.889485],[-2.14354,50.889397],[-2.143264,50.799472]]]}},{"type":"Feature","properties":{"sp":"dartford","n":1,"res":10000},"geometry":{"type":"Polygon","coordinates":[[[-2.14354,50.889397],[-2.00137,50.889485],[-2.001373,50.979409],[-2.143818,50.97932],[-2.14354,50.889397]]]}},{"type":"Feature","properties":{"sp":"dartford","n":1,"res":10000},"geometry":{"type":"Polygon","coordinates":[[[-2.567851,50.70825],[-2.426234,50.708854],[-2.427052,50.798778],[-2.568941,50.798172],[-2.567851,50.70825]]]}},{"type":"Feature","properties":{"sp":"nightjar","n":717,"res":10000},"geometry":{"type":"Polygon","coordinates":[[[-2.142716,50.619619],[-2.001361,50.619707],[-2.001364,50.709634],[-2.142989,50.709546],[-2.142716,50.619619]]]}},{"type":"Feature","properties":{"sp":"nightjar","n":525,"res":10000},"geometry":{"type":"Polygon","coordinates":[[[-2.142989,50.709546],[-2.001364,50.709634],[-2.001367,50.799561],[-2.143264,50.799472],[-2.142989,50.709546]]]}},{"type":"Feature","properties":{"sp":"nightjar","n":524,"res":10000},"geometry":{"type":"Polygon","coordinates":[[[-2.001364,50.709634],[-1.859739,50.70955],[-1.85947,50.799476],[-2.001367,50.799561],[-2.001364,50.709634]]]}},{"type":"Feature","properties":{"sp":"nightjar","n":378,"res":10000},"geometry":{"type":"Polygon","coordinates":[[[-2.284613,50.709286],[-2.142989,50.709546],[-2.143264,50.799472],[-2.28516,50.799211],[-2.284613,50.709286]]]}},{"type":"Feature","properties":{"sp":"nightjar","n":305,"res":10000},"geometry":{"type":"Polygon","coordinates":[[[-1.859739,50.70955],[-1.718115,50.709294],[-1.717575,50.799219],[-1.85947,50.799476],[-1.859739,50.70955]]]}},{"type":"Feature","properties":{"sp":"nightjar","n":292,"res":10000},"geometry":{"type":"Polygon","coordinates":[[[-2.001367,50.799561],[-1.85947,50.799476],[-1.8592,50.889401],[-2.00137,50.889485],[-2.001367,50.799561]]]}},{"type":"Feature","properties":{"sp":"nightjar","n":233,"res":10000},"geometry":{"type":"Polygon","coordinates":[[[-2.28407,50.61936],[-2.142716,50.619619],[-2.142989,50.709546],[-2.284613,50.709286],[-2.28407,50.61936]]]}},{"type":"Feature","properties":{"sp":"nightjar","n":84,"res":10000},"geometry":{"type":"Polygon","coordinates":[[[-2.426234,50.708854],[-2.284613,50.709286],[-2.28516,50.799211],[-2.427052,50.798778],[-2.426234,50.708854]]]}},{"type":"Feature","properties":{"sp":"nightjar","n":80,"res":10000},"geometry":{"type":"Polygon","coordinates":[[[-2.00137,50.889485],[-1.8592,50.889401],[-1.858929,50.979324],[-2.001373,50.979409],[-2.00137,50.889485]]]}},{"type":"Feature","properties":{"sp":"nightjar","n":79,"res":10000},"geometry":{"type":"Polygon","coordinates":[[[-2.992663,50.705406],[-2.851067,50.706526],[-2.8527,50.796442],[-2.994567,50.795319],[-2.992663,50.705406]]]}},{"type":"Feature","properties":{"sp":"nightjar","n":67,"res":10000},"geometry":{"type":"Polygon","coordinates":[[[-2.425421,50.618929],[-2.28407,50.61936],[-2.284613,50.709286],[-2.426234,50.708854],[-2.425421,50.618929]]]}},{"type":"Feature","properties":{"sp":"nightjar","n":54,"res":10000},"geometry":{"type":"Polygon","coordinates":[[[-2.566767,50.618327],[-2.425421,50.618929],[-2.426234,50.708854],[-2.567851,50.70825],[-2.566767,50.618327]]]}},{"type":"Feature","properties":{"sp":"nightjar","n":18,"res":10000},"geometry":{"type":"Polygon","coordinates":[[[-2.851067,50.706526],[-2.709463,50.707474],[-2.710824,50.797393],[-2.8527,50.796442],[-2.851067,50.706526]]]}},{"type":"Feature","properties":{"sp":"nightjar","n":8,"res":10000},"geometry":{"type":"Polygon","coordinates":[[[-2.567851,50.70825],[-2.426234,50.708854],[-2.427052,50.798778],[-2.568941,50.798172],[-2.567851,50.70825]]]}},{"type":"Feature","properties":{"sp":"nightjar","n":4,"res":10000},"geometry":{"type":"Polygon","coordinates":[[[-2.143264,50.799472],[-2.001367,50.799561],[-2.00137,50.889485],[-2.14354,50.889397],[-2.143264,50.799472]]]}},{"type":"Feature","properties":{"sp":"nightjar","n":4,"res":10000},"geometry":{"type":"Polygon","coordinates":[[[-2.709463,50.707474],[-2.567851,50.70825],[-2.568941,50.798172],[-2.710824,50.797393],[-2.709463,50.707474]]]}},{"type":"Feature","properties":{"sp":"nightjar","n":3,"res":10000},"geometry":{"type":"Polygon","coordinates":[[[-2.8527,50.796442],[-2.710824,50.797393],[-2.712192,50.887311],[-2.854341,50.886357],[-2.8527,50.796442]]]}},{"type":"Feature","properties":{"sp":"nightjar","n":3,"res":10000},"geometry":{"type":"Polygon","coordinates":[[[-2.568941,50.798172],[-2.427052,50.798778],[-2.427875,50.8887],[-2.570036,50.888092],[-2.568941,50.798172]]]}},{"type":"Feature","properties":{"sp":"nightjar","n":2,"res":10000},"geometry":{"type":"Polygon","coordinates":[[[-2.427052,50.798778],[-2.28516,50.799211],[-2.285709,50.889135],[-2.427875,50.8887],[-2.427052,50.798778]]]}},{"type":"Feature","properties":{"sp":"nightjar","n":2,"res":10000},"geometry":{"type":"Polygon","coordinates":[[[-2.427875,50.8887],[-2.285709,50.889135],[-2.286261,50.979057],[-2.428701,50.978621],[-2.427875,50.8887]]]}},{"type":"Feature","properties":{"sp":"nightjar","n":2,"res":10000},"geometry":{"type":"Polygon","coordinates":[[[-2.28516,50.799211],[-2.143264,50.799472],[-2.14354,50.889397],[-2.285709,50.889135],[-2.28516,50.799211]]]}},{"type":"Feature","properties":{"sp":"nightjar","n":2,"res":10000},"geometry":{"type":"Polygon","coordinates":[[[-2.286261,50.979057],[-2.143818,50.97932],[-2.144097,51.069242],[-2.286816,51.068978],[-2.286261,50.979057]]]}},{"type":"Feature","properties":{"sp":"nightjar","n":2,"res":10000},"geometry":{"type":"Polygon","coordinates":[[[-2.14354,50.889397],[-2.00137,50.889485],[-2.001373,50.979409],[-2.143818,50.97932],[-2.14354,50.889397]]]}},{"type":"Feature","properties":{"sp":"nightjar","n":1,"res":10000},"geometry":{"type":"Polygon","coordinates":[[[-2.710824,50.797393],[-2.568941,50.798172],[-2.570036,50.888092],[-2.712192,50.887311],[-2.710824,50.797393]]]}},{"type":"Feature","properties":{"sp":"nightjar","n":1,"res":10000},"geometry":{"type":"Polygon","coordinates":[[[-2.570036,50.888092],[-2.427875,50.8887],[-2.428701,50.978621],[-2.571137,50.978011],[-2.570036,50.888092]]]}},{"type":"Feature","properties":{"sp":"nightjar","n":1,"res":10000},"geometry":{"type":"Polygon","coordinates":[[[-2.428701,50.978621],[-2.286261,50.979057],[-2.286816,51.068978],[-2.429532,51.068541],[-2.428701,50.978621]]]}},{"type":"Feature","properties":{"sp":"nightjar","n":1,"res":10000},"geometry":{"type":"Polygon","coordinates":[[[-2.285709,50.889135],[-2.14354,50.889397],[-2.143818,50.97932],[-2.286261,50.979057],[-2.285709,50.889135]]]}},{"type":"Feature","properties":{"sp":"gcnewt","n":94,"res":2000},"geometry":{"type":"Polygon","coordinates":[[[-2.114489,50.637636],[-2.086207,50.63766],[-2.08624,50.655646],[-2.114533,50.655622],[-2.114489,50.637636]]]}},{"type":"Feature","properties":{"sp":"gcnewt","n":88,"res":2000},"geometry":{"type":"Polygon","coordinates":[[[-2.00136,50.601721],[-1.9731,50.601718],[-1.97309,50.619704],[-2.001361,50.619707],[-2.00136,50.601721]]]}},{"type":"Feature","properties":{"sp":"gcnewt","n":78,"res":2000},"geometry":{"type":"Polygon","coordinates":[[[-2.48474,50.888478],[-2.456307,50.888593],[-2.456483,50.906577],[-2.484927,50.906462],[-2.48474,50.888478]]]}},{"type":"Feature","properties":{"sp":"gcnewt","n":76,"res":2000},"geometry":{"type":"Polygon","coordinates":[[[-2.143209,50.781487],[-2.114841,50.781519],[-2.114885,50.799504],[-2.143264,50.799472],[-2.143209,50.781487]]]}},{"type":"Feature","properties":{"sp":"gcnewt","n":72,"res":2000},"geometry":{"type":"Polygon","coordinates":[[[-2.256093,50.673382],[-2.22779,50.67344],[-2.227877,50.691426],[-2.256191,50.691367],[-2.256093,50.673382]]]}},{"type":"Feature","properties":{"sp":"gcnewt","n":45,"res":2000},"geometry":{"type":"Polygon","coordinates":[[[-2.484553,50.870494],[-2.456132,50.870608],[-2.456307,50.888593],[-2.48474,50.888478],[-2.484553,50.870494]]]}},{"type":"Feature","properties":{"sp":"gcnewt","n":34,"res":2000},"geometry":{"type":"Polygon","coordinates":[[[-2.343105,50.96092],[-2.314628,50.961],[-2.314749,50.978984],[-2.343237,50.978904],[-2.343105,50.96092]]]}},{"type":"Feature","properties":{"sp":"gcnewt","n":32,"res":2000},"geometry":{"type":"Polygon","coordinates":[[[-2.68062,50.671675],[-2.65232,50.671837],[-2.652569,50.689821],[-2.680881,50.689659],[-2.68062,50.671675]]]}},{"type":"Feature","properties":{"sp":"gcnewt","n":32,"res":2000},"geometry":{"type":"Polygon","coordinates":[[[-2.65357,50.761758],[-2.625215,50.761913],[-2.625455,50.779897],[-2.65382,50.779742],[-2.65357,50.761758]]]}},{"type":"Feature","properties":{"sp":"gcnewt","n":28,"res":2000},"geometry":{"type":"Polygon","coordinates":[[[-2.681924,50.761595],[-2.65357,50.761758],[-2.65382,50.779742],[-2.682186,50.779579],[-2.681924,50.761595]]]}},{"type":"Feature","properties":{"sp":"gcnewt","n":28,"res":2000},"geometry":{"type":"Polygon","coordinates":[[[-2.029609,50.583732],[-2.00136,50.583735],[-2.00136,50.601721],[-2.029621,50.601717],[-2.029609,50.583732]]]}},{"type":"Feature","properties":{"sp":"gcnewt","n":26,"res":2000},"geometry":{"type":"Polygon","coordinates":[[[-2.569817,50.870108],[-2.541396,50.870244],[-2.541604,50.888228],[-2.570036,50.888092],[-2.569817,50.870108]]]}},{"type":"Feature","properties":{"sp":"gcnewt","n":22,"res":2000},"geometry":{"type":"Polygon","coordinates":[[[-2.001368,50.817546],[-1.972977,50.817543],[-1.972967,50.835528],[-2.001368,50.835531],[-2.001368,50.817546]]]}},{"type":"Feature","properties":{"sp":"gcnewt","n":22,"res":2000},"geometry":{"type":"Polygon","coordinates":[[[-2.086207,50.63766],[-2.057925,50.637678],[-2.057947,50.655664],[-2.08624,50.655646],[-2.086207,50.63766]]]}},{"type":"Feature","properties":{"sp":"gcnewt","n":21,"res":2000},"geometry":{"type":"Polygon","coordinates":[[[-2.510035,50.600604],[-2.481776,50.600724],[-2.48196,50.618709],[-2.510229,50.618589],[-2.510035,50.600604]]]}},{"type":"Feature","properties":{"sp":"gcnewt","n":21,"res":2000},"geometry":{"type":"Polygon","coordinates":[[[-2.171052,50.637567],[-2.142771,50.637605],[-2.142825,50.65559],[-2.171118,50.655552],[-2.171052,50.637567]]]}},{"type":"Feature","properties":{"sp":"gcnewt","n":17,"res":2000},"geometry":{"type":"Polygon","coordinates":[[[-2.314385,50.925031],[-2.285929,50.925104],[-2.28604,50.943089],[-2.314506,50.943015],[-2.314385,50.925031]]]}},{"type":"Feature","properties":{"sp":"gcnewt","n":16,"res":2000},"geometry":{"type":"Polygon","coordinates":[[[-2.65232,50.671837],[-2.624019,50.671992],[-2.624258,50.689976],[-2.652569,50.689821],[-2.65232,50.671837]]]}},{"type":"Feature","properties":{"sp":"gcnewt","n":16,"res":2000},"geometry":{"type":"Polygon","coordinates":[[[-2.65382,50.779742],[-2.625455,50.779897],[-2.625695,50.797881],[-2.654071,50.797726],[-2.65382,50.779742]]]}},{"type":"Feature","properties":{"sp":"gcnewt","n":16,"res":2000},"geometry":{"type":"Polygon","coordinates":[[[-2.171512,50.763464],[-2.143154,50.763502],[-2.143209,50.781487],[-2.171577,50.781449],[-2.171512,50.763464]]]}},{"type":"Feature","properties":{"sp":"gcnewt","n":13,"res":2000},"geometry":{"type":"Polygon","coordinates":[[[-2.286482,51.015026],[-2.257972,51.015092],[-2.258072,51.033077],[-2.286593,51.03301],[-2.286482,51.015026]]]}},{"type":"Feature","properties":{"sp":"gcnewt","n":13,"res":2000},"geometry":{"type":"Polygon","coordinates":[[[-2.229373,50.997168],[-2.200873,50.99722],[-2.200951,51.015205],[-2.229461,51.015152],[-2.229373,50.997168]]]}},{"type":"Feature","properties":{"sp":"gcnewt","n":13,"res":2000},"geometry":{"type":"Polygon","coordinates":[[[-2.510619,50.654558],[-2.482328,50.654679],[-2.482512,50.672664],[-2.510814,50.672543],[-2.510619,50.654558]]]}},{"type":"Feature","properties":{"sp":"gcnewt","n":11,"res":2000},"geometry":{"type":"Polygon","coordinates":[[[-2.34284,50.924951],[-2.314385,50.925031],[-2.314506,50.943015],[-2.342972,50.942935],[-2.34284,50.924951]]]}},{"type":"Feature","properties":{"sp":"gcnewt","n":10,"res":2000},"geometry":{"type":"Polygon","coordinates":[[[-2.400059,50.960738],[-2.371582,50.960832],[-2.371725,50.978817],[-2.400213,50.978722],[-2.400059,50.960738]]]}},{"type":"Feature","properties":{"sp":"gcnewt","n":9,"res":2000},"geometry":{"type":"Polygon","coordinates":[[[-2.51337,50.90634],[-2.484927,50.906462],[-2.485114,50.924446],[-2.513568,50.924324],[-2.51337,50.90634]]]}},{"type":"Feature","properties":{"sp":"gcnewt","n":9,"res":2000},"geometry":{"type":"Polygon","coordinates":[[[-2.029621,50.601717],[-2.00136,50.601721],[-2.001361,50.619707],[-2.029632,50.619703],[-2.029621,50.601717]]]}},{"type":"Feature","properties":{"sp":"gcnewt","n":8,"res":2000},"geometry":{"type":"Polygon","coordinates":[[[-2.483252,50.744603],[-2.454907,50.744717],[-2.455081,50.762701],[-2.483437,50.762587],[-2.483252,50.744603]]]}},{"type":"Feature","properties":{"sp":"gcnewt","n":8,"res":2000},"geometry":{"type":"Polygon","coordinates":[[[-2.312818,50.691229],[-2.284504,50.691301],[-2.284613,50.709286],[-2.312938,50.709214],[-2.312818,50.691229]]]}},{"type":"Feature","properties":{"sp":"gcnewt","n":8,"res":2000},"geometry":{"type":"Polygon","coordinates":[[[-2.086406,50.745573],[-2.058059,50.745591],[-2.058081,50.763576],[-2.086439,50.763558],[-2.086406,50.745573]]]}},{"type":"Feature","properties":{"sp":"gcnewt","n":8,"res":2000},"geometry":{"type":"Polygon","coordinates":[[[-1.9731,50.601718],[-1.94484,50.601708],[-1.944819,50.619694],[-1.97309,50.619704],[-1.9731,50.601718]]]}},{"type":"Feature","properties":{"sp":"gcnewt","n":7,"res":2000},"geometry":{"type":"Polygon","coordinates":[[[-2.48418,50.834525],[-2.455781,50.83464],[-2.455956,50.852624],[-2.484367,50.852509],[-2.48418,50.834525]]]}},{"type":"Feature","properties":{"sp":"gcnewt","n":7,"res":2000},"geometry":{"type":"Polygon","coordinates":[[[-2.314263,50.907047],[-2.285819,50.90712],[-2.285929,50.925104],[-2.314385,50.925031],[-2.314263,50.907047]]]}},{"type":"Feature","properties":{"sp":"gcnewt","n":7,"res":2000},"geometry":{"type":"Polygon","coordinates":[[[-1.97311,50.583732],[-1.944861,50.583723],[-1.94484,50.601708],[-1.9731,50.601718],[-1.97311,50.583732]]]}},{"type":"Feature","properties":{"sp":"gcnewt","n":6,"res":2000},"geometry":{"type":"Polygon","coordinates":[[[-2.257176,50.871217],[-2.228754,50.871276],[-2.228842,50.889261],[-2.257275,50.889201],[-2.257176,50.871217]]]}},{"type":"Feature","properties":{"sp":"gcnewt","n":6,"res":2000},"geometry":{"type":"Polygon","coordinates":[[[-2.058126,50.799546],[-2.029747,50.799557],[-2.029758,50.817542],[-2.058148,50.817531],[-2.058126,50.799546]]]}},{"type":"Feature","properties":{"sp":"gcnewt","n":6,"res":2000},"geometry":{"type":"Polygon","coordinates":[[[-1.972977,50.817543],[-1.944587,50.817533],[-1.944566,50.835518],[-1.972967,50.835528],[-1.972977,50.817543]]]}},{"type":"Feature","properties":{"sp":"gcnewt","n":6,"res":2000},"geometry":{"type":"Polygon","coordinates":[[[-2.737502,50.689314],[-2.709191,50.68949],[-2.709463,50.707474],[-2.737784,50.707298],[-2.737502,50.689314]]]}},{"type":"Feature","properties":{"sp":"gcnewt","n":6,"res":2000},"geometry":{"type":"Polygon","coordinates":[[[-2.341132,50.691149],[-2.312818,50.691229],[-2.312938,50.709214],[-2.341262,50.709134],[-2.341132,50.691149]]]}},{"type":"Feature","properties":{"sp":"gcnewt","n":5,"res":2000},"geometry":{"type":"Polygon","coordinates":[[[-2.34337,50.996888],[-2.314871,50.996968],[-2.314993,51.014952],[-2.343503,51.014872],[-2.34337,50.996888]]]}},{"type":"Feature","properties":{"sp":"gcnewt","n":5,"res":2000},"geometry":{"type":"Polygon","coordinates":[[[-2.285599,50.871151],[-2.257176,50.871217],[-2.257275,50.889201],[-2.285709,50.889135],[-2.285599,50.871151]]]}},{"type":"Feature","properties":{"sp":"gcnewt","n":5,"res":2000},"geometry":{"type":"Polygon","coordinates":[[[-2.200873,50.99722],[-2.172373,50.997266],[-2.17244,51.01525],[-2.200951,51.015205],[-2.200873,50.99722]]]}},{"type":"Feature","properties":{"sp":"gcnewt","n":5,"res":2000},"geometry":{"type":"Polygon","coordinates":[[[-2.510229,50.618589],[-2.48196,50.618709],[-2.482144,50.636694],[-2.510424,50.636573],[-2.510229,50.618589]]]}},{"type":"Feature","properties":{"sp":"gcnewt","n":4,"res":2000},"geometry":{"type":"Polygon","coordinates":[[[-2.370866,50.870911],[-2.342444,50.870997],[-2.342576,50.888982],[-2.371009,50.888895],[-2.370866,50.870911]]]}},{"type":"Feature","properties":{"sp":"gcnewt","n":4,"res":2000},"geometry":{"type":"Polygon","coordinates":[[[-2.428205,50.924669],[-2.39975,50.92477],[-2.399904,50.942754],[-2.42837,50.942653],[-2.428205,50.924669]]]}},{"type":"Feature","properties":{"sp":"gcnewt","n":4,"res":2000},"geometry":{"type":"Polygon","coordinates":[[[-2.228314,50.781352],[-2.199946,50.781404],[-2.200023,50.799389],[-2.228402,50.799337],[-2.228314,50.781352]]]}},{"type":"Feature","properties":{"sp":"gcnewt","n":4,"res":2000},"geometry":{"type":"Polygon","coordinates":[[[-1.859631,50.745521],[-1.831285,50.745483],[-1.83122,50.763469],[-1.859578,50.763506],[-1.859631,50.745521]]]}},{"type":"Feature","properties":{"sp":"gcnewt","n":3,"res":2000},"geometry":{"type":"Polygon","coordinates":[[[-2.484367,50.852509],[-2.455956,50.852624],[-2.456132,50.870608],[-2.484553,50.870494],[-2.484367,50.852509]]]}},{"type":"Feature","properties":{"sp":"gcnewt","n":3,"res":2000},"geometry":{"type":"Polygon","coordinates":[[[-2.542231,50.94218],[-2.513766,50.942308],[-2.513964,50.960292],[-2.54244,50.960163],[-2.542231,50.94218]]]}},{"type":"Feature","properties":{"sp":"gcnewt","n":3,"res":2000},"geometry":{"type":"Polygon","coordinates":[[[-2.427875,50.8887],[-2.399442,50.888801],[-2.399596,50.906785],[-2.42804,50.906685],[-2.427875,50.8887]]]}},{"type":"Feature","properties":{"sp":"gcnewt","n":3,"res":2000},"geometry":{"type":"Polygon","coordinates":[[[-2.371009,50.888895],[-2.342576,50.888982],[-2.342708,50.906966],[-2.371152,50.906879],[-2.371009,50.888895]]]}},{"type":"Feature","properties":{"sp":"gcnewt","n":3,"res":2000},"geometry":{"type":"Polygon","coordinates":[[[-2.908054,50.724082],[-2.879724,50.724299],[-2.880061,50.742282],[-2.908402,50.742065],[-2.908054,50.724082]]]}},{"type":"Feature","properties":{"sp":"gcnewt","n":3,"res":2000},"geometry":{"type":"Polygon","coordinates":[[[-2.879724,50.724299],[-2.851393,50.72451],[-2.851719,50.742493],[-2.880061,50.742282],[-2.879724,50.724299]]]}},{"type":"Feature","properties":{"sp":"gcnewt","n":3,"res":2000},"geometry":{"type":"Polygon","coordinates":[[[-2.852373,50.778459],[-2.824009,50.778663],[-2.824325,50.796646],[-2.8527,50.796442],[-2.852373,50.778459]]]}},{"type":"Feature","properties":{"sp":"gcnewt","n":3,"res":2000},"geometry":{"type":"Polygon","coordinates":[[[-2.737784,50.707298],[-2.709463,50.707474],[-2.709734,50.725458],[-2.738067,50.725282],[-2.737784,50.707298]]]}},{"type":"Feature","properties":{"sp":"gcnewt","n":3,"res":2000},"geometry":{"type":"Polygon","coordinates":[[[-2.086108,50.583703],[-2.057859,50.583721],[-2.057881,50.601707],[-2.086141,50.601689],[-2.086108,50.583703]]]}},{"type":"Feature","properties":{"sp":"gcnewt","n":3,"res":2000},"geometry":{"type":"Polygon","coordinates":[[[-2.114533,50.655622],[-2.08624,50.655646],[-2.086273,50.673631],[-2.114577,50.673607],[-2.114533,50.655622]]]}},{"type":"Feature","properties":{"sp":"gcnewt","n":3,"res":2000},"geometry":{"type":"Polygon","coordinates":[[[-2.057903,50.619692],[-2.029632,50.619703],[-2.029643,50.637689],[-2.057925,50.637678],[-2.057903,50.619692]]]}},{"type":"Feature","properties":{"sp":"gcnewt","n":2,"res":2000},"geometry":{"type":"Polygon","coordinates":[[[-2.541396,50.870244],[-2.512974,50.870372],[-2.513172,50.888356],[-2.541604,50.888228],[-2.541396,50.870244]]]}},{"type":"Feature","properties":{"sp":"gcnewt","n":2,"res":2000},"geometry":{"type":"Polygon","coordinates":[[[-2.370723,50.852926],[-2.342312,50.853013],[-2.342444,50.870997],[-2.370866,50.870911],[-2.370723,50.852926]]]}},{"type":"Feature","properties":{"sp":"gcnewt","n":2,"res":2000},"geometry":{"type":"Polygon","coordinates":[[[-2.3139,50.853093],[-2.285489,50.853166],[-2.285599,50.871151],[-2.314021,50.871077],[-2.3139,50.853093]]]}},{"type":"Feature","properties":{"sp":"gcnewt","n":2,"res":2000},"geometry":{"type":"Polygon","coordinates":[[[-2.371152,50.906879],[-2.342708,50.906966],[-2.34284,50.924951],[-2.371295,50.924864],[-2.371152,50.906879]]]}},{"type":"Feature","properties":{"sp":"gcnewt","n":2,"res":2000},"geometry":{"type":"Polygon","coordinates":[[[-2.371582,50.960832],[-2.343105,50.96092],[-2.343237,50.978904],[-2.371725,50.978817],[-2.371582,50.960832]]]}},{"type":"Feature","properties":{"sp":"gcnewt","n":2,"res":2000},"geometry":{"type":"Polygon","coordinates":[[[-2.342708,50.906966],[-2.314263,50.907047],[-2.314385,50.925031],[-2.34284,50.924951],[-2.342708,50.906966]]]}},{"type":"Feature","properties":{"sp":"gcnewt","n":2,"res":2000},"geometry":{"type":"Polygon","coordinates":[[[-2.343636,51.032856],[-2.315115,51.032937],[-2.315237,51.050921],[-2.343769,51.05084],[-2.343636,51.032856]]]}},{"type":"Feature","properties":{"sp":"gcnewt","n":2,"res":2000},"geometry":{"type":"Polygon","coordinates":[[[-2.200331,50.871328],[-2.171908,50.871374],[-2.171974,50.889358],[-2.200408,50.889313],[-2.200331,50.871328]]]}},{"type":"Feature","properties":{"sp":"gcnewt","n":2,"res":2000},"geometry":{"type":"Polygon","coordinates":[[[-2.285929,50.925104],[-2.257474,50.92517],[-2.257573,50.943155],[-2.28604,50.943089],[-2.285929,50.925104]]]}},{"type":"Feature","properties":{"sp":"gcnewt","n":2,"res":2000},"geometry":{"type":"Polygon","coordinates":[[[-2.257972,51.015092],[-2.229461,51.015152],[-2.22955,51.033136],[-2.258072,51.033077],[-2.257972,51.015092]]]}},{"type":"Feature","properties":{"sp":"gcnewt","n":2,"res":2000},"geometry":{"type":"Polygon","coordinates":[[[-1.972947,50.871497],[-1.944523,50.871488],[-1.944502,50.889472],[-1.972936,50.889482],[-1.972947,50.871497]]]}},{"type":"Feature","properties":{"sp":"gcnewt","n":2,"res":2000},"geometry":{"type":"Polygon","coordinates":[[[-1.9161,50.871471],[-1.887677,50.871447],[-1.887634,50.889432],[-1.916068,50.889455],[-1.9161,50.871471]]]}},{"type":"Feature","properties":{"sp":"gcnewt","n":2,"res":2000},"geometry":{"type":"Polygon","coordinates":[[[-1.887677,50.871447],[-1.859254,50.871416],[-1.8592,50.889401],[-1.887634,50.889432],[-1.887677,50.871447]]]}},{"type":"Feature","properties":{"sp":"gcnewt","n":2,"res":2000},"geometry":{"type":"Polygon","coordinates":[[[-2.880398,50.760265],[-2.852046,50.760476],[-2.852373,50.778459],[-2.880736,50.778248],[-2.880398,50.760265]]]}},{"type":"Feature","properties":{"sp":"gcnewt","n":2,"res":2000},"geometry":{"type":"Polygon","coordinates":[[[-2.880736,50.778248],[-2.852373,50.778459],[-2.8527,50.796442],[-2.881074,50.796232],[-2.880736,50.778248]]]}},{"type":"Feature","properties":{"sp":"gcnewt","n":2,"res":2000},"geometry":{"type":"Polygon","coordinates":[[[-2.682186,50.779579],[-2.65382,50.779742],[-2.654071,50.797726],[-2.682448,50.797563],[-2.682186,50.779579]]]}},{"type":"Feature","properties":{"sp":"gcnewt","n":2,"res":2000},"geometry":{"type":"Polygon","coordinates":[[[-2.029701,50.727616],[-2.001365,50.72762],[-2.001365,50.745605],[-2.029712,50.745601],[-2.029701,50.727616]]]}},{"type":"Feature","properties":{"sp":"gcnewt","n":1,"res":2000},"geometry":{"type":"Polygon","coordinates":[[[-2.767575,50.797034],[-2.7392,50.797217],[-2.739484,50.815201],[-2.76787,50.815017],[-2.767575,50.797034]]]}},{"type":"Feature","properties":{"sp":"gcnewt","n":1,"res":2000},"geometry":{"type":"Polygon","coordinates":[[[-2.7392,50.797217],[-2.710824,50.797393],[-2.711097,50.815377],[-2.739484,50.815201],[-2.7392,50.797217]]]}},{"type":"Feature","properties":{"sp":"gcnewt","n":1,"res":2000},"geometry":{"type":"Polygon","coordinates":[[[-2.655078,50.869661],[-2.626658,50.869817],[-2.626899,50.887801],[-2.65533,50.887645],[-2.655078,50.869661]]]}},{"type":"Feature","properties":{"sp":"gcnewt","n":1,"res":2000},"geometry":{"type":"Polygon","coordinates":[[[-2.483808,50.798556],[-2.45543,50.798671],[-2.455605,50.816655],[-2.483994,50.816541],[-2.483808,50.798556]]]}},{"type":"Feature","properties":{"sp":"gcnewt","n":1,"res":2000},"geometry":{"type":"Polygon","coordinates":[[[-2.456132,50.870608],[-2.42771,50.870716],[-2.427875,50.8887],[-2.456307,50.888593],[-2.456132,50.870608]]]}},{"type":"Feature","properties":{"sp":"gcnewt","n":1,"res":2000},"geometry":{"type":"Polygon","coordinates":[[[-2.570476,50.92406],[-2.542022,50.924196],[-2.542231,50.94218],[-2.570696,50.942044],[-2.570476,50.92406]]]}},{"type":"Feature","properties":{"sp":"gcnewt","n":1,"res":2000},"geometry":{"type":"Polygon","coordinates":[[[-2.513766,50.942308],[-2.485301,50.94243],[-2.485488,50.960414],[-2.513964,50.960292],[-2.513766,50.942308]]]}},{"type":"Feature","properties":{"sp":"gcnewt","n":1,"res":2000},"geometry":{"type":"Polygon","coordinates":[[[-2.42771,50.870716],[-2.399288,50.870817],[-2.399442,50.888801],[-2.427875,50.8887],[-2.42771,50.870716]]]}},{"type":"Feature","properties":{"sp":"gcnewt","n":1,"res":2000},"geometry":{"type":"Polygon","coordinates":[[[-2.399442,50.888801],[-2.371009,50.888895],[-2.371152,50.906879],[-2.399596,50.906785],[-2.399442,50.888801]]]}},{"type":"Feature","properties":{"sp":"gcnewt","n":1,"res":2000},"geometry":{"type":"Polygon","coordinates":[[[-2.342972,50.942935],[-2.314506,50.943015],[-2.314628,50.961],[-2.343105,50.96092],[-2.342972,50.942935]]]}},{"type":"Feature","properties":{"sp":"gcnewt","n":1,"res":2000},"geometry":{"type":"Polygon","coordinates":[[[-2.314506,50.943015],[-2.28604,50.943089],[-2.28615,50.961073],[-2.314628,50.961],[-2.314506,50.943015]]]}},{"type":"Feature","properties":{"sp":"gcnewt","n":1,"res":2000},"geometry":{"type":"Polygon","coordinates":[[[-2.315115,51.032937],[-2.286593,51.03301],[-2.286704,51.050994],[-2.315237,51.050921],[-2.315115,51.032937]]]}},{"type":"Feature","properties":{"sp":"gcnewt","n":1,"res":2000},"geometry":{"type":"Polygon","coordinates":[[[-2.285269,50.817196],[-2.256879,50.817262],[-2.256978,50.835247],[-2.285379,50.835181],[-2.285269,50.817196]]]}},{"type":"Feature","properties":{"sp":"gcnewt","n":1,"res":2000},"geometry":{"type":"Polygon","coordinates":[[[-2.228665,50.853291],[-2.200254,50.853343],[-2.200331,50.871328],[-2.228754,50.871276],[-2.228665,50.853291]]]}},{"type":"Feature","properties":{"sp":"gcnewt","n":1,"res":2000},"geometry":{"type":"Polygon","coordinates":[[[-2.257275,50.889201],[-2.228842,50.889261],[-2.22893,50.907245],[-2.257375,50.907186],[-2.257275,50.889201]]]}},{"type":"Feature","properties":{"sp":"gcnewt","n":1,"res":2000},"geometry":{"type":"Polygon","coordinates":[[[-2.257375,50.907186],[-2.22893,50.907245],[-2.229018,50.92523],[-2.257474,50.92517],[-2.257375,50.907186]]]}},{"type":"Feature","properties":{"sp":"gcnewt","n":1,"res":2000},"geometry":{"type":"Polygon","coordinates":[[[-2.257673,50.961139],[-2.229195,50.961199],[-2.229284,50.979183],[-2.257772,50.979124],[-2.257673,50.961139]]]}},{"type":"Feature","properties":{"sp":"gcnewt","n":1,"res":2000},"geometry":{"type":"Polygon","coordinates":[[[-2.200563,50.925282],[-2.172107,50.925328],[-2.172173,50.943312],[-2.20064,50.943267],[-2.200563,50.925282]]]}},{"type":"Feature","properties":{"sp":"gcnewt","n":1,"res":2000},"geometry":{"type":"Polygon","coordinates":[[[-2.22955,51.033136],[-2.201029,51.033189],[-2.201107,51.051173],[-2.229639,51.05112],[-2.22955,51.033136]]]}},{"type":"Feature","properties":{"sp":"gcnewt","n":1,"res":2000},"geometry":{"type":"Polygon","coordinates":[[[-2.058261,50.907456],[-2.029816,50.907466],[-2.029828,50.925451],[-2.058283,50.92544],[-2.058261,50.907456]]]}},{"type":"Feature","properties":{"sp":"gcnewt","n":1,"res":2000},"geometry":{"type":"Polygon","coordinates":[[[-2.029851,50.96142],[-2.001373,50.961424],[-2.001373,50.979409],[-2.029862,50.979405],[-2.029851,50.96142]]]}},{"type":"Feature","properties":{"sp":"gcnewt","n":1,"res":2000},"geometry":{"type":"Polygon","coordinates":[[[-2.001369,50.853516],[-1.972957,50.853513],[-1.972947,50.871497],[-2.00137,50.871501],[-2.001369,50.853516]]]}},{"type":"Feature","properties":{"sp":"gcnewt","n":1,"res":2000},"geometry":{"type":"Polygon","coordinates":[[[-1.916229,50.799531],[-1.88785,50.799507],[-1.887807,50.817492],[-1.916197,50.817516],[-1.916229,50.799531]]]}},{"type":"Feature","properties":{"sp":"gcnewt","n":1,"res":2000},"geometry":{"type":"Polygon","coordinates":[[[-2.937102,50.759823],[-2.90875,50.760048],[-2.909099,50.778031],[-2.937462,50.777806],[-2.937102,50.759823]]]}},{"type":"Feature","properties":{"sp":"gcnewt","n":1,"res":2000},"geometry":{"type":"Polygon","coordinates":[[[-2.851393,50.72451],[-2.823062,50.724713],[-2.823377,50.742696],[-2.851719,50.742493],[-2.851393,50.72451]]]}},{"type":"Feature","properties":{"sp":"gcnewt","n":1,"res":2000},"geometry":{"type":"Polygon","coordinates":[[[-2.851719,50.742493],[-2.823377,50.742696],[-2.823693,50.76068],[-2.852046,50.760476],[-2.851719,50.742493]]]}},{"type":"Feature","properties":{"sp":"gcnewt","n":1,"res":2000},"geometry":{"type":"Polygon","coordinates":[[[-2.794731,50.72491],[-2.766399,50.725099],[-2.766693,50.743083],[-2.795035,50.742893],[-2.794731,50.72491]]]}},{"type":"Feature","properties":{"sp":"gcnewt","n":1,"res":2000},"geometry":{"type":"Polygon","coordinates":[[[-2.73835,50.743266],[-2.710006,50.743442],[-2.710279,50.761426],[-2.738633,50.76125],[-2.73835,50.743266]]]}},{"type":"Feature","properties":{"sp":"gcnewt","n":1,"res":2000},"geometry":{"type":"Polygon","coordinates":[[[-2.709191,50.68949],[-2.680881,50.689659],[-2.681141,50.707643],[-2.709463,50.707474],[-2.709191,50.68949]]]}},{"type":"Feature","properties":{"sp":"gcnewt","n":1,"res":2000},"geometry":{"type":"Polygon","coordinates":[[[-2.680881,50.689659],[-2.652569,50.689821],[-2.652819,50.707805],[-2.681141,50.707643],[-2.680881,50.689659]]]}},{"type":"Feature","properties":{"sp":"gcnewt","n":1,"res":2000},"geometry":{"type":"Polygon","coordinates":[[[-2.623781,50.654007],[-2.595491,50.654155],[-2.595718,50.67214],[-2.624019,50.671992],[-2.623781,50.654007]]]}},{"type":"Feature","properties":{"sp":"gcnewt","n":1,"res":2000},"geometry":{"type":"Polygon","coordinates":[[[-2.681141,50.707643],[-2.652819,50.707805],[-2.653069,50.725789],[-2.681402,50.725627],[-2.681141,50.707643]]]}},{"type":"Feature","properties":{"sp":"gcnewt","n":1,"res":2000},"geometry":{"type":"Polygon","coordinates":[[[-2.597089,50.780046],[-2.568723,50.780188],[-2.568941,50.798172],[-2.597318,50.79803],[-2.597089,50.780046]]]}},{"type":"Feature","properties":{"sp":"gcnewt","n":1,"res":2000},"geometry":{"type":"Polygon","coordinates":[[[-2.452827,50.528896],[-2.424611,50.529003],[-2.424773,50.546988],[-2.452999,50.546882],[-2.452827,50.528896]]]}},{"type":"Feature","properties":{"sp":"gcnewt","n":1,"res":2000},"geometry":{"type":"Polygon","coordinates":[[[-2.452999,50.546882],[-2.424773,50.546988],[-2.424934,50.564974],[-2.453172,50.564867],[-2.452999,50.546882]]]}},{"type":"Feature","properties":{"sp":"gcnewt","n":1,"res":2000},"geometry":{"type":"Polygon","coordinates":[[[-2.53891,50.654431],[-2.510619,50.654558],[-2.510814,50.672543],[-2.539116,50.672416],[-2.53891,50.654431]]]}},{"type":"Feature","properties":{"sp":"gcnewt","n":1,"res":2000},"geometry":{"type":"Polygon","coordinates":[[[-2.482144,50.636694],[-2.453864,50.636808],[-2.454037,50.654793],[-2.482328,50.654679],[-2.482144,50.636694]]]}},{"type":"Feature","properties":{"sp":"gcnewt","n":1,"res":2000},"geometry":{"type":"Polygon","coordinates":[[[-2.45369,50.618823],[-2.425421,50.618929],[-2.425583,50.636914],[-2.453864,50.636808],[-2.45369,50.618823]]]}},{"type":"Feature","properties":{"sp":"gcnewt","n":1,"res":2000},"geometry":{"type":"Polygon","coordinates":[[[-2.539942,50.744354],[-2.511597,50.744482],[-2.511793,50.762466],[-2.540149,50.762338],[-2.539942,50.744354]]]}},{"type":"Feature","properties":{"sp":"gcnewt","n":1,"res":2000},"geometry":{"type":"Polygon","coordinates":[[[-2.482882,50.708633],[-2.454558,50.708747],[-2.454732,50.726732],[-2.483067,50.726618],[-2.482882,50.708633]]]}},{"type":"Feature","properties":{"sp":"gcnewt","n":1,"res":2000},"geometry":{"type":"Polygon","coordinates":[[[-2.454732,50.726732],[-2.426398,50.726839],[-2.426561,50.744824],[-2.454907,50.744717],[-2.454732,50.726732]]]}},{"type":"Feature","properties":{"sp":"gcnewt","n":1,"res":2000},"geometry":{"type":"Polygon","coordinates":[[[-2.341001,50.673164],[-2.312698,50.673243],[-2.312818,50.691229],[-2.341132,50.691149],[-2.341001,50.673164]]]}},{"type":"Feature","properties":{"sp":"gcnewt","n":1,"res":2000},"geometry":{"type":"Polygon","coordinates":[[[-2.369728,50.727033],[-2.341393,50.727119],[-2.341524,50.745104],[-2.36987,50.745018],[-2.369728,50.727033]]]}},{"type":"Feature","properties":{"sp":"gcnewt","n":1,"res":2000},"geometry":{"type":"Polygon","coordinates":[[[-2.284287,50.655331],[-2.255995,50.655396],[-2.256093,50.673382],[-2.284396,50.673316],[-2.284287,50.655331]]]}},{"type":"Feature","properties":{"sp":"gcnewt","n":1,"res":2000},"geometry":{"type":"Polygon","coordinates":[[[-2.199334,50.637522],[-2.171052,50.637567],[-2.171118,50.655552],[-2.19941,50.655507],[-2.199334,50.637522]]]}},{"type":"Feature","properties":{"sp":"gcnewt","n":1,"res":2000},"geometry":{"type":"Polygon","coordinates":[[[-2.171314,50.709508],[-2.142989,50.709546],[-2.143044,50.727532],[-2.17138,50.727493],[-2.171314,50.709508]]]}},{"type":"Feature","properties":{"sp":"gcnewt","n":1,"res":2000},"geometry":{"type":"Polygon","coordinates":[[[-2.171446,50.745479],[-2.143099,50.745517],[-2.143154,50.763502],[-2.171512,50.763464],[-2.171446,50.745479]]]}},{"type":"Feature","properties":{"sp":"gcnewt","n":1,"res":2000},"geometry":{"type":"Polygon","coordinates":[[[-2.057881,50.601707],[-2.029621,50.601717],[-2.029632,50.619703],[-2.057903,50.619692],[-2.057881,50.601707]]]}},{"type":"Feature","properties":{"sp":"gcnewt","n":1,"res":2000},"geometry":{"type":"Polygon","coordinates":[[[-2.143044,50.727532],[-2.114708,50.727563],[-2.114752,50.745548],[-2.143099,50.745517],[-2.143044,50.727532]]]}},{"type":"Feature","properties":{"sp":"gcnewt","n":1,"res":2000},"geometry":{"type":"Polygon","coordinates":[[[-2.143154,50.763502],[-2.114796,50.763534],[-2.114841,50.781519],[-2.143209,50.781487],[-2.143154,50.763502]]]}},{"type":"Feature","properties":{"sp":"gcnewt","n":1,"res":2000},"geometry":{"type":"Polygon","coordinates":[[[-2.114664,50.709578],[-2.086339,50.709602],[-2.086372,50.727588],[-2.114708,50.727563],[-2.114664,50.709578]]]}},{"type":"Feature","properties":{"sp":"gcnewt","n":1,"res":2000},"geometry":{"type":"Polygon","coordinates":[[[-2.058037,50.727605],[-2.029701,50.727616],[-2.029712,50.745601],[-2.058059,50.745591],[-2.058037,50.727605]]]}},{"type":"Feature","properties":{"sp":"gcnewt","n":1,"res":2000},"geometry":{"type":"Polygon","coordinates":[[[-2.029724,50.763586],[-2.001366,50.76359],[-2.001367,50.781575],[-2.029735,50.781572],[-2.029724,50.763586]]]}},{"type":"Feature","properties":{"sp":"gcnewt","n":1,"res":2000},"geometry":{"type":"Polygon","coordinates":[[[-1.97308,50.637689],[-1.944798,50.63768],[-1.944777,50.655665],[-1.97307,50.655675],[-1.97308,50.637689]]]}},{"type":"Feature","properties":{"sp":"gcnewt","n":1,"res":2000},"geometry":{"type":"Polygon","coordinates":[[[-1.973039,50.709631],[-1.944714,50.709621],[-1.944693,50.727607],[-1.973029,50.727617],[-1.973039,50.709631]]]}},{"type":"Feature","properties":{"sp":"gcnewt","n":1,"res":2000},"geometry":{"type":"Polygon","coordinates":[[[-1.916357,50.72759],[-1.888021,50.727566],[-1.887978,50.745552],[-1.916325,50.745575],[-1.916357,50.72759]]]}},{"type":"Feature","properties":{"sp":"gcnewt","n":1,"res":2000},"geometry":{"type":"Polygon","coordinates":[[[-1.803014,50.727454],[-1.774678,50.727403],[-1.774592,50.745388],[-1.802938,50.745439],[-1.803014,50.727454]]]}},{"type":"Feature","properties":{"sp":"lulworth","n":2853,"res":2000},"geometry":{"type":"Polygon","coordinates":[[[-1.97311,50.583732],[-1.944861,50.583723],[-1.94484,50.601708],[-1.9731,50.601718],[-1.97311,50.583732]]]}},{"type":"Feature","properties":{"sp":"lulworth","n":970,"res":2000},"geometry":{"type":"Polygon","coordinates":[[[-1.97309,50.619704],[-1.944819,50.619694],[-1.944798,50.63768],[-1.97308,50.637689],[-1.97309,50.619704]]]}},{"type":"Feature","properties":{"sp":"lulworth","n":606,"res":2000},"geometry":{"type":"Polygon","coordinates":[[[-2.255799,50.619426],[-2.227528,50.619484],[-2.227615,50.63747],[-2.255897,50.637411],[-2.255799,50.619426]]]}},{"type":"Feature","properties":{"sp":"lulworth","n":447,"res":2000},"geometry":{"type":"Polygon","coordinates":[[[-2.057859,50.583721],[-2.029609,50.583732],[-2.029621,50.601717],[-2.057881,50.601707],[-2.057859,50.583721]]]}},{"type":"Feature","properties":{"sp":"lulworth","n":255,"res":2000},"geometry":{"type":"Polygon","coordinates":[[[-2.737502,50.689314],[-2.709191,50.68949],[-2.709463,50.707474],[-2.737784,50.707298],[-2.737502,50.689314]]]}},{"type":"Feature","properties":{"sp":"lulworth","n":248,"res":2000},"geometry":{"type":"Polygon","coordinates":[[[-2.00136,50.583735],[-1.97311,50.583732],[-1.9731,50.601718],[-2.00136,50.601721],[-2.00136,50.583735]]]}},{"type":"Feature","properties":{"sp":"lulworth","n":182,"res":2000},"geometry":{"type":"Polygon","coordinates":[[[-2.001361,50.619707],[-1.97309,50.619704],[-1.97308,50.637689],[-2.001362,50.637692],[-2.001361,50.619707]]]}},{"type":"Feature","properties":{"sp":"lulworth","n":174,"res":2000},"geometry":{"type":"Polygon","coordinates":[[[-2.029632,50.619703],[-2.001361,50.619707],[-2.001362,50.637692],[-2.029643,50.637689],[-2.029632,50.619703]]]}},{"type":"Feature","properties":{"sp":"lulworth","n":150,"res":2000},"geometry":{"type":"Polygon","coordinates":[[[-2.086207,50.63766],[-2.057925,50.637678],[-2.057947,50.655664],[-2.08624,50.655646],[-2.086207,50.63766]]]}},{"type":"Feature","properties":{"sp":"lulworth","n":118,"res":2000},"geometry":{"type":"Polygon","coordinates":[[[-2.029609,50.583732],[-2.00136,50.583735],[-2.00136,50.601721],[-2.029621,50.601717],[-2.029609,50.583732]]]}},{"type":"Feature","properties":{"sp":"lulworth","n":109,"res":2000},"geometry":{"type":"Polygon","coordinates":[[[-2.452827,50.528896],[-2.424611,50.529003],[-2.424773,50.546988],[-2.452999,50.546882],[-2.452827,50.528896]]]}},{"type":"Feature","properties":{"sp":"lulworth","n":99,"res":2000},"geometry":{"type":"Polygon","coordinates":[[[-2.34061,50.619208],[-2.31234,50.619288],[-2.312459,50.637273],[-2.340741,50.637194],[-2.34061,50.619208]]]}},{"type":"Feature","properties":{"sp":"lulworth","n":94,"res":2000},"geometry":{"type":"Polygon","coordinates":[[[-1.9731,50.601718],[-1.94484,50.601708],[-1.944819,50.619694],[-1.97309,50.619704],[-1.9731,50.601718]]]}},{"type":"Feature","properties":{"sp":"lulworth","n":80,"res":2000},"geometry":{"type":"Polygon","coordinates":[[[-2.452999,50.546882],[-2.424773,50.546988],[-2.424934,50.564974],[-2.453172,50.564867],[-2.452999,50.546882]]]}},{"type":"Feature","properties":{"sp":"lulworth","n":73,"res":2000},"geometry":{"type":"Polygon","coordinates":[[[-2.28407,50.61936],[-2.255799,50.619426],[-2.255897,50.637411],[-2.284178,50.637345],[-2.28407,50.61936]]]}},{"type":"Feature","properties":{"sp":"lulworth","n":55,"res":2000},"geometry":{"type":"Polygon","coordinates":[[[-2.114489,50.637636],[-2.086207,50.63766],[-2.08624,50.655646],[-2.114533,50.655622],[-2.114489,50.637636]]]}},{"type":"Feature","properties":{"sp":"lulworth","n":54,"res":2000},"geometry":{"type":"Polygon","coordinates":[[[-2.425746,50.654899],[-2.397454,50.654999],[-2.397606,50.672985],[-2.425908,50.672884],[-2.425746,50.654899]]]}},{"type":"Feature","properties":{"sp":"lulworth","n":54,"res":2000},"geometry":{"type":"Polygon","coordinates":[[[-2.057925,50.637678],[-2.029643,50.637689],[-2.029655,50.655674],[-2.057947,50.655664],[-2.057925,50.637678]]]}},{"type":"Feature","properties":{"sp":"lulworth","n":52,"res":2000},"geometry":{"type":"Polygon","coordinates":[[[-2.453864,50.636808],[-2.425583,50.636914],[-2.425746,50.654899],[-2.454037,50.654793],[-2.453864,50.636808]]]}},{"type":"Feature","properties":{"sp":"lulworth","n":45,"res":2000},"geometry":{"type":"Polygon","coordinates":[[[-2.142716,50.619619],[-2.114445,50.61965],[-2.114489,50.637636],[-2.142771,50.637605],[-2.142716,50.619619]]]}},{"type":"Feature","properties":{"sp":"lulworth","n":44,"res":2000},"geometry":{"type":"Polygon","coordinates":[[[-2.199258,50.619536],[-2.170987,50.619581],[-2.171052,50.637567],[-2.199334,50.637522],[-2.199258,50.619536]]]}},{"type":"Feature","properties":{"sp":"lulworth","n":30,"res":2000},"geometry":{"type":"Polygon","coordinates":[[[-2.227528,50.619484],[-2.199258,50.619536],[-2.199334,50.637522],[-2.227615,50.63747],[-2.227528,50.619484]]]}},{"type":"Feature","properties":{"sp":"lulworth","n":30,"res":2000},"geometry":{"type":"Polygon","coordinates":[[[-2.170987,50.619581],[-2.142716,50.619619],[-2.142771,50.637605],[-2.171052,50.637567],[-2.170987,50.619581]]]}},{"type":"Feature","properties":{"sp":"lulworth","n":24,"res":2000},"geometry":{"type":"Polygon","coordinates":[[[-2.31234,50.619288],[-2.28407,50.61936],[-2.284178,50.637345],[-2.312459,50.637273],[-2.31234,50.619288]]]}},{"type":"Feature","properties":{"sp":"lulworth","n":20,"res":2000},"geometry":{"type":"Polygon","coordinates":[[[-2.086108,50.583703],[-2.057859,50.583721],[-2.057881,50.601707],[-2.086141,50.601689],[-2.086108,50.583703]]]}},{"type":"Feature","properties":{"sp":"lulworth","n":18,"res":2000},"geometry":{"type":"Polygon","coordinates":[[[-2.284178,50.637345],[-2.255897,50.637411],[-2.255995,50.655396],[-2.284287,50.655331],[-2.284178,50.637345]]]}},{"type":"Feature","properties":{"sp":"lulworth","n":17,"res":2000},"geometry":{"type":"Polygon","coordinates":[[[-2.454037,50.654793],[-2.425746,50.654899],[-2.425908,50.672884],[-2.454211,50.672778],[-2.454037,50.654793]]]}},{"type":"Feature","properties":{"sp":"lulworth","n":15,"res":2000},"geometry":{"type":"Polygon","coordinates":[[[-2.312579,50.655258],[-2.284287,50.655331],[-2.284396,50.673316],[-2.312698,50.673243],[-2.312579,50.655258]]]}},{"type":"Feature","properties":{"sp":"lulworth","n":15,"res":2000},"geometry":{"type":"Polygon","coordinates":[[[-2.057903,50.619692],[-2.029632,50.619703],[-2.029643,50.637689],[-2.057925,50.637678],[-2.057903,50.619692]]]}},{"type":"Feature","properties":{"sp":"lulworth","n":14,"res":2000},"geometry":{"type":"Polygon","coordinates":[[[-2.114445,50.61965],[-2.086174,50.619675],[-2.086207,50.63766],[-2.114489,50.637636],[-2.114445,50.61965]]]}},{"type":"Feature","properties":{"sp":"lulworth","n":10,"res":2000},"geometry":{"type":"Polygon","coordinates":[[[-2.482328,50.654679],[-2.454037,50.654793],[-2.454211,50.672778],[-2.482512,50.672664],[-2.482328,50.654679]]]}},{"type":"Feature","properties":{"sp":"lulworth","n":10,"res":2000},"geometry":{"type":"Polygon","coordinates":[[[-2.397302,50.637014],[-2.369022,50.637107],[-2.369163,50.655093],[-2.397454,50.654999],[-2.397302,50.637014]]]}},{"type":"Feature","properties":{"sp":"lulworth","n":9,"res":2000},"geometry":{"type":"Polygon","coordinates":[[[-2.397454,50.654999],[-2.369163,50.655093],[-2.369304,50.673078],[-2.397606,50.672985],[-2.397454,50.654999]]]}},{"type":"Feature","properties":{"sp":"lulworth","n":9,"res":2000},"geometry":{"type":"Polygon","coordinates":[[[-2.029621,50.601717],[-2.00136,50.601721],[-2.001361,50.619707],[-2.029632,50.619703],[-2.029621,50.601717]]]}},{"type":"Feature","properties":{"sp":"lulworth","n":8,"res":2000},"geometry":{"type":"Polygon","coordinates":[[[-2.510035,50.600604],[-2.481776,50.600724],[-2.48196,50.618709],[-2.510229,50.618589],[-2.510035,50.600604]]]}},{"type":"Feature","properties":{"sp":"lulworth","n":8,"res":2000},"geometry":{"type":"Polygon","coordinates":[[[-2.227615,50.63747],[-2.199334,50.637522],[-2.19941,50.655507],[-2.227702,50.655455],[-2.227615,50.63747]]]}},{"type":"Feature","properties":{"sp":"lulworth","n":7,"res":2000},"geometry":{"type":"Polygon","coordinates":[[[-2.312459,50.637273],[-2.284178,50.637345],[-2.284287,50.655331],[-2.312579,50.655258],[-2.312459,50.637273]]]}},{"type":"Feature","properties":{"sp":"lulworth","n":7,"res":2000},"geometry":{"type":"Polygon","coordinates":[[[-2.057881,50.601707],[-2.029621,50.601717],[-2.029632,50.619703],[-2.057903,50.619692],[-2.057881,50.601707]]]}},{"type":"Feature","properties":{"sp":"lulworth","n":6,"res":2000},"geometry":{"type":"Polygon","coordinates":[[[-2.369022,50.637107],[-2.340741,50.637194],[-2.340871,50.655179],[-2.369163,50.655093],[-2.369022,50.637107]]]}},{"type":"Feature","properties":{"sp":"lulworth","n":5,"res":2000},"geometry":{"type":"Polygon","coordinates":[[[-2.425583,50.636914],[-2.397302,50.637014],[-2.397454,50.654999],[-2.425746,50.654899],[-2.425583,50.636914]]]}},{"type":"Feature","properties":{"sp":"lulworth","n":5,"res":2000},"geometry":{"type":"Polygon","coordinates":[[[-2.255897,50.637411],[-2.227615,50.63747],[-2.227702,50.655455],[-2.255995,50.655396],[-2.255897,50.637411]]]}},{"type":"Feature","properties":{"sp":"lulworth","n":5,"res":2000},"geometry":{"type":"Polygon","coordinates":[[[-2.086174,50.619675],[-2.057903,50.619692],[-2.057925,50.637678],[-2.086207,50.63766],[-2.086174,50.619675]]]}},{"type":"Feature","properties":{"sp":"lulworth","n":4,"res":2000},"geometry":{"type":"Polygon","coordinates":[[[-2.142662,50.601634],[-2.114401,50.601665],[-2.114445,50.61965],[-2.142716,50.619619],[-2.142662,50.601634]]]}},{"type":"Feature","properties":{"sp":"lulworth","n":4,"res":2000},"geometry":{"type":"Polygon","coordinates":[[[-2.029643,50.637689],[-2.001362,50.637692],[-2.001362,50.655678],[-2.029655,50.655674],[-2.029643,50.637689]]]}},{"type":"Feature","properties":{"sp":"lulworth","n":3,"res":2000},"geometry":{"type":"Polygon","coordinates":[[[-2.228842,50.889261],[-2.200408,50.889313],[-2.200485,50.907298],[-2.22893,50.907245],[-2.228842,50.889261]]]}},{"type":"Feature","properties":{"sp":"lulworth","n":3,"res":2000},"geometry":{"type":"Polygon","coordinates":[[[-2.171052,50.637567],[-2.142771,50.637605],[-2.142825,50.65559],[-2.171118,50.655552],[-2.171052,50.637567]]]}},{"type":"Feature","properties":{"sp":"lulworth","n":3,"res":2000},"geometry":{"type":"Polygon","coordinates":[[[-2.114401,50.601665],[-2.086141,50.601689],[-2.086174,50.619675],[-2.114445,50.61965],[-2.114401,50.601665]]]}},{"type":"Feature","properties":{"sp":"lulworth","n":3,"res":2000},"geometry":{"type":"Polygon","coordinates":[[[-2.08624,50.655646],[-2.057947,50.655664],[-2.05797,50.673649],[-2.086273,50.673631],[-2.08624,50.655646]]]}},{"type":"Feature","properties":{"sp":"lulworth","n":3,"res":2000},"geometry":{"type":"Polygon","coordinates":[[[-2.00136,50.601721],[-1.9731,50.601718],[-1.97309,50.619704],[-2.001361,50.619707],[-2.00136,50.601721]]]}},{"type":"Feature","properties":{"sp":"lulworth","n":3,"res":2000},"geometry":{"type":"Polygon","coordinates":[[[-1.97308,50.637689],[-1.944798,50.63768],[-1.944777,50.655665],[-1.97307,50.655675],[-1.97308,50.637689]]]}},{"type":"Feature","properties":{"sp":"lulworth","n":2,"res":2000},"geometry":{"type":"Polygon","coordinates":[[[-2.936384,50.723858],[-2.908054,50.724082],[-2.908402,50.742065],[-2.936743,50.741841],[-2.936384,50.723858]]]}},{"type":"Feature","properties":{"sp":"lulworth","n":2,"res":2000},"geometry":{"type":"Polygon","coordinates":[[[-2.709191,50.68949],[-2.680881,50.689659],[-2.681141,50.707643],[-2.709463,50.707474],[-2.709191,50.68949]]]}},{"type":"Feature","properties":{"sp":"lulworth","n":2,"res":2000},"geometry":{"type":"Polygon","coordinates":[[[-2.538293,50.600476],[-2.510035,50.600604],[-2.510229,50.618589],[-2.538498,50.618461],[-2.538293,50.600476]]]}},{"type":"Feature","properties":{"sp":"lulworth","n":2,"res":2000},"geometry":{"type":"Polygon","coordinates":[[[-2.256289,50.709352],[-2.227964,50.709411],[-2.228051,50.727396],[-2.256387,50.727337],[-2.256289,50.709352]]]}},{"type":"Feature","properties":{"sp":"lulworth","n":1,"res":2000},"geometry":{"type":"Polygon","coordinates":[[[-2.313659,50.817123],[-2.285269,50.817196],[-2.285379,50.835181],[-2.31378,50.835108],[-2.313659,50.817123]]]}},{"type":"Feature","properties":{"sp":"lulworth","n":1,"res":2000},"geometry":{"type":"Polygon","coordinates":[[[-2.285819,50.90712],[-2.257375,50.907186],[-2.257474,50.92517],[-2.285929,50.925104],[-2.285819,50.90712]]]}},{"type":"Feature","properties":{"sp":"lulworth","n":1,"res":2000},"geometry":{"type":"Polygon","coordinates":[[[-2.879724,50.724299],[-2.851393,50.72451],[-2.851719,50.742493],[-2.880061,50.742282],[-2.879724,50.724299]]]}},{"type":"Feature","properties":{"sp":"lulworth","n":1,"res":2000},"geometry":{"type":"Polygon","coordinates":[[[-2.50984,50.582619],[-2.481592,50.582739],[-2.481776,50.600724],[-2.510035,50.600604],[-2.50984,50.582619]]]}},{"type":"Feature","properties":{"sp":"lulworth","n":1,"res":2000},"geometry":{"type":"Polygon","coordinates":[[[-2.481592,50.582739],[-2.453344,50.582852],[-2.453517,50.600837],[-2.481776,50.600724],[-2.481592,50.582739]]]}},{"type":"Feature","properties":{"sp":"lulworth","n":1,"res":2000},"geometry":{"type":"Polygon","coordinates":[[[-2.481776,50.600724],[-2.453517,50.600837],[-2.45369,50.618823],[-2.48196,50.618709],[-2.481776,50.600724]]]}},{"type":"Feature","properties":{"sp":"lulworth","n":1,"res":2000},"geometry":{"type":"Polygon","coordinates":[[[-2.340741,50.637194],[-2.312459,50.637273],[-2.312579,50.655258],[-2.340871,50.655179],[-2.340741,50.637194]]]}},{"type":"Feature","properties":{"sp":"lulworth","n":1,"res":2000},"geometry":{"type":"Polygon","coordinates":[[[-2.199334,50.637522],[-2.171052,50.637567],[-2.171118,50.655552],[-2.19941,50.655507],[-2.199334,50.637522]]]}},{"type":"Feature","properties":{"sp":"lulworth","n":1,"res":2000},"geometry":{"type":"Polygon","coordinates":[[[-2.19941,50.655507],[-2.171118,50.655552],[-2.171183,50.673537],[-2.199486,50.673492],[-2.19941,50.655507]]]}},{"type":"Feature","properties":{"sp":"lulworth","n":1,"res":2000},"geometry":{"type":"Polygon","coordinates":[[[-2.227964,50.709411],[-2.199639,50.709463],[-2.199716,50.727448],[-2.228051,50.727396],[-2.227964,50.709411]]]}},{"type":"Feature","properties":{"sp":"lulworth","n":1,"res":2000},"geometry":{"type":"Polygon","coordinates":[[[-2.228139,50.745381],[-2.199792,50.745433],[-2.199869,50.763419],[-2.228226,50.763367],[-2.228139,50.745381]]]}},{"type":"Feature","properties":{"sp":"lulworth","n":1,"res":2000},"geometry":{"type":"Polygon","coordinates":[[[-2.086141,50.601689],[-2.057881,50.601707],[-2.057903,50.619692],[-2.086174,50.619675],[-2.086141,50.601689]]]}},{"type":"Feature","properties":{"sp":"lulworth","n":1,"res":2000},"geometry":{"type":"Polygon","coordinates":[[[-2.086339,50.709602],[-2.058014,50.70962],[-2.058037,50.727605],[-2.086372,50.727588],[-2.086339,50.709602]]]}},{"type":"Feature","properties":{"sp":"lulworth","n":1,"res":2000},"geometry":{"type":"Polygon","coordinates":[[[-2.001362,50.637692],[-1.97308,50.637689],[-1.97307,50.655675],[-2.001362,50.655678],[-2.001362,50.637692]]]}},{"type":"Feature","properties":{"sp":"lulworth","n":1,"res":2000},"geometry":{"type":"Polygon","coordinates":[[[-1.859524,50.781491],[-1.831156,50.781454],[-1.831091,50.799439],[-1.85947,50.799476],[-1.859524,50.781491]]]}}]}