{"type":"FeatureCollection", "features": [
{"type":"Feature","geometry":{"type":"Polygon","coordinates":[[[-1.4989,50.7003],[-1.4968,50.7027],[-1.5003,50.7067],[-1.5013,50.707],[-1.5067,50.7055],[-1.5029,50.7001],[-1.4989,50.7003]]]},"properties":{"id":"GB520710101800","name":"Western Yar","wbtype":"Transitional","eco":"Moderate","chem":"Fail","year":2025}},
{"type":"Feature","geometry":{"type":"Polygon","coordinates":[[[-4.0696,50.3124],[-4.0717,50.3148],[-4.086,50.3177],[-4.0891,50.3164],[-4.1008,50.3172],[-4.1049,50.315],[-4.1116,50.316],[-4.1124,50.3189],[-4.1188,50.3195],[-4.1885,50.3178],[-4.2106,50.3183],[-4.2214,50.3141],[-4.2262,50.3199],[-4.2196,50.3238],[-4.2222,50.3282],[-4.2291,50.3335],[-4.2448,50.3421],[-4.2552,50.3465],[-4.2666,50.3501],[-4.2708,50.3527],[-4.2824,50.3568],[-4.3079,50.3613],[-4.3321,50.3623],[-4.3382,50.3595],[-4.3553,50.3618],[-4.367,50.3603],[-4.3871,50.3644],[-4.3931,50.3633],[-4.4101,50.3641],[-4.4182,50.3622],[-4.437,50.3608],[-4.4496,50.353],[-4.4507,50.3495],[-4.4525,50.3449],[-4.4722,50.3389],[-4.4732,50.3331],[-4.4577,50.3172],[-4.4361,50.3174],[-4.4279,50.3198],[-4.4091,50.3318],[-4.3959,50.3372],[-4.3738,50.3413],[-4.3515,50.3423],[-4.3372,50.3417],[-4.3199,50.3423],[-4.3007,50.3403],[-4.2814,50.3339],[-4.2719,50.329],[-4.2604,50.3189],[-4.2515,50.3046],[-4.2467,50.3007],[-4.2378,50.297],[-4.2262,50.295],[-4.2102,50.2951],[-4.0994,50.2881],[-4.0835,50.2855],[-4.0569,50.2775],[-4.0355,50.2752],[-4.0261,50.2758],[-4.0071,50.2806],[-3.9829,50.2836],[-3.9582,50.2813],[-3.9455,50.2779],[-3.9305,50.2717],[-3.9191,50.2651],[-3.9062,50.2528],[-3.8982,50.2363],[-3.8708,50.2417],[-3.8666,50.2434],[-3.8591,50.2425],[-3.8604,50.2544],[-3.8582,50.2608],[-3.8627,50.2644],[-3.8814,50.2735],[-3.8946,50.2817],[-3.8967,50.2863],[-3.9071,50.2907],[-3.91,50.2943],[-3.923,50.2971],[-3.9334,50.2954],[-3.9382,50.2973],[-3.9452,50.2976],[-3.9472,50.3018],[-3.9603,50.3047],[-3.9774,50.3074],[-3.9938,50.307],[-4.0037,50.3017],[-4.0115,50.3031],[-4.0165,50.3012],[-4.0192,50.2953],[-4.0249,50.2966],[-4.0351,50.2929],[-4.0463,50.2941],[-4.0601,50.3005],[-4.075,50.3044],[-4.0714,50.3093],[-4.0696,50.3124]]]},"properties":{"id":"GB620806110003","name":"Plymouth Coast","wbtype":"Coastal","eco":"Moderate","chem":"Fail","year":2025}},
{"type":"Feature","geometry":{"type":"Polygon","coordinates":[[[-3.5924,50.5355],[-3.59,50.534],[-3.5875,50.5362],[-3.5763,50.5384],[-3.5488,50.54],[-3.5179,50.5407],[-3.5074,50.5421],[-3.4962,50.5379],[-3.4942,50.5444],[-3.5101,50.5466],[-3.5156,50.5455],[-3.5281,50.5473],[-3.5425,50.5454],[-3.561,50.5459],[-3.5682,50.5425],[-3.5738,50.5429],[-3.5823,50.5396],[-3.5888,50.5389],[-3.5924,50.5355]]]},"properties":{"id":"GB510804605800","name":"Teign","wbtype":"Transitional","eco":"Moderate","chem":"Fail","year":2025}},
{"type":"Feature","geometry":{"type":"Polygon","coordinates":[[[-3.054,50.7205],[-3.059,50.719],[-3.0608,50.7053],[-3.0552,50.7025],[-3.0543,50.7022],[-3.0591,50.7051],[-3.0549,50.7167],[-3.0558,50.7189],[-3.054,50.7205]]]},"properties":{"id":"GB510804505400","name":"Axe","wbtype":"Transitional","eco":"Moderate","chem":"Fail","year":2025}},
{"type":"Feature","geometry":{"type":"Polygon","coordinates":[[[-3.8539,50.3082],[-3.8511,50.305],[-3.8622,50.2983],[-3.8613,50.2908],[-3.8673,50.2879],[-3.8686,50.2831],[-3.8742,50.281],[-3.8777,50.2842],[-3.8946,50.2817],[-3.8814,50.2735],[-3.8817,50.2765],[-3.8756,50.2797],[-3.8666,50.2803],[-3.864,50.2873],[-3.8583,50.2905],[-3.8599,50.2965],[-3.85,50.3025],[-3.8493,50.3066],[-3.8539,50.3082]]]},"properties":{"id":"GB510804606000","name":"Avon","wbtype":"Transitional","eco":"Good","chem":"Fail","year":2025}},
{"type":"Feature","geometry":{"type":"Polygon","coordinates":[[[-1.1039,50.6963],[-1.1018,50.6985],[-1.1027,50.6998],[-1.1061,50.6971],[-1.1053,50.6953],[-1.1039,50.6963]]]},"properties":{"id":"GB560710116900","name":"Old Mill Ponds","wbtype":"Transitional","eco":"Good","chem":"Fail","year":2025}},
{"type":"Feature","geometry":{"type":"Polygon","coordinates":[[[-1.4045,50.78],[-1.4056,50.7801],[-1.4059,50.7789],[-1.4039,50.779],[-1.4045,50.78]]]},"properties":{"id":"GB560704217200","name":"Black Water Lagoons","wbtype":"Transitional","eco":"Good","chem":"Fail","year":2025}},
{"type":"Feature","geometry":{"type":"Polygon","coordinates":[[[-4.4496,50.353],[-4.4543,50.3525],[-4.4573,50.3665],[-4.46,50.3592],[-4.4558,50.353],[-4.4507,50.3495],[-4.4496,50.353]]]},"properties":{"id":"GB520804806300","name":"Looe","wbtype":"Transitional","eco":"Moderate","chem":"Fail","year":2025}},
{"type":"Feature","geometry":{"type":"Polygon","coordinates":[[[-0.825,50.7525],[-0.8269,50.7454],[-0.8401,50.7522],[-0.865,50.7626],[-0.9068,50.7749],[-0.9163,50.7806],[-0.9376,50.7776],[-0.9379,50.7771],[-1.0719,50.6887],[-1.0703,50.6836],[-1.0858,50.6767],[-1.0964,50.6705],[-1.0989,50.665],[-1.1108,50.6657],[-1.1241,50.664],[-1.1367,50.6609],[-1.1529,50.6539],[-1.16,50.6496],[-1.1676,50.6422],[-1.1693,50.6333],[-1.1741,50.6253],[-1.1747,50.621],[-1.1725,50.6155],[-1.1771,50.6102],[-1.1753,50.6066],[-1.1794,50.6009],[-1.1873,50.5968],[-1.2025,50.5929],[-1.2098,50.5931],[-1.2225,50.5887],[-1.2353,50.5862],[-1.2416,50.5831],[-1.2598,50.5794],[-1.2634,50.5801],[-1.2868,50.5775],[-1.2986,50.575],[-1.3045,50.5586],[-1.2805,50.5599],[-1.2526,50.5635],[-1.2372,50.5666],[-1.2126,50.5737],[-1.1867,50.5785],[-1.17,50.5843],[-1.154,50.5905],[-1.1433,50.5939],[-1.028,50.6294],[-0.9662,50.6484],[-0.9344,50.6574],[-0.9261,50.6606],[-0.8484,50.6844],[-0.8251,50.6874],[-0.8,50.6862],[-0.7897,50.6865],[-0.7887,50.7223],[-0.8012,50.7275],[-0.8197,50.7411],[-0.813,50.7427],[-0.8186,50.745],[-0.82,50.7494],[-0.825,50.7525]]]},"properties":{"id":"GB650705530000","name":"Isle Of Wight East","wbtype":"Coastal","eco":"Good","chem":"Fail","year":2025}},
{"type":"Feature","geometry":{"type":"Polygon","coordinates":[[[-4.0714,50.3093],[-4.0649,50.3092],[-4.0609,50.3116],[-4.0534,50.3096],[-4.0508,50.3123],[-4.0532,50.3177],[-4.0461,50.3234],[-4.046,50.3262],[-4.0397,50.3318],[-4.0296,50.3355],[-4.0303,50.3393],[-4.0357,50.3408],[-4.0389,50.3382],[-4.0505,50.3248],[-4.0496,50.3228],[-4.0553,50.3186],[-4.0536,50.3125],[-4.0696,50.3124],[-4.0714,50.3093]]]},"properties":{"id":"GB520804706200","name":"Yealm","wbtype":"Transitional","eco":"Moderate","chem":"Fail","year":2025}},
{"type":"Feature","geometry":{"type":"Polygon","coordinates":[[[-2.045,50.7246],[-2.0421,50.7226],[-2.0458,50.7167],[-2.0553,50.7178],[-2.0625,50.7166],[-2.0712,50.7089],[-2.0629,50.7067],[-2.0729,50.7018],[-2.0709,50.698],[-2.0802,50.6961],[-2.0831,50.6933],[-2.0908,50.6973],[-2.0949,50.697],[-2.1001,50.6953],[-2.1025,50.6969],[-2.1028,50.6969],[-2.1029,50.6952],[-2.0997,50.6952],[-2.0908,50.6971],[-2.0829,50.693],[-2.0793,50.694],[-2.082,50.6908],[-2.0789,50.6884],[-2.081,50.6892],[-2.0791,50.6867],[-2.0658,50.6868],[-2.0592,50.6908],[-2.0554,50.6991],[-2.043,50.703],[-2.0416,50.7063],[-2.035,50.7078],[-2.0261,50.7074],[-2.0191,50.7006],[-2.0296,50.7033],[-2.0263,50.6985],[-2.0246,50.6876],[-2.0266,50.6782],[-2.0345,50.6721],[-2.0446,50.6713],[-2.0374,50.6713],[-2.028,50.6724],[-2.0285,50.6716],[-2.0272,50.6689],[-2.025,50.6696],[-2.026,50.6745],[-2.0195,50.6808],[-2.0144,50.6827],[-2.0088,50.6809],[-2.0086,50.6809],[-2.008,50.6775],[-1.9996,50.6768],[-1.9959,50.6736],[-2.0018,50.6707],[-1.994,50.6671],[-1.9891,50.6726],[-1.9849,50.6705],[-1.9808,50.6639],[-1.9707,50.6624],[-1.9687,50.669],[-1.9577,50.6725],[-1.9501,50.6802],[-1.9478,50.6827],[-1.9517,50.6852],[-1.9469,50.6885],[-1.9406,50.6888],[-1.934,50.6924],[-1.9336,50.6987],[-1.9407,50.7011],[-1.947,50.7065],[-1.9493,50.7112],[-1.9557,50.7093],[-1.9603,50.7119],[-1.9581,50.7155],[-1.9665,50.7153],[-1.9727,50.7106],[-1.9767,50.7118],[-1.9916,50.7125],[-1.9893,50.719],[-1.9925,50.724],[-1.9917,50.7313],[-1.994,50.7347],[-2.0005,50.7358],[-2.0076,50.7352],[-2.0117,50.732],[-2.0082,50.7245],[-2.0031,50.7223],[-2.0012,50.7186],[-1.9939,50.7177],[-1.9932,50.7123],[-1.9872,50.7111],[-1.9887,50.7075],[-1.9948,50.7074],[-1.9996,50.7109],[-2.0127,50.7104],[-2.0373,50.7173],[-2.0402,50.7203],[-2.035,50.7228],[-2.0351,50.7279],[-2.0419,50.7314],[-2.0503,50.7287],[-2.0507,50.7252],[-2.045,50.7246]]]},"properties":{"id":"GB520804415800","name":"Poole Harbour","wbtype":"Transitional","eco":"Moderate","chem":"Fail","year":2025}},
{"type":"Feature","geometry":{"type":"Polygon","coordinates":[[[-4.1803,50.9763],[-4.185,50.9761],[-4.1894,50.9789],[-4.1889,50.9846],[-4.1969,50.9891],[-4.1888,50.992],[-4.1825,50.9913],[-4.1769,50.9968],[-4.178,50.9993],[-4.1812,51.0007],[-4.1933,51.0013],[-4.2032,51.0055],[-4.2041,51.0096],[-4.2018,51.0168],[-4.1971,51.0242],[-4.1989,51.0268],[-4.1979,51.0336],[-4.1881,51.0384],[-4.1795,51.0501],[-4.182,51.056],[-4.1784,51.0634],[-4.1809,51.0663],[-4.1698,51.0728],[-4.1644,51.0746],[-4.1517,51.0735],[-4.1528,51.0802],[-4.1392,51.0796],[-4.1298,51.0776],[-4.118,51.0817],[-4.1182,51.0896],[-4.1107,51.0881],[-4.1041,51.083],[-4.0959,51.0821],[-4.0915,51.0816],[-4.0909,51.0815],[-4.0835,51.0781],[-4.0756,51.0767],[-4.0676,51.0793],[-4.0566,51.075],[-4.057,51.0695],[-4.0566,51.0673],[-4.0546,51.0655],[-4.0542,51.0612],[-4.0565,51.0579],[-4.0529,51.0524],[-4.0499,51.0424],[-4.0413,51.0383],[-4.0402,51.0354],[-4.041,51.0384],[-4.0495,51.0425],[-4.0522,51.0527],[-4.0494,51.0532],[-4.0558,51.058],[-4.0539,51.0605],[-4.0535,51.0651],[-4.0562,51.0678],[-4.0541,51.0721],[-4.0556,51.0754],[-4.0668,51.0812],[-4.0761,51.0799],[-4.0892,51.0862],[-4.0868,51.0878],[-4.0781,51.0879],[-4.087,51.0878],[-4.0907,51.0861],[-4.0981,51.0882],[-4.108,51.0938],[-4.1185,51.0946],[-4.1287,51.0935],[-4.13,51.0876],[-4.1342,51.0858],[-4.146,51.084],[-4.1525,51.0855],[-4.1672,51.0841],[-4.167,51.0806],[-4.1852,51.0763],[-4.1914,51.0694],[-4.2052,51.0712],[-4.2153,51.0754],[-4.2191,51.065],[-4.2086,51.0618],[-4.2142,51.0571],[-4.2064,51.0533],[-4.1975,51.0579],[-4.1907,51.0548],[-4.1909,51.0455],[-4.1957,51.0397],[-4.202,51.0353],[-4.2039,51.032],[-4.2021,51.0249],[-4.2057,51.0136],[-4.2059,51.0056],[-4.1923,50.9995],[-4.1799,50.9997],[-4.1787,50.9952],[-4.1826,50.9919],[-4.1925,50.9922],[-4.1977,50.9893],[-4.1894,50.9846],[-4.19,50.9821],[-4.1892,50.978],[-4.1855,50.9761],[-4.1803,50.9763]]]},"properties":{"id":"GB540805015500","name":"Taw / Torridge","wbtype":"Transitional","eco":"Moderate","chem":"Fail","year":2025}},
{"type":"Feature","geometry":{"type":"Polygon","coordinates":[[[-2.4702,50.5835],[-2.4771,50.5857],[-2.4841,50.5911],[-2.4904,50.592],[-2.4974,50.5956],[-2.4994,50.5989],[-2.4956,50.6029],[-2.5076,50.6069],[-2.5056,50.6099],[-2.5147,50.6143],[-2.5175,50.6178],[-2.5316,50.6174],[-2.5403,50.6221],[-2.5484,50.6247],[-2.5457,50.6304],[-2.5581,50.6309],[-2.5606,50.638],[-2.5703,50.6376],[-2.5821,50.6419],[-2.5885,50.6461],[-2.5984,50.6491],[-2.6006,50.6537],[-2.6114,50.6541],[-2.5667,50.6327],[-2.5609,50.6291],[-2.5261,50.6113],[-2.5126,50.603],[-2.4927,50.5923],[-2.4732,50.5799],[-2.47,50.5825],[-2.4702,50.5835]]]},"properties":{"id":"GB510080077000","name":"Fleet Lagoon","wbtype":"Transitional","eco":"Moderate","chem":"Fail","year":2025}},
{"type":"Feature","geometry":{"type":"Polygon","coordinates":[[[-3.9472,50.3018],[-3.9464,50.307],[-3.9536,50.3095],[-3.9603,50.3047],[-3.9472,50.3018]]]},"properties":{"id":"GB510804606100","name":"Erme","wbtype":"Transitional","eco":"Moderate","chem":"Fail","year":2025}},
{"type":"Feature","geometry":{"type":"Polygon","coordinates":[[[-2.4439,50.6098],[-2.4458,50.6086],[-2.4527,50.6072],[-2.4562,50.6075],[-2.4574,50.6085],[-2.4567,50.6119],[-2.4583,50.6118],[-2.4596,50.6077],[-2.4521,50.6065],[-2.4501,50.6073],[-2.4438,50.6081],[-2.4415,50.6096],[-2.4439,50.6098]]]},"properties":{"id":"GB510804415700","name":"Wey","wbtype":"Transitional","eco":"Moderate","chem":"Fail","year":2025}},
{"type":"Feature","geometry":{"type":"Polygon","coordinates":[[[-5.5544,50.0599],[-5.5628,50.0626],[-5.5637,50.0583],[-5.5762,50.0522],[-5.5829,50.0529],[-5.591,50.0509],[-5.591,50.051],[-5.6007,50.052],[-5.6077,50.0483],[-5.6153,50.0496],[-5.6251,50.0495],[-5.6285,50.0441],[-5.6371,50.0416],[-5.6425,50.0444],[-5.6485,50.0437],[-5.6528,50.0383],[-5.657,50.0392],[-5.6715,50.037],[-5.673,50.0347],[-5.6846,50.0378],[-5.6903,50.0442],[-5.6884,50.0486],[-5.6934,50.05],[-5.6986,50.0553],[-5.7057,50.055],[-5.7096,50.0606],[-5.7138,50.0626],[-5.7407,50.0466],[-5.7246,50.0404],[-5.7168,50.0344],[-5.6959,50.0138],[-5.6874,50.0087],[-5.6775,50.0066],[-5.669,50.0068],[-5.6574,50.0105],[-5.648,50.0161],[-5.6375,50.021],[-5.614,50.0291],[-5.5978,50.0325],[-5.5839,50.0343],[-5.5712,50.035],[-5.5632,50.037],[-5.5476,50.0438],[-5.5387,50.0469],[-5.5302,50.052],[-5.5211,50.062],[-5.5127,50.0667],[-5.5,50.0721],[-5.475,50.0767],[-5.4468,50.0785],[-5.429,50.0769],[-5.4042,50.0735],[-5.3901,50.0695],[-5.3822,50.0684],[-5.3597,50.0686],[-5.3438,50.0658],[-5.3288,50.0598],[-5.3175,50.0518],[-5.3104,50.0429],[-5.3005,50.0267],[-5.2963,50.0146],[-5.2965,50.0034],[-5.293,49.9943],[-5.2809,49.9825],[-5.2735,49.9706],[-5.2676,49.9641],[-5.2534,49.9564],[-5.2381,49.9449],[-5.2184,49.9375],[-5.2101,49.9361],[-5.1988,49.9367],[-5.1883,49.9399],[-5.1748,49.9477],[-5.1995,49.9609],[-5.2065,49.9588],[-5.2156,49.9603],[-5.216,49.9669],[-5.2206,49.9719],[-5.2256,49.9724],[-5.2362,49.9764],[-5.2421,49.9748],[-5.2468,49.977],[-5.2477,49.9813],[-5.2449,49.985],[-5.2551,49.9884],[-5.2514,49.9913],[-5.2568,49.997],[-5.2605,49.9967],[-5.2668,50.0005],[-5.2682,50.0059],[-5.2639,50.008],[-5.2578,50.0144],[-5.2586,50.0193],[-5.2566,50.0238],[-5.2659,50.0291],[-5.2668,50.0383],[-5.2811,50.0443],[-5.2756,50.0487],[-5.2784,50.0549],[-5.2903,50.066],[-5.3091,50.0787],[-5.3271,50.0855],[-5.3323,50.0905],[-5.3462,50.0925],[-5.3532,50.0904],[-5.3631,50.089],[-5.3664,50.0937],[-5.3716,50.0932],[-5.3749,50.0976],[-5.3849,50.1018],[-5.3918,50.1035],[-5.3977,50.1008],[-5.409,50.1045],[-5.4131,50.1039],[-5.4198,50.0989],[-5.4269,50.1009],[-5.4295,50.1055],[-5.4444,50.1128],[-5.4486,50.1109],[-5.518,50.0758],[-5.5339,50.068],[-5.5544,50.0599]]]},"properties":{"id":"GB620806570000","name":"Cornwall South","wbtype":"Coastal","eco":"Good","chem":"Fail","year":2025}},
{"type":"Feature","geometry":{"type":"Polygon","coordinates":[[[-5.0702,50.3993],[-5.0728,50.4029],[-5.073,50.4037],[-5.0749,50.4041],[-5.0744,50.4048],[-5.0748,50.405],[-5.0774,50.4052],[-5.0792,50.406],[-5.082,50.4045],[-5.0935,50.4078],[-5.1098,50.4097],[-5.119,50.4092],[-5.1256,50.4121],[-5.135,50.4088],[-5.1309,50.4054],[-5.123,50.4048],[-5.1163,50.4079],[-5.1091,50.4088],[-5.0947,50.4062],[-5.0874,50.4036],[-5.082,50.4039],[-5.079,50.4058],[-5.0774,50.4051],[-5.0747,50.4049],[-5.075,50.404],[-5.0731,50.4036],[-5.0729,50.4028],[-5.0702,50.3993]]]},"properties":{"id":"GB540804906500","name":"Gannel","wbtype":"Transitional","eco":"Moderate","chem":"Fail","year":2025}},
{"type":"Feature","geometry":{"type":"Polygon","coordinates":[[[-0.7528,50.7581],[-0.7503,50.7639],[-0.7548,50.7657],[-0.7571,50.7697],[-0.7626,50.773],[-0.7703,50.769],[-0.7784,50.7669],[-0.7791,50.762],[-0.7691,50.7602],[-0.7617,50.7512],[-0.7535,50.7573],[-0.7528,50.7581]]]},"properties":{"id":"GB570704700000","name":"Pagham Harbour","wbtype":"Transitional","eco":"Moderate","chem":"Fail","year":2025}},
{"type":"Feature","geometry":{"type":"Polygon","coordinates":[[[-4.6397,50.3283],[-4.6299,50.3324],[-4.6313,50.3415],[-4.6292,50.3459],[-4.636,50.3473],[-4.6345,50.3499],[-4.6364,50.3559],[-4.6338,50.3672],[-4.6379,50.3731],[-4.6465,50.3799],[-4.6538,50.3787],[-4.6396,50.3713],[-4.6409,50.363],[-4.6388,50.3604],[-4.6395,50.3547],[-4.6379,50.3476],[-4.6312,50.3441],[-4.6342,50.3351],[-4.6412,50.3318],[-4.6441,50.3282],[-4.6397,50.3283]]]},"properties":{"id":"GB510804806400","name":"Fowey","wbtype":"Transitional","eco":"Moderate","chem":"Fail","year":2025}},
{"type":"Feature","geometry":{"type":"Polygon","coordinates":[[[-0.9376,50.7776],[-0.9163,50.7806],[-0.9146,50.7891],[-0.9107,50.7886],[-0.9156,50.7804],[-0.9046,50.7824],[-0.9011,50.7897],[-0.8945,50.7902],[-0.8906,50.7999],[-0.8781,50.8076],[-0.8692,50.8083],[-0.8604,50.8029],[-0.8544,50.8027],[-0.8448,50.7995],[-0.8364,50.804],[-0.8253,50.8045],[-0.8246,50.8101],[-0.8145,50.8141],[-0.8157,50.8195],[-0.8109,50.8243],[-0.8093,50.8309],[-0.817,50.8295],[-0.8168,50.8256],[-0.8209,50.8204],[-0.8198,50.8169],[-0.8228,50.8143],[-0.8299,50.8125],[-0.8427,50.8048],[-0.8562,50.8071],[-0.8557,50.8102],[-0.8681,50.813],[-0.8698,50.8178],[-0.8629,50.8236],[-0.8607,50.8282],[-0.8607,50.8354],[-0.8667,50.8386],[-0.8706,50.8361],[-0.8702,50.8348],[-0.8702,50.8347],[-0.8658,50.8269],[-0.8748,50.8171],[-0.8777,50.8116],[-0.8852,50.8138],[-0.8922,50.8184],[-0.8918,50.8233],[-0.8954,50.8277],[-0.8927,50.8329],[-0.8936,50.8377],[-0.9087,50.8378],[-0.9133,50.84],[-0.9165,50.8362],[-0.9104,50.8239],[-0.9078,50.817],[-0.9094,50.8087],[-0.9141,50.804],[-0.9208,50.8061],[-0.9285,50.8122],[-0.9336,50.8142],[-0.9415,50.8213],[-0.9414,50.8274],[-0.9315,50.8407],[-0.9309,50.8438],[-0.9372,50.8446],[-0.9409,50.8423],[-0.9509,50.843],[-0.9588,50.8394],[-0.9713,50.8423],[-0.98,50.839],[-0.9791,50.8355],[-0.9778,50.833],[-0.967,50.8344],[-0.9522,50.8279],[-0.951,50.8239],[-0.9571,50.8163],[-0.9567,50.8114],[-0.9653,50.8065],[-0.9574,50.8044],[-0.9528,50.8011],[-0.957,50.7992],[-0.9566,50.7952],[-0.9598,50.7908],[-0.9515,50.787],[-0.9512,50.7843],[-0.9411,50.7851],[-0.9369,50.7828],[-0.9376,50.7776]]]},"properties":{"id":"GB580705210000","name":"Chichester Harbour","wbtype":"Transitional","eco":"Moderate","chem":"Fail","year":2025}},
{"type":"Feature","geometry":{"type":"Polygon","coordinates":[[[-5.3952,50.2381],[-5.3943,50.241],[-5.3845,50.2409],[-5.3798,50.2439],[-5.3725,50.2369],[-5.3686,50.2362],[-5.3558,50.2405],[-5.3453,50.2379],[-5.3349,50.2404],[-5.3247,50.2444],[-5.3201,50.249],[-5.3152,50.2495],[-5.3108,50.257],[-5.3005,50.2629],[-5.292,50.2618],[-5.2908,50.2646],[-5.2851,50.2651],[-5.283,50.2697],[-5.2781,50.2739],[-5.2629,50.2752],[-5.2561,50.2818],[-5.2509,50.2818],[-5.2419,50.2883],[-5.2433,50.2902],[-5.2339,50.3048],[-5.2336,50.3117],[-5.2356,50.3183],[-5.2182,50.3213],[-5.2005,50.3206],[-5.1918,50.3259],[-5.1896,50.332],[-5.1803,50.3347],[-5.1814,50.3404],[-5.1715,50.3409],[-5.1622,50.3465],[-5.1557,50.3477],[-5.1513,50.3595],[-5.1467,50.3753],[-5.1554,50.379],[-5.1511,50.3819],[-5.1547,50.3891],[-5.1469,50.3902],[-5.1429,50.3955],[-5.1488,50.4006],[-5.1474,50.405],[-5.1383,50.4039],[-5.135,50.4088],[-5.1256,50.4121],[-5.1174,50.4119],[-5.1104,50.4137],[-5.1014,50.4137],[-5.0966,50.4223],[-5.0882,50.4208],[-5.0851,50.415],[-5.077,50.4157],[-5.0658,50.4243],[-5.0552,50.428],[-5.0556,50.4296],[-5.0484,50.4366],[-5.0424,50.4443],[-5.0395,50.4521],[-5.0419,50.4562],[-5.0424,50.4641],[-5.0352,50.4667],[-5.0327,50.4693],[-5.0396,50.4741],[-5.0341,50.4822],[-5.0333,50.4892],[-5.0389,50.4961],[-5.0453,50.4965],[-5.0405,50.5024],[-5.0332,50.5087],[-5.0285,50.5096],[-5.0272,50.5161],[-5.0292,50.5247],[-5.0242,50.5272],[-5.0228,50.5323],[-5.0264,50.5416],[-5.0332,50.5428],[-5.0369,50.5464],[-5.0348,50.55],[-5.0585,50.5639],[-5.0728,50.5616],[-5.0807,50.5587],[-5.0869,50.5539],[-5.0903,50.5457],[-5.0873,50.5376],[-5.0838,50.5342],[-5.0789,50.5259],[-5.0757,50.5164],[-5.0765,50.5042],[-5.0784,50.4995],[-5.078,50.4926],[-5.0755,50.4879],[-5.0737,50.4752],[-5.0778,50.4644],[-5.0864,50.4543],[-5.0984,50.4471],[-5.1184,50.44],[-5.138,50.4304],[-5.1641,50.4211],[-5.1716,50.4166],[-5.1857,50.4017],[-5.1887,50.3969],[-5.1889,50.3864],[-5.195,50.3725],[-5.205,50.3635],[-5.218,50.3564],[-5.2349,50.3516],[-5.242,50.3506],[-5.2527,50.3463],[-5.2594,50.3382],[-5.2645,50.3168],[-5.2674,50.309],[-5.2781,50.2973],[-5.29,50.2901],[-5.3056,50.2836],[-5.3149,50.2808],[-5.3327,50.2714],[-5.346,50.2662],[-5.3609,50.2634],[-5.3749,50.2624],[-5.392,50.265],[-5.4082,50.2701],[-5.4219,50.2714],[-5.4318,50.2693],[-5.4403,50.2661],[-5.4489,50.2609],[-5.4603,50.25],[-5.4779,50.2418],[-5.4958,50.2379],[-5.5261,50.2344],[-5.5452,50.2337],[-5.5631,50.2302],[-5.5717,50.2268],[-5.5874,50.2176],[-5.5964,50.2144],[-5.6177,50.2092],[-5.6348,50.1987],[-5.6472,50.1933],[-5.6662,50.1893],[-5.6774,50.1886],[-5.6864,50.1867],[-5.6942,50.1824],[-5.6999,50.1774],[-5.7222,50.1534],[-5.7384,50.1403],[-5.7476,50.1291],[-5.75,50.1233],[-5.7492,50.1064],[-5.7516,50.0971],[-5.7577,50.0873],[-5.7672,50.0799],[-5.7725,50.0739],[-5.7743,50.0691],[-5.7727,50.0614],[-5.768,50.0565],[-5.7563,50.0503],[-5.7407,50.0466],[-5.7138,50.0626],[-5.7159,50.0653],[-5.7095,50.0713],[-5.7089,50.0777],[-5.6987,50.0783],[-5.6948,50.0805],[-5.6891,50.0882],[-5.6893,50.0924],[-5.697,50.0981],[-5.6971,50.105],[-5.7007,50.1126],[-5.7005,50.1194],[-5.7054,50.1224],[-5.7057,50.1259],[-5.7021,50.1306],[-5.7048,50.1344],[-5.6958,50.1367],[-5.6925,50.1415],[-5.6944,50.1456],[-5.6918,50.1503],[-5.6806,50.1564],[-5.6795,50.1591],[-5.6713,50.1627],[-5.6713,50.1667],[-5.6586,50.1637],[-5.6512,50.1682],[-5.6398,50.1674],[-5.6294,50.1677],[-5.6256,50.1693],[-5.6214,50.1767],[-5.6035,50.1886],[-5.5975,50.1901],[-5.5916,50.189],[-5.585,50.1955],[-5.5814,50.1942],[-5.5756,50.2009],[-5.5716,50.1983],[-5.5654,50.1997],[-5.5555,50.2083],[-5.5487,50.2119],[-5.5434,50.2117],[-5.5386,50.2162],[-5.5305,50.2135],[-5.5101,50.2161],[-5.4985,50.2198],[-5.4932,50.2168],[-5.4856,50.2148],[-5.4798,50.2164],[-5.4775,50.2095],[-5.4695,50.2063],[-5.4692,50.1998],[-5.4611,50.1976],[-5.4557,50.1982],[-5.4282,50.1991],[-5.4165,50.205],[-5.4056,50.2126],[-5.397,50.2216],[-5.3914,50.2295],[-5.3914,50.2334],[-5.3952,50.2381]]]},"properties":{"id":"GB610807680001","name":"Lands End To Trevose Head","wbtype":"Coastal","eco":"Good","chem":"Fail","year":2025}},
{"type":"Feature","geometry":{"type":"Polygon","coordinates":[[[-0.4983,50.9527],[-0.5019,50.9519],[-0.5031,50.9501],[-0.5028,50.9466],[-0.5059,50.9437],[-0.5138,50.942],[-0.5134,50.9356],[-0.5227,50.9355],[-0.5256,50.9384],[-0.534,50.9366],[-0.5347,50.9332],[-0.5475,50.9294],[-0.5484,50.9252],[-0.5454,50.9202],[-0.5384,50.9174],[-0.5406,50.9143],[-0.5432,50.9136],[-0.5485,50.9143],[-0.5512,50.9136],[-0.556,50.9054],[-0.5554,50.9033],[-0.5498,50.8987],[-0.5436,50.8975],[-0.5493,50.8928],[-0.5592,50.89],[-0.5612,50.8878],[-0.5555,50.8818],[-0.5487,50.88],[-0.5422,50.8817],[-0.5413,50.8749],[-0.5402,50.874],[-0.5369,50.8733],[-0.537,50.867],[-0.5449,50.8663],[-0.547,50.8603],[-0.5453,50.8594],[-0.5399,50.8584],[-0.5393,50.8573],[-0.5411,50.8539],[-0.546,50.8516],[-0.5521,50.8539],[-0.5611,50.8514],[-0.5657,50.8439],[-0.5638,50.8384],[-0.5708,50.8357],[-0.5712,50.8334],[-0.567,50.8303],[-0.5734,50.8287],[-0.576,50.8271],[-0.5764,50.8256],[-0.5733,50.8233],[-0.5743,50.8195],[-0.5725,50.8164],[-0.5689,50.8164],[-0.5647,50.8189],[-0.5616,50.8176],[-0.5608,50.8126],[-0.5501,50.8097],[-0.5446,50.8055],[-0.5421,50.8007],[-0.5418,50.8015],[-0.5446,50.8078],[-0.5527,50.8116],[-0.5597,50.8125],[-0.5602,50.8169],[-0.5622,50.819],[-0.5659,50.8193],[-0.5716,50.8167],[-0.5736,50.8208],[-0.5728,50.8239],[-0.5753,50.827],[-0.5715,50.8287],[-0.5668,50.8289],[-0.5664,50.8303],[-0.5676,50.8319],[-0.5705,50.8332],[-0.57,50.8358],[-0.5632,50.8378],[-0.5652,50.8439],[-0.5604,50.8513],[-0.5515,50.8536],[-0.5467,50.8511],[-0.5409,50.8533],[-0.5387,50.8572],[-0.539,50.8582],[-0.5409,50.8592],[-0.5463,50.8604],[-0.5431,50.8663],[-0.5322,50.8641],[-0.5255,50.8668],[-0.5258,50.869],[-0.5313,50.8733],[-0.5403,50.8744],[-0.5414,50.878],[-0.5391,50.88],[-0.5425,50.8819],[-0.5488,50.8803],[-0.5555,50.8821],[-0.5608,50.8878],[-0.5591,50.8897],[-0.5491,50.8926],[-0.5435,50.8965],[-0.5435,50.8982],[-0.5457,50.8995],[-0.55,50.899],[-0.5556,50.9043],[-0.5514,50.913],[-0.5435,50.9134],[-0.5402,50.9142],[-0.5366,50.9167],[-0.5447,50.9203],[-0.5474,50.9239],[-0.5472,50.9292],[-0.5345,50.933],[-0.5332,50.9364],[-0.526,50.9381],[-0.5234,50.9354],[-0.5135,50.9352],[-0.5112,50.9364],[-0.5135,50.9419],[-0.5062,50.9432],[-0.5027,50.9457],[-0.5027,50.9501],[-0.4983,50.9527]]]},"properties":{"id":"GB540704105000","name":"Arun","wbtype":"Transitional","eco":"Moderate","chem":"Fail","year":2025}},
{"type":"Feature","geometry":{"type":"Polygon","coordinates":[[[-1.2157,50.7357],[-1.2198,50.7345],[-1.2204,50.7319],[-1.2179,50.7312],[-1.216,50.734],[-1.2157,50.7357]]]},"properties":{"id":"GB520710101900","name":"Wootton Creek","wbtype":"Transitional","eco":"Moderate","chem":"Fail","year":2025}},
{"type":"Feature","geometry":{"type":"Polygon","coordinates":[[[-1.0072,50.7936],[-1,50.795],[-0.9909,50.8019],[-0.989,50.811],[-0.9859,50.8137],[-0.9836,50.8218],[-0.9878,50.8241],[-0.9885,50.8241],[-0.9895,50.8244],[-0.9897,50.8245],[-0.9903,50.8265],[-0.9901,50.8268],[-0.9862,50.8291],[-0.9849,50.8294],[-0.9839,50.8299],[-0.9828,50.8302],[-0.9778,50.833],[-0.9791,50.8355],[-0.9825,50.8376],[-0.9898,50.8377],[-1.0041,50.8428],[-1.0132,50.8444],[-1.02,50.8431],[-1.0264,50.8266],[-1.0348,50.8294],[-1.0363,50.8354],[-1.0433,50.8338],[-1.0525,50.8335],[-1.0612,50.8359],[-1.0728,50.8369],[-1.0729,50.8367],[-1.0579,50.8348],[-1.0449,50.8309],[-1.0446,50.8263],[-1.0413,50.8244],[-1.0429,50.8199],[-1.0406,50.8102],[-1.0418,50.8041],[-1.0384,50.7963],[-1.0419,50.7896],[-1.0292,50.7931],[-1.0305,50.7874],[-1.023,50.7881],[-1.0248,50.792],[-1.0156,50.7944],[-1.0072,50.7936]]]},"properties":{"id":"GB580705130000","name":"Langstone Harbour","wbtype":"Transitional","eco":"Moderate","chem":"Fail","year":2025}},
{"type":"Feature","geometry":{"type":"Polygon","coordinates":[[[-4.1188,50.3195],[-4.1221,50.3255],[-4.1193,50.3319],[-4.1227,50.3367],[-4.1267,50.3361],[-4.1285,50.3429],[-4.1215,50.3487],[-4.1246,50.3555],[-4.1319,50.3593],[-4.1672,50.35],[-4.1675,50.3456],[-4.1713,50.3433],[-4.1881,50.3408],[-4.2,50.3342],[-4.201,50.3296],[-4.1897,50.3236],[-4.1885,50.3178],[-4.1188,50.3195]]]},"properties":{"id":"GB650806230000","name":"Plymouth Sound","wbtype":"Coastal","eco":"Moderate","chem":"Fail","year":2025}},
{"type":"Feature","geometry":{"type":"Polygon","coordinates":[[[-4.5254,51.0223],[-4.5165,51.0223],[-4.501,51.0187],[-4.4941,51.0207],[-4.4814,51.0217],[-4.4642,51.0206],[-4.4488,51.0145],[-4.443,51.0148],[-4.4338,51.0127],[-4.4254,51.0136],[-4.4179,51.011],[-4.4041,51.0044],[-4.3955,50.9967],[-4.3745,50.9901],[-4.3554,50.9901],[-4.343,50.989],[-4.3315,50.9915],[-4.3186,50.9927],[-4.3088,50.995],[-4.3026,50.998],[-4.2906,51.0068],[-4.2843,51.014],[-4.2787,51.0165],[-4.2632,51.0338],[-4.2544,51.0392],[-4.2405,51.0409],[-4.2356,51.0443],[-4.2258,51.062],[-4.2191,51.065],[-4.2153,51.0754],[-4.2217,51.0846],[-4.2232,51.0999],[-4.2232,51.1],[-4.2719,51.1],[-4.2727,51.0963],[-4.277,51.0867],[-4.278,51.0807],[-4.2764,51.0718],[-4.2798,51.0579],[-4.289,51.0461],[-4.3042,51.0356],[-4.3089,51.031],[-4.321,51.0229],[-4.3341,51.0172],[-4.3554,51.0125],[-4.3746,51.0151],[-4.3881,51.019],[-4.4046,51.027],[-4.4223,51.0316],[-4.4432,51.0342],[-4.4601,51.0383],[-4.471,51.0395],[-4.4993,51.0394],[-4.527,51.0414],[-4.5409,51.0399],[-4.549,51.0362],[-4.5256,51.0225],[-4.5255,51.0224],[-4.5254,51.0223]]]},"properties":{"id":"GB610807680003","name":"Barnstaple Bay","wbtype":"Coastal","eco":"Moderate","chem":"Fail","year":2025}},
{"type":"Feature","geometry":{"type":"Polygon","coordinates":[[[-4.8809,50.1898],[-4.883,50.224],[-4.8927,50.2171],[-4.8954,50.2132],[-4.9035,50.2117],[-4.9048,50.2051],[-4.9105,50.2053],[-4.9103,50.2015],[-4.9161,50.1972],[-4.9215,50.1956],[-4.9235,50.2019],[-4.9339,50.2071],[-4.9484,50.2057],[-4.9576,50.2021],[-4.9623,50.1961],[-4.9687,50.192],[-4.968,50.1864],[-4.9735,50.1856],[-4.9747,50.1799],[-4.971,50.178],[-4.9739,50.1729],[-4.9726,50.1646],[-4.9839,50.1577],[-4.9853,50.1505],[-4.996,50.1486],[-5.0088,50.1395],[-5.0162,50.1412],[-5.0733,50.1341],[-5.0794,50.1328],[-5.0821,50.129],[-5.0937,50.126],[-5.089,50.1204],[-5.0913,50.1145],[-5.0817,50.1095],[-5.0766,50.0856],[-5.075,50.0816],[-5.0791,50.0767],[-5.0792,50.0684],[-5.0695,50.0678],[-5.0663,50.0636],[-5.0619,50.0617],[-5.0657,50.0439],[-5.0696,50.0398],[-5.0704,50.0346],[-5.0893,50.0313],[-5.0968,50.0263],[-5.0941,50.0172],[-5.0971,50.014],[-5.0981,50.0085],[-5.1019,50.0042],[-5.1103,50.0026],[-5.1227,50.0087],[-5.1354,50.0074],[-5.1563,50.0077],[-5.1665,50.0038],[-5.1719,49.9974],[-5.1704,49.991],[-5.1841,49.9808],[-5.1884,49.9741],[-5.1871,49.9694],[-5.1838,49.9677],[-5.1859,49.963],[-5.191,49.9619],[-5.1969,49.9639],[-5.1995,49.9609],[-5.1748,49.9477],[-5.1646,49.9536],[-5.155,49.9662],[-5.145,49.9743],[-5.132,49.9807],[-5.1134,49.9855],[-5.097,49.9872],[-5.0892,49.9892],[-5.0817,49.9935],[-5.0682,50.0042],[-5.0519,50.0203],[-5.0448,50.0254],[-5.0294,50.0333],[-5.022,50.0399],[-5.02,50.0448],[-5.0216,50.0611],[-5.0184,50.0733],[-4.9962,50.1165],[-4.9843,50.1285],[-4.9675,50.1381],[-4.9595,50.1444],[-4.9497,50.1564],[-4.9389,50.1637],[-4.9264,50.1693],[-4.9092,50.1737],[-4.9003,50.175],[-4.8913,50.1788],[-4.8809,50.1898]]]},"properties":{"id":"GB650806330000","name":"Fal / Helford","wbtype":"Coastal","eco":"Good","chem":"Fail","year":2025}},
{"type":"Feature","geometry":{"type":"Polygon","coordinates":[[[-1.3667,50.7852],[-1.3819,50.785],[-1.3926,50.7857],[-1.3982,50.7842],[-1.4086,50.7867],[-1.4063,50.7892],[-1.4096,50.7962],[-1.4096,50.8006],[-1.4159,50.8032],[-1.4199,50.8018],[-1.4195,50.8072],[-1.4269,50.808],[-1.4209,50.7994],[-1.4135,50.7991],[-1.4097,50.7904],[-1.4139,50.7872],[-1.4128,50.784],[-1.4067,50.7817],[-1.3976,50.7763],[-1.3936,50.7752],[-1.388,50.7775],[-1.3854,50.7787],[-1.3814,50.7796],[-1.3811,50.7797],[-1.381,50.7797],[-1.379,50.7804],[-1.3778,50.7808],[-1.3667,50.7852]]]},"properties":{"id":"GB520704201400","name":"Beaulieu River","wbtype":"Transitional","eco":"Moderate","chem":"Fail","year":2025}},
{"type":"Feature","geometry":{"type":"MultiPolygon","coordinates":[[[[-4.0807,50.3912],[-4.0839,50.3881],[-4.0998,50.3837],[-4.1062,50.3781],[-4.1106,50.3708],[-4.1132,50.3631],[-4.1206,50.3614],[-4.1322,50.3673],[-4.1372,50.3628],[-4.1458,50.3642],[-4.1492,50.3623],[-4.1544,50.3675],[-4.1568,50.3613],[-4.1621,50.3611],[-4.1635,50.3668],[-4.1795,50.3649],[-4.1852,50.3672],[-4.1844,50.3793],[-4.1918,50.3909],[-4.2049,50.3992],[-4.1977,50.4119],[-4.1928,50.4241],[-4.1844,50.4258],[-4.1844,50.4295],[-4.1733,50.4358],[-4.162,50.4504],[-4.1568,50.4536],[-4.1639,50.4561],[-4.1696,50.4519],[-4.176,50.4413],[-4.1851,50.4343],[-4.1908,50.4353],[-4.1915,50.441],[-4.1983,50.4448],[-4.1999,50.45],[-4.1966,50.4506],[-4.1964,50.4506],[-4.1947,50.451],[-4.1953,50.4543],[-4.1984,50.4534],[-4.2019,50.4552],[-4.2131,50.4664],[-4.2196,50.4689],[-4.2273,50.4641],[-4.2273,50.4584],[-4.2328,50.4571],[-4.2367,50.4595],[-4.2355,50.4665],[-4.222,50.4727],[-4.2169,50.4772],[-4.2179,50.4845],[-4.2232,50.4893],[-4.2268,50.4901],[-4.2188,50.4835],[-4.22,50.475],[-4.2358,50.4685],[-4.2395,50.4652],[-4.2474,50.4666],[-4.241,50.4648],[-4.2379,50.4578],[-4.2284,50.4553],[-4.2209,50.4637],[-4.217,50.4638],[-4.2116,50.4558],[-4.2099,50.4458],[-4.2044,50.4432],[-4.2058,50.4406],[-4.1994,50.4357],[-4.2039,50.43],[-4.2142,50.4297],[-4.223,50.4269],[-4.2256,50.4289],[-4.2264,50.4355],[-4.2366,50.4388],[-4.228,50.435],[-4.2276,50.4278],[-4.2249,50.4243],[-4.2143,50.4268],[-4.2099,50.4252],[-4.2116,50.4139],[-4.2055,50.4078],[-4.2095,50.4051],[-4.2119,50.3993],[-4.2252,50.3965],[-4.2299,50.3938],[-4.2333,50.4007],[-4.2357,50.4015],[-4.2351,50.3961],[-4.2419,50.3917],[-4.2485,50.3851],[-4.2549,50.3833],[-4.2672,50.3872],[-4.2708,50.3861],[-4.2717,50.3777],[-4.2763,50.3771],[-4.2842,50.3841],[-4.2832,50.3885],[-4.2898,50.3905],[-4.2899,50.3924],[-4.2771,50.3979],[-4.2806,50.399],[-4.2916,50.394],[-4.2936,50.3891],[-4.3005,50.3911],[-4.3003,50.3995],[-4.3058,50.4016],[-4.3025,50.4043],[-4.3078,50.4106],[-4.3029,50.4046],[-4.3067,50.4022],[-4.3068,50.3994],[-4.3016,50.3968],[-4.3036,50.3923],[-4.3009,50.3886],[-4.2957,50.3874],[-4.287,50.3828],[-4.2756,50.3739],[-4.2687,50.3735],[-4.26,50.3767],[-4.2514,50.3758],[-4.2399,50.38],[-4.2351,50.3848],[-4.2354,50.3874],[-4.2304,50.3904],[-4.2262,50.3894],[-4.2131,50.3927],[-4.2059,50.3891],[-4.2093,50.3856],[-4.1997,50.3835],[-4.2022,50.379],[-4.193,50.3758],[-4.195,50.3718],[-4.1994,50.3703],[-4.2204,50.3688],[-4.2348,50.3638],[-4.2179,50.3624],[-4.2156,50.3574],[-4.2062,50.3617],[-4.1967,50.3592],[-4.1964,50.354],[-4.2013,50.3526],[-4.2001,50.3489],[-4.1925,50.3506],[-4.1934,50.3537],[-4.1838,50.3568],[-4.1805,50.3602],[-4.1745,50.3605],[-4.173,50.3556],[-4.1672,50.35],[-4.1319,50.3593],[-4.124,50.358],[-4.1124,50.3593],[-4.1039,50.3707],[-4.099,50.3799],[-4.0885,50.3833],[-4.0832,50.3867],[-4.0807,50.3912]]],[[[-4.2286,50.4906],[-4.2309,50.491],[-4.2312,50.491],[-4.2311,50.491],[-4.2286,50.4906]]]]},"properties":{"id":"GB520804714300","name":"Plymouth Tamar","wbtype":"Transitional","eco":"Moderate","chem":"Fail","year":2025}},
{"type":"Feature","geometry":{"type":"Polygon","coordinates":[[[0.0581,50.7825],[0.0528,50.7945],[0.0486,50.8005],[0.048,50.8042],[0.0425,50.8099],[0.0341,50.8105],[0.031,50.8144],[0.0267,50.8161],[0.0285,50.8217],[0.0262,50.8311],[0.0305,50.836],[0.034,50.8451],[0.0385,50.8461],[0.0376,50.8486],[0.0349,50.8504],[0.0307,50.8561],[0.0273,50.8576],[0.0237,50.8611],[0.0217,50.862],[0.0208,50.8646],[0.0241,50.8664],[0.0226,50.8719],[0.0162,50.8758],[0.0158,50.8763],[0.0139,50.8771],[0.0103,50.8791],[0.0061,50.8799],[-0.0024,50.887],[0,50.8891],[0.0091,50.8883],[0.016,50.8894],[0.0101,50.8954],[0.0093,50.8952],[0.0062,50.8933],[-0.0006,50.8892],[-0.0028,50.8874],[0.0059,50.8798],[0.0101,50.879],[0.0131,50.8772],[0.0155,50.8762],[0.0161,50.8737],[0.0168,50.8731],[0.0226,50.8715],[0.0236,50.8664],[0.0211,50.8652],[0.0201,50.8637],[0.0213,50.8619],[0.0234,50.8609],[0.0271,50.8573],[0.0302,50.856],[0.0335,50.8515],[0.0373,50.8483],[0.0336,50.8454],[0.0302,50.8366],[0.0257,50.831],[0.0279,50.8219],[0.0263,50.8171],[0.0273,50.8146],[0.0304,50.8138],[0.0341,50.8097],[0.0423,50.8094],[0.0469,50.8036],[0.0464,50.7969],[0.0523,50.7933],[0.0525,50.7861],[0.0572,50.7818],[0.0529,50.7799],[0.0587,50.7767],[0.0581,50.7825]],[[0.0008,50.8891],[0.0005,50.8897],[0.0041,50.8917],[0.0086,50.8947],[0.01,50.8949],[0.0106,50.8933],[0.0156,50.8895],[0.0091,50.8885],[0.0008,50.8891]]]},"properties":{"id":"GB540704104900","name":"Ouse","wbtype":"Transitional","eco":"Moderate","chem":"Fail","year":2025}},
{"type":"Feature","geometry":{"type":"Polygon","coordinates":[[[-5.0817,50.1095],[-5.0853,50.1094],[-5.0914,50.103],[-5.1015,50.0997],[-5.1047,50.1023],[-5.1113,50.104],[-5.1202,50.1021],[-5.1247,50.0991],[-5.139,50.101],[-5.1473,50.0978],[-5.1672,50.0969],[-5.1659,50.0934],[-5.1605,50.0913],[-5.1476,50.0953],[-5.141,50.0965],[-5.1326,50.0929],[-5.1255,50.0962],[-5.119,50.0962],[-5.1103,50.0943],[-5.1051,50.0945],[-5.0949,50.088],[-5.0822,50.0832],[-5.0766,50.0856],[-5.0817,50.1095]]]},"properties":{"id":"GB520804809100","name":"Helford","wbtype":"Transitional","eco":"Moderate","chem":"Fail","year":2025}},
{"type":"Feature","geometry":{"type":"Polygon","coordinates":[[[-3.5003,50.6952],[-3.491,50.6932],[-3.4769,50.684],[-3.4687,50.6817],[-3.4673,50.6633],[-3.4653,50.6602],[-3.4576,50.657],[-3.4514,50.6465],[-3.4526,50.6425],[-3.4465,50.626],[-3.4473,50.6189],[-3.4454,50.6133],[-3.4438,50.6017],[-3.4356,50.6066],[-3.4323,50.6033],[-3.443,50.5956],[-3.4437,50.5927],[-3.3856,50.607],[-3.388,50.6091],[-3.4087,50.6115],[-3.4143,50.615],[-3.423,50.6166],[-3.4243,50.6195],[-3.4157,50.6239],[-3.4155,50.6292],[-3.4217,50.635],[-3.4257,50.6412],[-3.4325,50.6458],[-3.432,50.648],[-3.4362,50.6562],[-3.44,50.6605],[-3.4454,50.6698],[-3.4496,50.673],[-3.4634,50.678],[-3.4664,50.6826],[-3.4792,50.6904],[-3.486,50.6905],[-3.4908,50.6939],[-3.5003,50.6952]]]},"properties":{"id":"GB510804505600","name":"Exe","wbtype":"Transitional","eco":"Moderate","chem":"Fail","year":2025}},
{"type":"Feature","geometry":{"type":"Polygon","coordinates":[[[-1.1053,50.6953],[-1.1081,50.6935],[-1.097,50.6907],[-1.0926,50.6943],[-1.0878,50.6951],[-1.0979,50.7059],[-1.0993,50.7012],[-1.097,50.695],[-1.1039,50.6963],[-1.1053,50.6953]]]},"properties":{"id":"GB520710102000","name":"Eastern Yar","wbtype":"Transitional","eco":"Moderate","chem":"Fail","year":2025}},
{"type":"Feature","geometry":{"type":"Polygon","coordinates":[[[-1.5518,50.7061],[-1.5642,50.7086],[-1.5831,50.7188],[-1.6472,50.7332],[-1.6707,50.7352],[-1.6845,50.737],[-1.7074,50.7367],[-1.7171,50.7356],[-1.7453,50.7148],[-1.7491,50.7118],[-1.7671,50.7163],[-1.8036,50.7201],[-1.8151,50.7208],[-1.8302,50.7205],[-1.8479,50.7192],[-1.8684,50.717],[-1.8847,50.714],[-1.8947,50.7114],[-1.9118,50.7048],[-1.9242,50.6981],[-1.9429,50.6843],[-1.9478,50.6827],[-1.9501,50.6802],[-1.9467,50.6748],[-1.9416,50.6734],[-1.9523,50.6563],[-1.9529,50.6517],[-1.9496,50.646],[-1.9408,50.6408],[-1.9244,50.642],[-1.9332,50.6309],[-1.9448,50.6289],[-1.9516,50.6244],[-1.9571,50.6162],[-1.957,50.6102],[-1.9497,50.605],[-1.9533,50.5995],[-1.9537,50.5942],[-1.9597,50.5911],[-1.9661,50.5915],[-1.9842,50.5905],[-2.0035,50.5918],[-2.0264,50.589],[-2.032,50.5845],[-2.0428,50.5792],[-2.0572,50.5769],[-2.0619,50.5813],[-2.0643,50.5876],[-2.0628,50.5919],[-2.073,50.5923],[-2.0756,50.5951],[-2.0831,50.5948],[-2.0985,50.5982],[-2.1053,50.5969],[-2.1146,50.5991],[-2.1263,50.6039],[-2.1315,50.6076],[-2.1346,50.6126],[-2.1392,50.6106],[-2.1509,50.6114],[-2.1579,50.6154],[-2.1701,50.6139],[-2.1828,50.6154],[-2.1876,50.62],[-2.1984,50.623],[-2.2041,50.6216],[-2.2202,50.6202],[-2.2283,50.6161],[-2.2447,50.6164],[-2.2497,50.618],[-2.2601,50.6182],[-2.2655,50.6208],[-2.2731,50.6221],[-2.2919,50.6229],[-2.3111,50.6258],[-2.3235,50.6249],[-2.3299,50.6269],[-2.3379,50.6319],[-2.3494,50.6309],[-2.3655,50.6311],[-2.3791,50.6354],[-2.3963,50.6365],[-2.4071,50.6343],[-2.4199,50.6365],[-2.4195,50.5871],[-2.4179,50.586],[-2.4145,50.5843],[-2.4158,50.572],[-2.4205,50.5697],[-2.4222,50.5692],[-2.4286,50.5662],[-2.423,50.5612],[-2.4158,50.551],[-2.4182,50.5428],[-2.4297,50.5359],[-2.4371,50.5303],[-2.4378,50.5266],[-2.4427,50.5205],[-2.4471,50.5191],[-2.4562,50.5133],[-2.46,50.5164],[-2.4599,50.4966],[-2.4521,50.4971],[-2.4408,50.5007],[-2.4227,50.5114],[-2.4156,50.5193],[-2.3881,50.5416],[-2.3762,50.5479],[-2.2752,50.5915],[-2.2581,50.597],[-2.2373,50.5999],[-2.2083,50.5999],[-2.1811,50.5981],[-2.1689,50.5958],[-2.1497,50.5905],[-2.1298,50.5823],[-2.1215,50.58],[-2.0993,50.5763],[-2.0846,50.57],[-2.0748,50.5645],[-2.0609,50.5606],[-2.0483,50.5612],[-2.0337,50.5646],[-2.0109,50.5719],[-1.9929,50.5746],[-1.9854,50.5744],[-1.9556,50.5754],[-1.9308,50.5813],[-1.606,50.6391],[-1.5858,50.6425],[-1.5429,50.6474],[-1.5251,50.6474],[-1.5096,50.6452],[-1.4889,50.638],[-1.4745,50.6284],[-1.4635,50.6242],[-1.4522,50.6225],[-1.4291,50.6169],[-1.4166,50.6131],[-1.4044,50.6077],[-1.385,50.5942],[-1.3684,50.5895],[-1.3582,50.5858],[-1.3462,50.5802],[-1.3282,50.5653],[-1.3195,50.5611],[-1.3045,50.5586],[-1.2986,50.575],[-1.3079,50.5774],[-1.3086,50.5806],[-1.3183,50.5896],[-1.3435,50.604],[-1.3536,50.6082],[-1.3619,50.6098],[-1.366,50.6135],[-1.3827,50.6237],[-1.3897,50.6272],[-1.3974,50.6293],[-1.4099,50.6348],[-1.4263,50.638],[-1.448,50.6438],[-1.4579,50.6508],[-1.4647,50.6524],[-1.4755,50.6616],[-1.4828,50.666],[-1.4912,50.6681],[-1.5236,50.6679],[-1.5392,50.6659],[-1.5492,50.6636],[-1.5638,50.6627],[-1.5792,50.6602],[-1.5861,50.6632],[-1.5518,50.7061]]]},"properties":{"id":"GB620705550000","name":"Dorset / Hampshire","wbtype":"Coastal","eco":"Good","chem":"Fail","year":2025}},
{"type":"Feature","geometry":{"type":"Polygon","coordinates":[[[-2.4439,50.6098],[-2.4415,50.6096],[-2.4449,50.6062],[-2.4503,50.6047],[-2.4485,50.6011],[-2.433,50.5963],[-2.4314,50.5943],[-2.4195,50.5871],[-2.4199,50.6365],[-2.4313,50.6326],[-2.4446,50.6236],[-2.4525,50.6139],[-2.4503,50.6087],[-2.4439,50.6098]]]},"properties":{"id":"GB680805070000","name":"Weymouth Bay","wbtype":"Coastal","eco":"Moderate","chem":"Fail","year":2025}},
{"type":"Feature","geometry":{"type":"Polygon","coordinates":[[[-2.4314,50.5943],[-2.433,50.5963],[-2.4491,50.6011],[-2.4592,50.5976],[-2.4663,50.5918],[-2.4702,50.5835],[-2.47,50.5825],[-2.464,50.5739],[-2.4473,50.5685],[-2.4287,50.5678],[-2.4222,50.5692],[-2.4205,50.5697],[-2.4165,50.5719],[-2.4145,50.5843],[-2.4179,50.586],[-2.4314,50.5943]]]},"properties":{"id":"GB680805270000","name":"Portland Harbour","wbtype":"Coastal","eco":"Moderate","chem":"Fail","year":2025}},
{"type":"Feature","geometry":{"type":"Polygon","coordinates":[[[-1.4125,50.7043],[-1.413,50.7101],[-1.4103,50.7142],[-1.4101,50.7141],[-1.4076,50.7181],[-1.4075,50.718],[-1.3925,50.7177],[-1.3901,50.7208],[-1.3987,50.7239],[-1.4001,50.7266],[-1.4101,50.7252],[-1.4127,50.7247],[-1.413,50.7188],[-1.4174,50.7131],[-1.4144,50.7106],[-1.4125,50.7043]]]},"properties":{"id":"GB520710101700","name":"Newtown River","wbtype":"Transitional","eco":"Moderate","chem":"Fail","year":2025}},
{"type":"Feature","geometry":{"type":"Polygon","coordinates":[[[-0.5421,50.8007],[-0.5602,50.7997],[-0.5873,50.7947],[-0.5996,50.7912],[-0.6179,50.7905],[-0.6291,50.788],[-0.6453,50.7872],[-0.6568,50.7843],[-0.6827,50.7798],[-0.6938,50.7791],[-0.7189,50.7738],[-0.7364,50.7678],[-0.7491,50.7591],[-0.7528,50.7581],[-0.7535,50.7573],[-0.7624,50.7478],[-0.7632,50.7433],[-0.7762,50.7301],[-0.7887,50.7223],[-0.7897,50.6865],[-0.774,50.6884],[-0.7575,50.6934],[-0.7499,50.6996],[-0.7431,50.72],[-0.738,50.7273],[-0.7226,50.7413],[-0.7015,50.7491],[-0.6787,50.752],[-0.658,50.7532],[-0.6472,50.7561],[-0.6373,50.7609],[-0.6232,50.7667],[-0.6122,50.7695],[-0.6008,50.7713],[-0.5894,50.7721],[-0.5724,50.7759],[-0.553,50.7779],[-0.5416,50.7773],[-0.5223,50.7799],[-0.5096,50.7811],[-0.4829,50.7815],[-0.441,50.7807],[-0.4275,50.781],[-0.4024,50.7836],[-0.3822,50.7847],[-0.3532,50.7907],[-0.3321,50.7957],[-0.3175,50.8001],[-0.2951,50.8053],[-0.2844,50.8072],[-0.2633,50.8092],[-0.2491,50.8088],[-0.2347,50.8097],[-0.2157,50.8091],[-0.1946,50.8078],[-0.1737,50.8056],[-0.1632,50.8038],[-0.147,50.7997],[-0.1284,50.7964],[-0.1185,50.7936],[-0.087,50.7891],[-0.0674,50.7842],[-0.0455,50.7797],[-0.0362,50.777],[-0.0086,50.7704],[0.0016,50.7672],[0.0272,50.762],[0.0545,50.7598],[0.0733,50.756],[0.1086,50.742],[0.1226,50.7393],[0.1475,50.7356],[0.1709,50.7297],[0.1891,50.7221],[0.1993,50.7197],[0.2139,50.7189],[0.2369,50.7166],[0.2579,50.7182],[0.2502,50.7367],[0.241,50.7344],[0.2185,50.737],[0.2073,50.739],[0.1994,50.7435],[0.1873,50.7484],[0.1795,50.7496],[0.1566,50.7567],[0.1451,50.7585],[0.1376,50.7559],[0.1208,50.7586],[0.1079,50.7639],[0.0963,50.7704],[0.0759,50.7799],[0.066,50.7825],[0.0581,50.7825],[0.0587,50.7767],[0.0529,50.7799],[0.0361,50.7811],[0.0218,50.7851],[0.0163,50.7853],[0.0001,50.7887],[-0.0205,50.7939],[-0.0375,50.7993],[-0.05,50.8015],[-0.0539,50.8012],[-0.0852,50.8102],[-0.0942,50.8106],[-0.1077,50.8129],[-0.1365,50.819],[-0.1673,50.8233],[-0.1942,50.8259],[-0.2053,50.8262],[-0.2286,50.8287],[-0.246,50.8285],[-0.2484,50.8266],[-0.2732,50.827],[-0.2902,50.8253],[-0.3278,50.8189],[-0.3361,50.8162],[-0.3639,50.81],[-0.3828,50.8073],[-0.4002,50.8057],[-0.4209,50.8051],[-0.4446,50.8024],[-0.4562,50.8021],[-0.4728,50.8028],[-0.5369,50.8023],[-0.5418,50.8015],[-0.5421,50.8007]]]},"properties":{"id":"GB640704540003","name":"Sussex","wbtype":"Coastal","eco":"Moderate","chem":"Fail","year":2025}},
{"type":"Feature","geometry":{"type":"Polygon","coordinates":[[[-0.9208,50.8317],[-0.9208,50.8325],[-0.9224,50.8312],[-0.9197,50.8287],[-0.9152,50.8286],[-0.9198,50.8314],[-0.9208,50.8317]]]},"properties":{"id":"GB610070074000","name":"Great Deep","wbtype":"Coastal","eco":"Good","chem":"Fail","year":2025}},
{"type":"Feature","geometry":{"type":"Polygon","coordinates":[[[-3.3044,50.6583],[-3.3061,50.6505],[-3.3102,50.6448],[-3.3093,50.6345],[-3.3112,50.6317],[-3.3065,50.6301],[-3.3062,50.6299],[-3.3086,50.6331],[-3.3099,50.6429],[-3.3059,50.6504],[-3.3044,50.6583]]]},"properties":{"id":"GB510804505500","name":"Otter","wbtype":"Transitional","eco":"Moderate","chem":"Fail","year":2025}},
{"type":"Feature","geometry":{"type":"Polygon","coordinates":[[[-1.4634,50.7609],[-1.4629,50.7627],[-1.4645,50.7647],[-1.4661,50.7622],[-1.4646,50.7605],[-1.4634,50.7609]]]},"properties":{"id":"GB610070075000","name":"Sowley Marsh","wbtype":"Coastal","eco":"Moderate","chem":"Fail","year":2025}},
{"type":"Feature","geometry":{"type":"Polygon","coordinates":[[[-3.5404,50.4607],[-3.5502,50.4521],[-3.5572,50.4424],[-3.5591,50.435],[-3.5548,50.4282],[-3.5594,50.4266],[-3.5592,50.4207],[-3.554,50.4121],[-3.5548,50.4064],[-3.5482,50.4061],[-3.5448,50.4021],[-3.5329,50.4048],[-3.5194,50.4031],[-3.5108,50.3971],[-3.4987,50.4014],[-3.4825,50.4],[-3.4829,50.4002],[-3.5138,50.4542],[-3.5188,50.4542],[-3.5265,50.4602],[-3.5341,50.4631],[-3.5404,50.4607]]]},"properties":{"id":"GB680806320000","name":"Tor Bay","wbtype":"Coastal","eco":"Good","chem":"Fail","year":2025}},
{"type":"Feature","geometry":{"type":"Polygon","coordinates":[[[-0.7463,50.7677],[-0.7486,50.7669],[-0.75,50.7627],[-0.7472,50.7642],[-0.7463,50.7677]]]},"properties":{"id":"GB560704117300","name":"Pagham Lagoon","wbtype":"Transitional","eco":"Moderate","chem":"Fail","year":2025}},
{"type":"Feature","geometry":{"type":"Polygon","coordinates":[[[-1.0728,50.8369],[-1.079,50.8372],[-1.0871,50.8308],[-1.095,50.8314],[-1.1062,50.8379],[-1.1026,50.8459],[-1.1131,50.8469],[-1.117,50.843],[-1.1131,50.8361],[-1.122,50.8357],[-1.135,50.8392],[-1.1412,50.8386],[-1.1544,50.8449],[-1.1605,50.8448],[-1.1631,50.8415],[-1.1712,50.84],[-1.1696,50.8374],[-1.1585,50.8386],[-1.1502,50.8331],[-1.1521,50.83],[-1.1456,50.8258],[-1.142,50.817],[-1.1239,50.8062],[-1.1241,50.7992],[-1.1166,50.7956],[-1.1189,50.7911],[-1.1146,50.7882],[-1.1255,50.7819],[-1.1001,50.7849],[-1.1088,50.7904],[-1.108,50.7953],[-1.111,50.7986],[-1.1115,50.8069],[-1.104,50.8104],[-1.0948,50.8088],[-1.091,50.8171],[-1.0938,50.823],[-1.1001,50.8269],[-1.0839,50.8255],[-1.0836,50.83],[-1.0789,50.833],[-1.0783,50.8361],[-1.0729,50.8367],[-1.0728,50.8369]],[[-1.1003,50.8154],[-1.0986,50.82],[-1.0942,50.8191],[-1.0926,50.8151],[-1.1003,50.8154]]]},"properties":{"id":"GB580705140000","name":"Portsmouth Harbour","wbtype":"Transitional","eco":"Moderate","chem":"Fail","year":2025}},
{"type":"Feature","geometry":{"type":"Polygon","coordinates":[[[-4.9354,50.5867],[-4.925,50.5908],[-4.9224,50.5946],[-4.9166,50.5889],[-4.9102,50.5879],[-4.9084,50.5846],[-4.8965,50.5858],[-4.8892,50.5823],[-4.8814,50.5832],[-4.8717,50.5905],[-4.8699,50.5954],[-4.8601,50.5932],[-4.8541,50.5968],[-4.8468,50.5978],[-4.8412,50.5934],[-4.8303,50.5956],[-4.825,50.595],[-4.8087,50.5971],[-4.7982,50.5976],[-4.7934,50.6001],[-4.7901,50.6045],[-4.783,50.6088],[-4.7821,50.612],[-4.7705,50.6223],[-4.7725,50.6288],[-4.768,50.6353],[-4.7678,50.6416],[-4.7605,50.6464],[-4.7588,50.6529],[-4.7662,50.6547],[-4.766,50.6597],[-4.7607,50.6651],[-4.7643,50.6699],[-4.7576,50.6697],[-4.7497,50.6719],[-4.7467,50.675],[-4.7401,50.6763],[-4.7348,50.6717],[-4.7288,50.6766],[-4.723,50.6852],[-4.7176,50.6835],[-4.7103,50.686],[-4.7055,50.6858],[-4.6986,50.6943],[-4.6874,50.6958],[-4.6793,50.7055],[-4.6681,50.7067],[-4.6674,50.7109],[-4.6552,50.7154],[-4.6542,50.7234],[-4.6499,50.7269],[-4.6495,50.7318],[-4.6521,50.7392],[-4.6413,50.7381],[-4.635,50.7409],[-4.6389,50.7444],[-4.6322,50.7501],[-4.6199,50.7514],[-4.6138,50.7603],[-4.6038,50.7643],[-4.5903,50.7663],[-4.5836,50.7717],[-4.5776,50.7716],[-4.572,50.777],[-4.5675,50.7776],[-4.562,50.7814],[-4.5583,50.7881],[-4.557,50.7986],[-4.5583,50.8042],[-4.5562,50.8172],[-4.5586,50.825],[-4.5574,50.8293],[-4.5536,50.8322],[-4.5568,50.8444],[-4.5551,50.8484],[-4.5564,50.8607],[-4.5608,50.8757],[-4.5596,50.879],[-4.5666,50.8865],[-4.5627,50.8878],[-4.5658,50.9051],[-4.5652,50.9109],[-4.5621,50.917],[-4.5499,50.9268],[-4.5455,50.9289],[-4.5451,50.9329],[-4.5485,50.9404],[-4.5427,50.9444],[-4.5414,50.9484],[-4.5435,50.9537],[-4.539,50.9575],[-4.5331,50.9654],[-4.5331,50.9777],[-4.5294,50.9867],[-4.5338,50.9951],[-4.5302,50.9974],[-4.5328,51.0007],[-4.5302,51.005],[-4.5329,51.0103],[-4.5273,51.0116],[-4.5274,51.0185],[-4.5254,51.0223],[-4.5255,51.0224],[-4.5256,51.0225],[-4.549,51.0362],[-4.5557,51.0293],[-4.5658,51.0116],[-4.567,50.9949],[-4.5655,50.9852],[-4.5664,50.974],[-4.5693,50.9651],[-4.5792,50.9456],[-4.5834,50.9341],[-4.594,50.9205],[-4.5995,50.9091],[-4.6004,50.9031],[-4.5978,50.8924],[-4.5963,50.8808],[-4.5909,50.8703],[-4.5896,50.865],[-4.589,50.8432],[-4.5872,50.8272],[-4.5888,50.8088],[-4.5933,50.7994],[-4.6051,50.7882],[-4.6234,50.7795],[-4.6335,50.7737],[-4.6523,50.7654],[-4.6614,50.7596],[-4.6779,50.751],[-4.6829,50.7458],[-4.6892,50.7324],[-4.7,50.7208],[-4.7107,50.713],[-4.7199,50.708],[-4.7521,50.6953],[-4.7616,50.6923],[-4.7796,50.6849],[-4.7891,50.6786],[-4.7922,50.6732],[-4.7962,50.6598],[-4.802,50.6513],[-4.8039,50.6459],[-4.8099,50.6365],[-4.8201,50.628],[-4.8333,50.6211],[-4.8514,50.6163],[-4.8784,50.6123],[-4.8888,50.6122],[-4.9125,50.6147],[-4.9224,50.6144],[-4.9434,50.6108],[-4.9594,50.6089],[-4.9671,50.6061],[-4.9799,50.5987],[-4.9915,50.5936],[-5.0168,50.5868],[-5.0358,50.5729],[-5.0498,50.5654],[-5.0585,50.5639],[-5.0348,50.55],[-5.0253,50.5514],[-5.0204,50.5459],[-5.0138,50.5452],[-5.0036,50.5465],[-5.0032,50.5414],[-4.9974,50.5403],[-4.9926,50.5434],[-4.9836,50.5424],[-4.9774,50.5464],[-4.9721,50.5578],[-4.9656,50.5583],[-4.9568,50.5629],[-4.9564,50.5665],[-4.9517,50.5692],[-4.9453,50.5691],[-4.9354,50.5867]]]},"properties":{"id":"GB610807680002","name":"Cornwall North","wbtype":"Coastal","eco":"Moderate","chem":"Fail","year":2025}},
{"type":"Feature","geometry":{"type":"Polygon","coordinates":[[[-1.0964,50.6902],[-1.0989,50.6898],[-1.0987,50.6887],[-1.0963,50.6896],[-1.0964,50.6902]]]},"properties":{"id":"GB560710117000","name":"Bembridge Harbour Lagoon","wbtype":"Transitional","eco":"Good","chem":"Fail","year":2025}},
{"type":"Feature","geometry":{"type":"Polygon","coordinates":[[[-4.8148,50.5089],[-4.8207,50.5095],[-4.8227,50.5125],[-4.8257,50.5139],[-4.8291,50.5131],[-4.8403,50.5219],[-4.8481,50.5267],[-4.8486,50.5306],[-4.8588,50.5346],[-4.8735,50.5348],[-4.8899,50.534],[-4.8989,50.5308],[-4.9068,50.5354],[-4.9141,50.5371],[-4.9151,50.5434],[-4.9259,50.5448],[-4.9293,50.5533],[-4.9265,50.5613],[-4.9308,50.5648],[-4.922,50.574],[-4.9155,50.576],[-4.9205,50.58],[-4.9354,50.5867],[-4.9453,50.5691],[-4.9498,50.5562],[-4.9406,50.5542],[-4.9341,50.5469],[-4.937,50.5418],[-4.9344,50.5381],[-4.9346,50.5328],[-4.931,50.53],[-4.9331,50.5256],[-4.9288,50.5247],[-4.9263,50.5303],[-4.9195,50.5314],[-4.9114,50.5307],[-4.9085,50.5284],[-4.8997,50.5262],[-4.8852,50.5302],[-4.8644,50.5292],[-4.8524,50.5279],[-4.841,50.5214],[-4.8358,50.5154],[-4.8291,50.5128],[-4.8254,50.5135],[-4.8204,50.5091],[-4.8148,50.5089]]]},"properties":{"id":"GB530804906600","name":"Camel","wbtype":"Transitional","eco":"Moderate","chem":"Fail","year":2025}},
{"type":"Feature","geometry":{"type":"Polygon","coordinates":[[[-1.2906,50.7642],[-1.2883,50.763],[-1.278,50.7662],[-1.2724,50.7658],[-1.2602,50.7599],[-1.2555,50.7542],[-1.2487,50.7523],[-1.2394,50.7435],[-1.231,50.743],[-1.2213,50.7393],[-1.2157,50.7357],[-1.216,50.734],[-1.2109,50.7349],[-1.1951,50.733],[-1.1838,50.733],[-1.1789,50.7341],[-1.1644,50.7328],[-1.1554,50.7329],[-1.1382,50.727],[-1.1294,50.7265],[-1.1202,50.7232],[-1.1098,50.7215],[-1.1061,50.7139],[-1.1032,50.7126],[-1.1005,50.7065],[-1.0979,50.7059],[-1.0878,50.6951],[-1.082,50.6942],[-1.0719,50.6887],[-0.9379,50.7771],[-0.9376,50.7776],[-0.9419,50.7766],[-0.9558,50.7783],[-0.9696,50.7813],[-0.9863,50.7835],[-1.007,50.7855],[-1.021,50.7858],[-1.023,50.7881],[-1.0305,50.7874],[-1.0797,50.7784],[-1.0882,50.7776],[-1.0923,50.7791],[-1.1001,50.7849],[-1.1255,50.7819],[-1.1347,50.7753],[-1.1416,50.7734],[-1.154,50.7813],[-1.166,50.7856],[-1.185,50.788],[-1.1962,50.7937],[-1.2092,50.8057],[-1.2148,50.8097],[-1.2381,50.8179],[-1.2459,50.8172],[-1.2639,50.8266],[-1.2821,50.8318],[-1.307,50.8199],[-1.3076,50.8162],[-1.3127,50.8119],[-1.3203,50.8081],[-1.3282,50.8025],[-1.3365,50.7939],[-1.3424,50.7858],[-1.3525,50.7841],[-1.3667,50.7852],[-1.3778,50.7808],[-1.379,50.7804],[-1.381,50.7797],[-1.3811,50.7797],[-1.3814,50.7796],[-1.388,50.7775],[-1.3936,50.7752],[-1.4154,50.7673],[-1.4385,50.7645],[-1.447,50.7624],[-1.4634,50.7609],[-1.4646,50.7605],[-1.477,50.7583],[-1.4838,50.7559],[-1.4926,50.7554],[-1.5309,50.7376],[-1.5429,50.7283],[-1.5524,50.7277],[-1.5554,50.7223],[-1.5635,50.722],[-1.577,50.7164],[-1.5664,50.7101],[-1.5518,50.7061],[-1.5861,50.6632],[-1.5695,50.6655],[-1.5703,50.6726],[-1.5633,50.6756],[-1.55,50.6775],[-1.5465,50.6798],[-1.5417,50.6889],[-1.5347,50.6925],[-1.5335,50.7007],[-1.5218,50.7072],[-1.5083,50.7058],[-1.5013,50.707],[-1.5003,50.7067],[-1.4868,50.7067],[-1.4701,50.7097],[-1.4497,50.7191],[-1.4294,50.726],[-1.4239,50.7267],[-1.4127,50.7247],[-1.4101,50.7252],[-1.4029,50.728],[-1.3637,50.7379],[-1.3532,50.7391],[-1.3473,50.7434],[-1.3453,50.7502],[-1.3378,50.7552],[-1.3281,50.7579],[-1.3225,50.7639],[-1.3135,50.7673],[-1.3006,50.7665],[-1.2961,50.7625],[-1.2959,50.7614],[-1.2885,50.7629],[-1.2906,50.7642]]]},"properties":{"id":"GB650705150000","name":"Solent","wbtype":"Coastal","eco":"Moderate","chem":"Fail","year":2025}},
{"type":"Feature","geometry":{"type":"Polygon","coordinates":[[[-1.7585,50.7277],[-1.7602,50.7237],[-1.7636,50.727],[-1.7707,50.729],[-1.7694,50.7321],[-1.7712,50.7393],[-1.7744,50.7349],[-1.7701,50.7308],[-1.7738,50.7295],[-1.7685,50.7266],[-1.7671,50.7219],[-1.7587,50.7177],[-1.7502,50.7174],[-1.7453,50.7148],[-1.7171,50.7356],[-1.7301,50.7317],[-1.7387,50.7258],[-1.7455,50.7279],[-1.7506,50.7259],[-1.7585,50.7277]]]},"properties":{"id":"GB520804315900","name":"Christchurch Harbour","wbtype":"Transitional","eco":"Moderate","chem":"Fail","year":2025}},
{"type":"Feature","geometry":{"type":"Polygon","coordinates":[[[-4.6388,50.3271],[-4.6397,50.3283],[-4.6441,50.3282],[-4.6463,50.3277],[-4.6466,50.3275],[-4.6475,50.3269],[-4.6481,50.3272],[-4.6544,50.3232],[-4.6645,50.3219],[-4.6694,50.32],[-4.669,50.3163],[-4.6728,50.3139],[-4.6766,50.3178],[-4.6847,50.3201],[-4.6827,50.3263],[-4.6821,50.3384],[-4.6894,50.3418],[-4.6898,50.3465],[-4.6973,50.3478],[-4.7024,50.3469],[-4.7062,50.3404],[-4.7397,50.3353],[-4.746,50.3319],[-4.753,50.3321],[-4.7632,50.3262],[-4.7668,50.3222],[-4.7651,50.313],[-4.761,50.3083],[-4.7541,50.3059],[-4.7563,50.3003],[-4.7627,50.3007],[-4.7727,50.2952],[-4.7844,50.2847],[-4.7788,50.279],[-4.7846,50.2734],[-4.7821,50.2669],[-4.7854,50.2625],[-4.7741,50.2579],[-4.7687,50.2528],[-4.7776,50.2505],[-4.7855,50.2456],[-4.788,50.2421],[-4.7832,50.2366],[-4.7947,50.2327],[-4.7991,50.2269],[-4.7972,50.2219],[-4.8021,50.2188],[-4.8075,50.2211],[-4.8134,50.2299],[-4.8194,50.2317],[-4.8279,50.2304],[-4.8321,50.2333],[-4.8385,50.2321],[-4.8448,50.2349],[-4.8575,50.2347],[-4.8628,50.236],[-4.874,50.2305],[-4.8763,50.2246],[-4.883,50.224],[-4.8809,50.1898],[-4.8701,50.1965],[-4.8557,50.2018],[-4.8398,50.2045],[-4.8193,50.2041],[-4.8096,50.2025],[-4.7913,50.2038],[-4.7807,50.2082],[-4.7636,50.2223],[-4.7385,50.2353],[-4.734,50.2416],[-4.7287,50.2533],[-4.7218,50.2609],[-4.7152,50.2663],[-4.6791,50.288],[-4.6681,50.293],[-4.6369,50.3041],[-4.6175,50.3076],[-4.5999,50.3072],[-4.5831,50.3054],[-4.5698,50.3027],[-4.5567,50.3031],[-4.5396,50.3069],[-4.5132,50.3119],[-4.4953,50.3146],[-4.4735,50.3157],[-4.4577,50.3172],[-4.4732,50.3331],[-4.4982,50.3367],[-4.502,50.3306],[-4.5074,50.3308],[-4.5247,50.3275],[-4.5311,50.325],[-4.5391,50.3239],[-4.5515,50.3244],[-4.5609,50.3274],[-4.5773,50.3314],[-4.5875,50.3321],[-4.6009,50.3239],[-4.6032,50.3286],[-4.6134,50.3275],[-4.6185,50.3239],[-4.6331,50.3244],[-4.6383,50.327],[-4.6388,50.3271]]]},"properties":{"id":"GB620806110001","name":"St Austell","wbtype":"Coastal","eco":"Good","chem":"Fail","year":2025}},
{"type":"Feature","geometry":{"type":"Polygon","coordinates":[[[-5.4335,50.1727],[-5.437,50.1762],[-5.4312,50.179],[-5.4324,50.1843],[-5.4268,50.1879],[-5.4344,50.1923],[-5.4282,50.1991],[-5.4557,50.1982],[-5.4531,50.1952],[-5.4369,50.1934],[-5.4309,50.1872],[-5.4356,50.1854],[-5.4409,50.1786],[-5.4335,50.1727]]]},"properties":{"id":"GB530804906700","name":"Hayle","wbtype":"Transitional","eco":"Moderate","chem":"Fail","year":2025}},
{"type":"Feature","geometry":{"type":"Polygon","coordinates":[[[-3.5443,50.3357],[-3.5459,50.3379],[-3.5505,50.3377],[-3.5542,50.3414],[-3.5628,50.3431],[-3.5658,50.3463],[-3.5726,50.3471],[-3.5701,50.3554],[-3.5763,50.3635],[-3.5754,50.3681],[-3.5781,50.3757],[-3.5809,50.3782],[-3.5916,50.3822],[-3.5829,50.3861],[-3.5785,50.3909],[-3.5901,50.3951],[-3.6125,50.3932],[-3.6149,50.3964],[-3.6323,50.4],[-3.6301,50.4034],[-3.6356,50.4076],[-3.6423,50.409],[-3.6451,50.4125],[-3.6582,50.412],[-3.6585,50.4121],[-3.6571,50.4104],[-3.6472,50.4109],[-3.648,50.4047],[-3.644,50.4037],[-3.634,50.405],[-3.6396,50.3982],[-3.6303,50.3966],[-3.6259,50.392],[-3.6096,50.3887],[-3.5987,50.3914],[-3.5941,50.3896],[-3.5974,50.3847],[-3.5942,50.3803],[-3.5829,50.3749],[-3.5807,50.3721],[-3.586,50.3627],[-3.5788,50.3599],[-3.5767,50.3571],[-3.5772,50.3492],[-3.5734,50.3425],[-3.5688,50.3436],[-3.5657,50.3363],[-3.5702,50.3273],[-3.5443,50.3357]]]},"properties":{"id":"GB510804605900","name":"Dart","wbtype":"Transitional","eco":"Moderate","chem":"Fail","year":2025}},
{"type":"Feature","geometry":{"type":"Polygon","coordinates":[[[-2.46,50.5164],[-2.4588,50.5217],[-2.4555,50.5258],[-2.456,50.5312],[-2.4537,50.5389],[-2.4564,50.5424],[-2.4521,50.5475],[-2.4522,50.5517],[-2.448,50.5573],[-2.45,50.5609],[-2.4703,50.5753],[-2.4978,50.593],[-2.5296,50.6112],[-2.5729,50.6339],[-2.5981,50.6463],[-2.6392,50.6647],[-2.677,50.6797],[-2.7255,50.697],[-2.739,50.7021],[-2.7797,50.7148],[-2.7927,50.718],[-2.8042,50.7188],[-2.8105,50.7179],[-2.8251,50.7222],[-2.8364,50.7237],[-2.8404,50.7228],[-2.8755,50.7299],[-2.8973,50.733],[-2.9118,50.7338],[-2.9281,50.7287],[-2.9309,50.725],[-2.937,50.7226],[-2.9386,50.7197],[-2.9479,50.7182],[-2.9532,50.7144],[-2.9664,50.713],[-2.971,50.7095],[-2.9844,50.7047],[-2.9918,50.7055],[-2.9976,50.7046],[-3.0064,50.7005],[-3.0225,50.6984],[-3.0279,50.6987],[-3.0543,50.7022],[-3.0552,50.7025],[-3.0711,50.7031],[-3.0844,50.7007],[-3.0875,50.6967],[-3.0925,50.6952],[-3.0946,50.6895],[-3.0865,50.6701],[-3.0794,50.6734],[-3.063,50.6786],[-3.0482,50.6808],[-3.0085,50.6817],[-2.978,50.6875],[-2.9599,50.6931],[-2.9447,50.6965],[-2.9203,50.7055],[-2.9067,50.7087],[-2.8918,50.7106],[-2.8736,50.7101],[-2.8569,50.7065],[-2.8287,50.7029],[-2.8188,50.701],[-2.805,50.7001],[-2.7941,50.698],[-2.7786,50.6931],[-2.7639,50.6904],[-2.7225,50.6763],[-2.691,50.665],[-2.6662,50.6545],[-2.6485,50.6484],[-2.6307,50.6407],[-2.6115,50.6315],[-2.5938,50.6217],[-2.5672,50.6092],[-2.5438,50.5967],[-2.5157,50.5804],[-2.496,50.5674],[-2.4888,50.5582],[-2.484,50.5436],[-2.4841,50.5354],[-2.4876,50.522],[-2.487,50.5119],[-2.4815,50.5041],[-2.4745,50.4999],[-2.4599,50.4966],[-2.46,50.5164]]]},"properties":{"id":"GB620806560000","name":"Lyme Bay East","wbtype":"Coastal","eco":"Good","chem":"Fail","year":2025}},
{"type":"Feature","geometry":{"type":"Polygon","coordinates":[[[-3.4942,50.5444],[-3.4962,50.5379],[-3.5092,50.5171],[-3.5096,50.5127],[-3.5131,50.5066],[-3.5124,50.5028],[-3.5147,50.4817],[-3.4978,50.4756],[-3.502,50.4729],[-3.4905,50.4691],[-3.4911,50.4661],[-3.4868,50.4631],[-3.4912,50.4582],[-3.5042,50.4596],[-3.5138,50.4542],[-3.4829,50.4002],[-3.4825,50.4],[-3.488,50.3979],[-3.4888,50.3943],[-3.5033,50.3887],[-3.503,50.3845],[-3.4965,50.3812],[-3.5063,50.3798],[-3.5162,50.3713],[-3.5159,50.3647],[-3.5189,50.3632],[-3.5208,50.3567],[-3.5154,50.3551],[-3.5149,50.3516],[-3.5208,50.3449],[-3.5308,50.3433],[-3.5363,50.3366],[-3.5357,50.317],[-3.5266,50.3182],[-3.5122,50.3216],[-3.5015,50.3263],[-3.4961,50.3326],[-3.4892,50.352],[-3.4848,50.3603],[-3.4719,50.3739],[-3.4616,50.3868],[-3.4577,50.3975],[-3.4477,50.4478],[-3.4456,50.4559],[-3.4463,50.4623],[-3.4532,50.47],[-3.4694,50.4803],[-3.4762,50.4858],[-3.4808,50.4933],[-3.4837,50.5022],[-3.4839,50.5114],[-3.4796,50.5197],[-3.469,50.5314],[-3.4627,50.5407],[-3.4469,50.5559],[-3.4401,50.5642],[-3.4296,50.5722],[-3.4163,50.5783],[-3.3976,50.5828],[-3.3882,50.5837],[-3.3717,50.5873],[-3.3533,50.59],[-3.3425,50.5937],[-3.3289,50.6024],[-3.317,50.6075],[-3.2954,50.6131],[-3.2906,50.6153],[-3.2742,50.6267],[-3.2669,50.6336],[-3.2608,50.6424],[-3.2499,50.6514],[-3.2365,50.6582],[-3.226,50.6615],[-3.2144,50.6638],[-3.1806,50.6667],[-3.1657,50.6666],[-3.1479,50.6683],[-3.1221,50.6691],[-3.101,50.6682],[-3.0865,50.6701],[-3.0946,50.6895],[-3.096,50.6853],[-3.1053,50.6854],[-3.124,50.6869],[-3.1386,50.6865],[-3.1474,50.6854],[-3.1588,50.6861],[-3.167,50.685],[-3.1918,50.6845],[-3.1993,50.6824],[-3.2118,50.6817],[-3.2322,50.6792],[-3.2459,50.6752],[-3.2583,50.6731],[-3.2666,50.67],[-3.2672,50.6667],[-3.2764,50.6611],[-3.2854,50.652],[-3.2852,50.6485],[-3.2889,50.641],[-3.3037,50.6299],[-3.3062,50.6299],[-3.3065,50.6301],[-3.3227,50.6283],[-3.3346,50.6252],[-3.3554,50.6174],[-3.3596,50.6141],[-3.3581,50.6084],[-3.3641,50.6098],[-3.3856,50.607],[-3.4437,50.5927],[-3.4596,50.5841],[-3.4658,50.5792],[-3.4691,50.5743],[-3.4686,50.5664],[-3.4701,50.5627],[-3.4775,50.5603],[-3.4942,50.5444]]]},"properties":{"id":"GB650806420000","name":"Lyme Bay West","wbtype":"Coastal","eco":"Moderate","chem":"Fail","year":2025}},
{"type":"Feature","geometry":{"type":"Polygon","coordinates":[[[0.1566,50.7567],[0.1498,50.7588],[0.1451,50.7585],[0.1566,50.7567]]]},"properties":{"id":"GB540704104800","name":"Cuckmere","wbtype":"Transitional","eco":"Moderate","chem":"Fail","year":2025}},
{"type":"Feature","geometry":{"type":"Polygon","coordinates":[[[-3.7639,50.2349],[-3.7559,50.2375],[-3.7568,50.2435],[-3.7527,50.2464],[-3.7568,50.2503],[-3.7505,50.2528],[-3.7475,50.2565],[-3.7392,50.2572],[-3.7325,50.2644],[-3.7417,50.263],[-3.7538,50.2578],[-3.7546,50.2606],[-3.7617,50.2612],[-3.7595,50.2678],[-3.765,50.2719],[-3.7742,50.2744],[-3.7705,50.267],[-3.7674,50.2646],[-3.7688,50.2611],[-3.7768,50.2608],[-3.7775,50.2553],[-3.7647,50.2539],[-3.7653,50.2515],[-3.7593,50.2477],[-3.7613,50.2422],[-3.7651,50.2423],[-3.7661,50.2363],[-3.7639,50.2349]]]},"properties":{"id":"GB520804609000","name":"Kingsbridge","wbtype":"Transitional","eco":"Poor","chem":"Fail","year":2025}},
{"type":"Feature","geometry":{"type":"Polygon","coordinates":[[[-3.5443,50.3357],[-3.5702,50.3273],[-3.5724,50.3261],[-3.589,50.3256],[-3.5967,50.3198],[-3.6115,50.3188],[-3.6219,50.3087],[-3.6269,50.3068],[-3.6338,50.3008],[-3.64,50.2933],[-3.6469,50.2815],[-3.6506,50.2717],[-3.6589,50.2421],[-3.6572,50.231],[-3.6504,50.2251],[-3.6497,50.2218],[-3.6565,50.2178],[-3.6601,50.2206],[-3.669,50.2204],[-3.6812,50.2224],[-3.6885,50.2188],[-3.6889,50.2163],[-3.7036,50.211],[-3.7037,50.2083],[-3.7168,50.2055],[-3.7202,50.202],[-3.7316,50.207],[-3.7869,50.2099],[-3.7964,50.2112],[-3.7994,50.2147],[-3.8163,50.2151],[-3.823,50.2173],[-3.8271,50.222],[-3.8386,50.2289],[-3.8478,50.2304],[-3.8529,50.2343],[-3.86,50.2343],[-3.8708,50.2417],[-3.8982,50.2363],[-3.8892,50.2277],[-3.8789,50.2213],[-3.8602,50.2132],[-3.8496,50.2064],[-3.8404,50.2028],[-3.8119,50.1971],[-3.7985,50.1938],[-3.7859,50.1922],[-3.7659,50.1927],[-3.7519,50.191],[-3.7311,50.1857],[-3.7216,50.1853],[-3.6982,50.1888],[-3.6745,50.1963],[-3.6319,50.2028],[-3.6247,50.2052],[-3.6193,50.2087],[-3.6148,50.2153],[-3.6145,50.226],[-3.624,50.2402],[-3.627,50.2495],[-3.6271,50.2594],[-3.6248,50.272],[-3.6187,50.2846],[-3.6069,50.2962],[-3.5928,50.3024],[-3.5774,50.3071],[-3.5606,50.3105],[-3.5482,50.3149],[-3.5357,50.317],[-3.5363,50.3366],[-3.5443,50.3357]]]},"properties":{"id":"GB620806110002","name":"Devon South","wbtype":"Coastal","eco":"Good","chem":"Fail","year":2025}},
{"type":"Feature","geometry":{"type":"Polygon","coordinates":[[[-1.2959,50.7614],[-1.2924,50.7573],[-1.2944,50.7531],[-1.2894,50.7416],[-1.2901,50.7386],[-1.2836,50.73],[-1.2807,50.7332],[-1.2862,50.7405],[-1.2911,50.7531],[-1.2905,50.7606],[-1.2885,50.7629],[-1.2959,50.7614]]]},"properties":{"id":"GB520710101600","name":"Medina","wbtype":"Transitional","eco":"Moderate","chem":"Fail","year":2025}},
{"type":"Feature","geometry":{"type":"Polygon","coordinates":[[[-0.9878,50.8241],[-0.9828,50.8302],[-0.9839,50.8299],[-0.9849,50.8294],[-0.9862,50.8291],[-0.9901,50.8268],[-0.9903,50.8265],[-0.9897,50.8245],[-0.9895,50.8244],[-0.9885,50.8241],[-0.9878,50.8241]]]},"properties":{"id":"GB510070073000","name":"Langstone Oysterbeds","wbtype":"Transitional","eco":"Good","chem":"Fail","year":2025}},
{"type":"Feature","geometry":{"type":"Polygon","coordinates":[[[-4.9618,50.2279],[-4.967,50.2347],[-4.9633,50.2392],[-4.96,50.2385],[-4.9581,50.2387],[-4.9577,50.2386],[-4.9571,50.2392],[-4.9556,50.2399],[-4.957,50.2393],[-4.9578,50.2388],[-4.9604,50.2387],[-4.9626,50.2393],[-4.9658,50.2387],[-4.9663,50.2392],[-4.9762,50.234],[-4.9857,50.2315],[-4.9848,50.2288],[-4.9919,50.2264],[-5.0019,50.2251],[-5.0094,50.2288],[-5.014,50.2275],[-5.0157,50.2359],[-5.0122,50.2409],[-5.0197,50.2466],[-5.0105,50.2495],[-5.0087,50.252],[-5.0101,50.2577],[-5.0057,50.2663],[-5.0021,50.2685],[-5.001,50.2737],[-4.997,50.2758],[-4.9933,50.2785],[-4.9916,50.2798],[-4.991,50.2804],[-4.9909,50.2807],[-4.9918,50.2819],[-4.9919,50.2811],[-4.9911,50.2808],[-4.9911,50.2804],[-4.9918,50.2798],[-4.9927,50.2795],[-4.9937,50.2786],[-4.9947,50.2784],[-4.9955,50.2773],[-5.0031,50.2734],[-5.0044,50.2689],[-5.0094,50.265],[-5.0141,50.2552],[-5.0116,50.2514],[-5.0161,50.2502],[-5.028,50.243],[-5.0337,50.2493],[-5.0429,50.2479],[-5.0356,50.2438],[-5.0271,50.2413],[-5.0216,50.2429],[-5.0161,50.2401],[-5.0218,50.2328],[-5.0179,50.2263],[-5.0278,50.2236],[-5.0286,50.2143],[-5.0306,50.2088],[-5.0361,50.2097],[-5.0404,50.2048],[-5.0588,50.1995],[-5.0748,50.2084],[-5.0942,50.2095],[-5.1013,50.2092],[-5.1142,50.2062],[-5.1007,50.2091],[-5.0923,50.2064],[-5.0792,50.2064],[-5.0755,50.2047],[-5.0738,50.1999],[-5.0691,50.1987],[-5.0549,50.1876],[-5.0544,50.1804],[-5.0452,50.1755],[-5.025,50.182],[-5.0278,50.1862],[-5.0284,50.1918],[-5.0315,50.2002],[-5.0349,50.2034],[-5.0257,50.2083],[-5.0255,50.2174],[-5.0226,50.2227],[-5.017,50.2225],[-5.0092,50.2271],[-5.0045,50.2233],[-4.9989,50.2234],[-4.9792,50.2271],[-4.971,50.2269],[-4.972,50.2308],[-4.9658,50.2323],[-4.9618,50.2279]]]},"properties":{"id":"GB520804814400","name":"Carrick Roads Inner","wbtype":"Transitional","eco":"Moderate","chem":"Fail","year":2025}},
{"type":"Feature","geometry":{"type":"Polygon","coordinates":[[[0.2579,50.7182],[0.2678,50.7199],[0.2755,50.7234],[0.2959,50.7393],[0.3087,50.7462],[0.3277,50.763],[0.347,50.7736],[0.3679,50.7929],[0.38,50.7988],[0.3885,50.8017],[0.4105,50.8068],[0.4432,50.8107],[0.4635,50.8147],[0.4849,50.8151],[0.4954,50.8169],[0.5217,50.8268],[0.5341,50.8301],[0.5727,50.8349],[0.6,50.8378],[0.6,50.856],[0.5973,50.8548],[0.5919,50.8536],[0.5768,50.8541],[0.558,50.8506],[0.5394,50.8501],[0.5191,50.8477],[0.4981,50.8412],[0.4863,50.8394],[0.4804,50.8375],[0.4301,50.8325],[0.4162,50.8308],[0.3909,50.8243],[0.3684,50.8177],[0.3507,50.8102],[0.3442,50.8049],[0.3328,50.7923],[0.3272,50.7896],[0.3289,50.785],[0.3097,50.7786],[0.3028,50.7751],[0.2909,50.7652],[0.2868,50.7606],[0.2737,50.7538],[0.2655,50.7464],[0.2606,50.7386],[0.2502,50.7367],[0.2579,50.7182]]]},"properties":{"id":"GB640704540002","name":"Sussex East","wbtype":"Coastal","eco":"Moderate","chem":"Fail","year":2025}},
{"type":"Feature","geometry":{"type":"Polygon","coordinates":[[[-5.4486,50.1109],[-5.4541,50.1181],[-5.4606,50.1221],[-5.4672,50.1235],[-5.4754,50.1234],[-5.4843,50.1277],[-5.4949,50.1287],[-5.5234,50.1262],[-5.5303,50.1235],[-5.5305,50.1163],[-5.5455,50.1097],[-5.5492,50.1032],[-5.5397,50.0975],[-5.5381,50.0929],[-5.5335,50.0879],[-5.5389,50.0825],[-5.5382,50.0801],[-5.5426,50.071],[-5.5544,50.0599],[-5.5339,50.068],[-5.518,50.0758],[-5.4486,50.1109]]]},"properties":{"id":"GB650806340000","name":"Penzance","wbtype":"Coastal","eco":"Good","chem":"Fail","year":2025}},
{"type":"Feature","geometry":{"type":"Polygon","coordinates":[[[-1.2821,50.8318],[-1.2958,50.8354],[-1.3042,50.8388],[-1.3081,50.8431],[-1.3033,50.8485],[-1.3073,50.853],[-1.306,50.8571],[-1.3086,50.8604],[-1.3054,50.8684],[-1.3052,50.8743],[-1.2972,50.8783],[-1.3019,50.8837],[-1.2877,50.8918],[-1.2879,50.8948],[-1.2694,50.8986],[-1.2639,50.8975],[-1.2604,50.9004],[-1.2506,50.9028],[-1.255,50.9045],[-1.2603,50.903],[-1.2645,50.9056],[-1.2657,50.9084],[-1.2687,50.9097],[-1.268,50.9103],[-1.2684,50.9112],[-1.269,50.9117],[-1.2686,50.9121],[-1.2689,50.9128],[-1.2678,50.9141],[-1.269,50.9129],[-1.2688,50.9121],[-1.2692,50.9117],[-1.2687,50.9113],[-1.2689,50.9107],[-1.2683,50.9103],[-1.2689,50.9097],[-1.2674,50.909],[-1.267,50.9082],[-1.2647,50.9053],[-1.2608,50.9022],[-1.2642,50.8989],[-1.2686,50.8994],[-1.289,50.8961],[-1.2962,50.8885],[-1.3045,50.8835],[-1.3028,50.8784],[-1.3143,50.8752],[-1.3096,50.8686],[-1.3134,50.8596],[-1.3123,50.8528],[-1.3146,50.8501],[-1.3242,50.853],[-1.3517,50.87],[-1.3709,50.8849],[-1.3822,50.8888],[-1.3841,50.8908],[-1.3825,50.9064],[-1.3725,50.9102],[-1.3752,50.9156],[-1.3873,50.9166],[-1.3874,50.9139],[-1.3782,50.9125],[-1.3778,50.9102],[-1.3874,50.9064],[-1.3911,50.8967],[-1.3899,50.8928],[-1.398,50.8929],[-1.4138,50.8996],[-1.4382,50.9077],[-1.4428,50.9082],[-1.4471,50.9038],[-1.4513,50.9042],[-1.4668,50.911],[-1.4764,50.9255],[-1.4802,50.9307],[-1.4835,50.9317],[-1.4838,50.9267],[-1.4807,50.9236],[-1.4794,50.9237],[-1.4792,50.9237],[-1.479,50.9238],[-1.4792,50.9228],[-1.48,50.9226],[-1.4779,50.9199],[-1.4765,50.916],[-1.4782,50.9119],[-1.4662,50.9043],[-1.4662,50.9042],[-1.4577,50.901],[-1.4425,50.902],[-1.4268,50.8966],[-1.4077,50.8801],[-1.3975,50.8747],[-1.4006,50.8719],[-1.3831,50.8625],[-1.381,50.861],[-1.3808,50.8601],[-1.3793,50.8601],[-1.3818,50.8587],[-1.3813,50.8581],[-1.3735,50.8569],[-1.3722,50.8545],[-1.3722,50.8544],[-1.3661,50.852],[-1.3662,50.851],[-1.3633,50.8496],[-1.3614,50.8491],[-1.3618,50.8475],[-1.3538,50.8441],[-1.3492,50.8464],[-1.3427,50.8441],[-1.3349,50.8373],[-1.3392,50.8362],[-1.3404,50.8323],[-1.3354,50.8263],[-1.3289,50.8243],[-1.3244,50.8251],[-1.321,50.8211],[-1.324,50.8191],[-1.3115,50.8134],[-1.307,50.8199],[-1.2821,50.8318]]]},"properties":{"id":"GB520704202800","name":"Southampton Water","wbtype":"Transitional","eco":"Moderate","chem":"Fail","year":2025}},
{"type":"Feature","geometry":{"type":"Polygon","coordinates":[[[-5.0162,50.1412],[-5.0144,50.1448],[-5.0176,50.1493],[-5.0111,50.1536],[-5.0072,50.1507],[-5.0007,50.1555],[-4.9968,50.1667],[-4.9994,50.171],[-5.0043,50.1677],[-5.0007,50.1652],[-5.006,50.1612],[-5.0197,50.1573],[-5.0238,50.1548],[-5.0283,50.159],[-5.0243,50.1641],[-5.0199,50.1766],[-5.0204,50.1814],[-5.025,50.182],[-5.0452,50.1755],[-5.0461,50.1691],[-5.0537,50.1623],[-5.069,50.1618],[-5.0717,50.165],[-5.0786,50.1669],[-5.0918,50.1687],[-5.0852,50.1628],[-5.0818,50.1648],[-5.0739,50.1611],[-5.0735,50.1587],[-5.0654,50.1524],[-5.0501,50.1533],[-5.045,50.1496],[-5.0572,50.1479],[-5.0684,50.1441],[-5.0769,50.14],[-5.0733,50.1341],[-5.0162,50.1412]]]},"properties":{"id":"GB650806250000","name":"Carrick Roads Outer","wbtype":"Coastal","eco":"Good","chem":"Fail","year":2025}},
{"type":"Feature","geometry":{"type":"Polygon","coordinates":[[[-0.246,50.8285],[-0.2388,50.8306],[-0.2797,50.8324],[-0.2754,50.8293],[-0.2667,50.831],[-0.2514,50.8302],[-0.2484,50.8266],[-0.246,50.8285]]]},"properties":{"id":"GB540704116000","name":"Adur","wbtype":"Transitional","eco":"Moderate","chem":"Fail","year":2025}},
{"type":"Feature","geometry":{"type":"Polygon","coordinates":[[[-3.7316,50.207],[-3.7375,50.2145],[-3.7435,50.2153],[-3.7501,50.2191],[-3.7584,50.2193],[-3.7705,50.2219],[-3.7731,50.2238],[-3.7709,50.2288],[-3.7639,50.2349],[-3.7661,50.2363],[-3.7759,50.2293],[-3.7838,50.2264],[-3.7808,50.2178],[-3.7866,50.2151],[-3.7869,50.2099],[-3.7316,50.207]]]},"properties":{"id":"GB680806460000","name":"Salcombe Harbour","wbtype":"Coastal","eco":"Moderate","chem":"Fail","year":2025}},
{"type":"Feature","geometry":{"type":"Polygon","coordinates":[[[-1.4926,50.7554],[-1.5135,50.7533],[-1.5285,50.7545],[-1.5295,50.7511],[-1.5254,50.7486],[-1.526,50.7445],[-1.5306,50.7425],[-1.5309,50.7376],[-1.4926,50.7554]]]},"properties":{"id":"GB520704202100","name":"Lymington","wbtype":"Transitional","eco":"Moderate","chem":"Fail","year":2025}}
]}