{"type":"FeatureCollection","features":[{"type":"Feature","properties":{"id":1000043,"name":"HMS/m A1","designated":1998,"area":28.3,"link":"https://historicengland.org.uk/listing/the-list/list-entry/1000043"},"geometry":{"type":"Point","coordinates":[-0.921304,50.742508]}},{"type":"Feature","properties":{"id":1000044,"name":"YARMOUTH ROADS","designated":1984,"area":0.8,"link":"https://historicengland.org.uk/listing/the-list/list-entry/1000044"},"geometry":{"type":"Point","coordinates":[-1.494695,50.709239]}},{"type":"Feature","properties":{"id":1000045,"name":"STUDLAND BAY WRECK","designated":1984,"area":1.8,"link":"https://historicengland.org.uk/listing/the-list/list-entry/1000045"},"geometry":{"type":"Point","coordinates":[-1.914532,50.661403]}},{"type":"Feature","properties":{"id":1000046,"name":"RILL COVE","designated":1976,"area":3.1,"link":"https://historicengland.org.uk/listing/the-list/list-entry/1000046"},"geometry":{"type":"Point","coordinates":[-5.240658,49.975907]}},{"type":"Feature","properties":{"id":1000048,"name":"The Hazardous (formerly Le Hazardeux)","designated":1986,"area":7.1,"link":"https://historicengland.org.uk/listing/the-list/list-entry/1000048"},"geometry":{"type":"Point","coordinates":[-0.859292,50.752232]}},{"type":"Feature","properties":{"id":1000049,"name":"SCHIEDAM","designated":1982,"area":1.8,"link":"https://historicengland.org.uk/listing/the-list/list-entry/1000049"},"geometry":{"type":"Point","coordinates":[-5.274361,50.039433]}},{"type":"Feature","properties":{"id":1000050,"name":"MOOR SAND","designated":1978,"area":28.3,"link":"https://historicengland.org.uk/listing/the-list/list-entry/1000050"},"geometry":{"type":"Point","coordinates":[-3.740063,50.212256]}},{"type":"Feature","properties":{"id":1000052,"name":"HMS INVINCIBLE","designated":1980,"area":3.1,"link":"https://historicengland.org.uk/listing/the-list/list-entry/1000052"},"geometry":{"type":"Point","coordinates":[-1.038627,50.739574]}},{"type":"Feature","properties":{"id":1000054,"name":"ERME INGOT","designated":1993,"area":3.1,"link":"https://historicengland.org.uk/listing/the-list/list-entry/1000054"},"geometry":{"type":"Point","coordinates":[-3.95799,50.30308]}},{"type":"Feature","properties":{"id":1000061,"name":"GRACE DIEU and the possible site of the HOLIGOST","designated":1974,"area":2.3,"link":"https://historicengland.org.uk/listing/the-list/list-entry/1000061"},"geometry":{"type":"Point","coordinates":[-1.288683,50.89241]}},{"type":"Feature","properties":{"id":1000064,"name":"CHURCH ROCKS","designated":1977,"area":2.7,"link":"https://historicengland.org.uk/listing/the-list/list-entry/1000064"},"geometry":{"type":"Point","coordinates":[-3.487304,50.54913]}},{"type":"Feature","properties":{"id":1000065,"name":"CATTEWATER","designated":1973,"area":0.8,"link":"https://historicengland.org.uk/listing/the-list/list-entry/1000065"},"geometry":{"type":"Point","coordinates":[-4.128225,50.362073]}},{"type":"Feature","properties":{"id":1000067,"name":"ST ANTHONY","designated":1982,"area":7.1,"link":"https://historicengland.org.uk/listing/the-list/list-entry/1000067"},"geometry":{"type":"Point","coordinates":[-5.281912,50.055959]}},{"type":"Feature","properties":{"id":1000068,"name":"ROYAL ANNE","designated":1993,"area":12.6,"link":"https://historicengland.org.uk/listing/the-list/list-entry/1000068"},"geometry":{"type":"Point","coordinates":[-5.216554,49.957987]}},{"type":"Feature","properties":{"id":1000069,"name":"CORONATION OFFSHORE","designated":1978,"area":7.1,"link":"https://historicengland.org.uk/listing/the-list/list-entry/1000069"},"geometry":{"type":"Point","coordinates":[-4.200801,50.310078]}},{"type":"Feature","properties":{"id":1000070,"name":"CORONATION INSHORE","designated":1988,"area":19.6,"link":"https://historicengland.org.uk/listing/the-list/list-entry/1000070"},"geometry":{"type":"Point","coordinates":[-4.193969,50.316578]}},{"type":"Feature","properties":{"id":1000071,"name":"ERME ESTUARY","designated":1991,"area":19.6,"link":"https://historicengland.org.uk/listing/the-list/list-entry/1000071"},"geometry":{"type":"Point","coordinates":[-3.954324,50.307413]}},{"type":"Feature","properties":{"id":1000072,"name":"Hanover","designated":1997,"area":7.1,"link":"https://historicengland.org.uk/listing/the-list/list-entry/1000072"},"geometry":{"type":"Point","coordinates":[-5.184361,50.335192]}},{"type":"Feature","properties":{"id":1000074,"name":"SALCOMBE CANNON SITE","designated":1997,"area":19.6,"link":"https://historicengland.org.uk/listing/the-list/list-entry/1000074"},"geometry":{"type":"Point","coordinates":[-3.745824,50.21219]}},{"type":"Feature","properties":{"id":1000075,"name":"MARY ROSE","designated":1974,"area":28.3,"link":"https://historicengland.org.uk/listing/the-list/list-entry/1000075"},"geometry":{"type":"Point","coordinates":[-1.104232,50.763904]}},{"type":"Feature","properties":{"id":1000076,"name":"LOE BAR WRECK","designated":1999,"area":19.6,"link":"https://historicengland.org.uk/listing/the-list/list-entry/1000076"},"geometry":{"type":"Point","coordinates":[-5.290669,50.063438]}},{"type":"Feature","properties":{"id":1000082,"name":"SWASH CHANNEL WRECK","designated":2004,"area":2,"link":"https://historicengland.org.uk/listing/the-list/list-entry/1000082"},"geometry":{"type":"Point","coordinates":[-1.925259,50.664318]}},{"type":"Feature","properties":{"id":1000083,"name":"WEST BAY","designated":2005,"area":0.8,"link":"https://historicengland.org.uk/listing/the-list/list-entry/1000083"},"geometry":{"type":"Point","coordinates":[-2.778468,50.704055]}},{"type":"Feature","properties":{"id":1000087,"name":"THE NEEDLES SITE","designated":1974,"area":12.6,"link":"https://historicengland.org.uk/listing/the-list/list-entry/1000087"},"geometry":{"type":"Point","coordinates":[-1.5919,50.662242]}},{"type":"Feature","properties":{"id":1402103,"name":"Unknown Wreck off Thorness Bay","designated":2013,"area":1.8,"link":"https://historicengland.org.uk/listing/the-list/list-entry/1402103"},"geometry":{"type":"Point","coordinates":[-1.35619,50.748189]}},{"type":"Feature","properties":{"id":1422537,"name":"HM submarine A3","designated":2016,"area":0.8,"link":"https://historicengland.org.uk/listing/the-list/list-entry/1422537"},"geometry":{"type":"Point","coordinates":[-2.187246,50.523137]}},{"type":"Feature","properties":{"id":1432595,"name":"Wreck of HMT Arfon","designated":2016,"area":0.8,"link":"https://historicengland.org.uk/listing/the-list/list-entry/1432595"},"geometry":{"type":"Point","coordinates":[-2.059312,50.543004]}},{"type":"Feature","properties":{"id":1433972,"name":"Unknown Wreck: Chesil Beach (Cannon Site)","designated":2017,"area":0.6,"link":"https://historicengland.org.uk/listing/the-list/list-entry/1433972"},"geometry":{"type":"Point","coordinates":[-2.534501,50.612704]}},{"type":"Feature","properties":{"id":1469106,"name":"Shingles Bank Wreck NW68","designated":2022,"area":1.8,"link":"https://historicengland.org.uk/listing/the-list/list-entry/1469106"},"geometry":{"type":"Point","coordinates":[-1.569842,50.69661]}},{"type":"Feature","properties":{"id":1469107,"name":"Shingles Bank Wreck NW96","designated":2022,"area":0.8,"link":"https://historicengland.org.uk/listing/the-list/list-entry/1469107"},"geometry":{"type":"Point","coordinates":[-1.583012,50.68704]}},{"type":"Feature","properties":{"id":1474570,"name":"Mortar Wreck","designated":2022,"area":0.8,"link":"https://historicengland.org.uk/listing/the-list/list-entry/1474570"},"geometry":{"type":"Point","coordinates":[-1.925913,50.658439]}}]}