{"type":"FeatureCollection","features":[{"type":"Feature","properties":{"n":302,"res":10000},"geometry":{"type":"Point","coordinates":[-5.441475,50.257442]}},{"type":"Feature","properties":{"n":153,"res":10000},"geometry":{"type":"Point","coordinates":[-5.543546,50.058531]}},{"type":"Feature","properties":{"n":107,"res":10000},"geometry":{"type":"Point","coordinates":[-5.725647,50.060636]}},{"type":"Feature","properties":{"n":61,"res":10000},"geometry":{"type":"Point","coordinates":[-4.901639,50.630786]}},{"type":"Feature","properties":{"n":59,"res":10000},"geometry":{"type":"Point","coordinates":[-5.125705,49.978559]}},{"type":"Feature","properties":{"n":54,"res":10000},"geometry":{"type":"Point","coordinates":[-5.304746,50.348003]}},{"type":"Feature","properties":{"n":54,"res":10000},"geometry":{"type":"Point","coordinates":[-5.17251,50.443262]}},{"type":"Feature","properties":{"n":54,"res":10000},"geometry":{"type":"Point","coordinates":[-5.005367,50.086862]}},{"type":"Feature","properties":{"n":49,"res":10000},"geometry":{"type":"Point","coordinates":[-5.008451,50.133004]}},{"type":"Feature","properties":{"n":39,"res":10000},"geometry":{"type":"Point","coordinates":[-5.317379,50.277926]}},{"type":"Feature","properties":{"n":37,"res":10000},"geometry":{"type":"Point","coordinates":[-0.228434,50.806668]}},{"type":"Feature","properties":{"n":34,"res":10000},"geometry":{"type":"Point","coordinates":[-5.071209,50.457555]}},{"type":"Feature","properties":{"n":33,"res":10000},"geometry":{"type":"Point","coordinates":[-5.724414,50.161583]}},{"type":"Feature","properties":{"n":32,"res":10000},"geometry":{"type":"Point","coordinates":[-0.098349,50.797509]}},{"type":"Feature","properties":{"n":31,"res":10000},"geometry":{"type":"Point","coordinates":[-1.216883,50.560499]}},{"type":"Feature","properties":{"n":29,"res":10000},"geometry":{"type":"Point","coordinates":[-5.196236,50.363255]}},{"type":"Feature","properties":{"n":25,"res":10000},"geometry":{"type":"Point","coordinates":[-5.430131,50.068846]}},{"type":"Feature","properties":{"n":23,"res":10000},"geometry":{"type":"Point","coordinates":[-5.440572,50.199742]}},{"type":"Feature","properties":{"n":22,"res":10000},"geometry":{"type":"Point","coordinates":[-5.615469,50.19119]}},{"type":"Feature","properties":{"n":21,"res":10000},"geometry":{"type":"Point","coordinates":[-0.651801,50.743246]}},{"type":"Feature","properties":{"n":19,"res":10000},"geometry":{"type":"Point","coordinates":[-4.868876,50.17648]}},{"type":"Feature","properties":{"n":17,"res":10000},"geometry":{"type":"Point","coordinates":[-1.074486,50.747529]}},{"type":"Feature","properties":{"n":16,"res":10000},"geometry":{"type":"Point","coordinates":[-4.942107,50.576876]}},{"type":"Feature","properties":{"n":16,"res":10000},"geometry":{"type":"Point","coordinates":[-2.495421,50.483107]}},{"type":"Feature","properties":{"n":15,"res":10000},"geometry":{"type":"Point","coordinates":[-5.320853,50.057355]}},{"type":"Feature","properties":{"n":15,"res":10000},"geometry":{"type":"Point","coordinates":[-2.517889,50.565553]}},{"type":"Feature","properties":{"n":15,"res":10000},"geometry":{"type":"Point","coordinates":[-1.925148,50.571069]}},{"type":"Feature","properties":{"n":15,"res":10000},"geometry":{"type":"Point","coordinates":[-1.511396,50.640704]}},{"type":"Feature","properties":{"n":15,"res":10000},"geometry":{"type":"Point","coordinates":[0.050648,50.734598]}},{"type":"Feature","properties":{"n":13,"res":10000},"geometry":{"type":"Point","coordinates":[-4.593197,50.323015]}},{"type":"Feature","properties":{"n":12,"res":10000},"geometry":{"type":"Point","coordinates":[-5.111531,50.099885]}},{"type":"Feature","properties":{"n":12,"res":10000},"geometry":{"type":"Point","coordinates":[-0.51314,50.745115]}},{"type":"Feature","properties":{"n":11,"res":10000},"geometry":{"type":"Point","coordinates":[-5.697502,49.976179]}},{"type":"Feature","properties":{"n":11,"res":10000},"geometry":{"type":"Point","coordinates":[-5.051337,50.542308]}},{"type":"Feature","properties":{"n":11,"res":10000},"geometry":{"type":"Point","coordinates":[-4.160339,50.332833]}},{"type":"Feature","properties":{"n":10,"res":10000},"geometry":{"type":"Point","coordinates":[-1.070982,50.654633]}},{"type":"Feature","properties":{"n":10,"res":10000},"geometry":{"type":"Point","coordinates":[-0.357253,50.800655]}},{"type":"Feature","properties":{"n":9,"res":10000},"geometry":{"type":"Point","coordinates":[-4.723407,50.270463]}},{"type":"Feature","properties":{"n":9,"res":10000},"geometry":{"type":"Point","coordinates":[-3.466829,50.387516]}},{"type":"Feature","properties":{"n":9,"res":10000},"geometry":{"type":"Point","coordinates":[-1.647732,50.664134]}},{"type":"Feature","properties":{"n":9,"res":10000},"geometry":{"type":"Point","coordinates":[-0.798835,50.658476]}},{"type":"Feature","properties":{"n":8,"res":10000},"geometry":{"type":"Point","coordinates":[-5.558315,49.980537]}},{"type":"Feature","properties":{"n":8,"res":10000},"geometry":{"type":"Point","coordinates":[-4.867252,50.089651]}},{"type":"Feature","properties":{"n":7,"res":10000},"geometry":{"type":"Point","coordinates":[-0.94053,50.744212]}},{"type":"Feature","properties":{"n":6,"res":10000},"geometry":{"type":"Point","coordinates":[-5.293973,49.983951]}},{"type":"Feature","properties":{"n":6,"res":10000},"geometry":{"type":"Point","coordinates":[-4.797861,50.6415]}},{"type":"Feature","properties":{"n":6,"res":10000},"geometry":{"type":"Point","coordinates":[-1.369959,50.761082]}},{"type":"Feature","properties":{"n":6,"res":10000},"geometry":{"type":"Point","coordinates":[-0.797256,50.720274]}},{"type":"Feature","properties":{"n":5,"res":10000},"geometry":{"type":"Point","coordinates":[-5.975773,49.966962]}},{"type":"Feature","properties":{"n":5,"res":10000},"geometry":{"type":"Point","coordinates":[-4.438379,50.339822]}},{"type":"Feature","properties":{"n":5,"res":10000},"geometry":{"type":"Point","coordinates":[-1.778023,50.717344]}},{"type":"Feature","properties":{"n":5,"res":10000},"geometry":{"type":"Point","coordinates":[-1.491942,50.732729]}},{"type":"Feature","properties":{"n":5,"res":10000},"geometry":{"type":"Point","coordinates":[-1.217543,50.76667]}},{"type":"Feature","properties":{"n":4,"res":10000},"geometry":{"type":"Point","coordinates":[-5.134717,49.902808]}},{"type":"Feature","properties":{"n":4,"res":10000},"geometry":{"type":"Point","coordinates":[-4.597684,50.275891]}},{"type":"Feature","properties":{"n":4,"res":10000},"geometry":{"type":"Point","coordinates":[-4.312922,50.191976]}},{"type":"Feature","properties":{"n":4,"res":10000},"geometry":{"type":"Point","coordinates":[-1.917616,50.66884]}},{"type":"Feature","properties":{"n":3,"res":10000},"geometry":{"type":"Point","coordinates":[-5.836655,49.971654]}},{"type":"Feature","properties":{"n":3,"res":10000},"geometry":{"type":"Point","coordinates":[-5.843819,50.061389]}},{"type":"Feature","properties":{"n":3,"res":10000},"geometry":{"type":"Point","coordinates":[-5.041117,50.624958]}},{"type":"Feature","properties":{"n":3,"res":10000},"geometry":{"type":"Point","coordinates":[-4.732456,50.182687]}},{"type":"Feature","properties":{"n":3,"res":10000},"geometry":{"type":"Point","coordinates":[-4.765668,50.722904]}},{"type":"Feature","properties":{"n":3,"res":10000},"geometry":{"type":"Point","coordinates":[-4.038963,50.27463]}},{"type":"Feature","properties":{"n":3,"res":10000},"geometry":{"type":"Point","coordinates":[-0.508292,50.801159]}},{"type":"Feature","properties":{"n":3,"res":10000},"geometry":{"type":"Point","coordinates":[-0.229801,50.741158]}},{"type":"Feature","properties":{"n":3,"res":10000},"geometry":{"type":"Point","coordinates":[0.189164,50.718203]}},{"type":"Feature","properties":{"n":2,"res":10000},"geometry":{"type":"Point","coordinates":[-5.580001,50.251087]}},{"type":"Feature","properties":{"n":2,"res":10000},"geometry":{"type":"Point","coordinates":[-5.176224,50.531394]}},{"type":"Feature","properties":{"n":2,"res":10000},"geometry":{"type":"Point","coordinates":[-5.001119,49.996231]}},{"type":"Feature","properties":{"n":2,"res":10000},"geometry":{"type":"Point","coordinates":[-4.847211,50.229391]}},{"type":"Feature","properties":{"n":2,"res":10000},"geometry":{"type":"Point","coordinates":[-4.718188,50.328601]}},{"type":"Feature","properties":{"n":2,"res":10000},"geometry":{"type":"Point","coordinates":[-4.32645,50.342996]}},{"type":"Feature","properties":{"n":2,"res":10000},"geometry":{"type":"Point","coordinates":[-4.176816,50.282875]}},{"type":"Feature","properties":{"n":2,"res":10000},"geometry":{"type":"Point","coordinates":[-3.920226,50.270734]}},{"type":"Feature","properties":{"n":2,"res":10000},"geometry":{"type":"Point","coordinates":[-3.451974,50.554053]}},{"type":"Feature","properties":{"n":2,"res":10000},"geometry":{"type":"Point","coordinates":[0.001499,50.785593]}},{"type":"Feature","properties":{"n":1,"res":10000},"geometry":{"type":"Point","coordinates":[-6.193421,50.859054]}},{"type":"Feature","properties":{"n":1,"res":10000},"geometry":{"type":"Point","coordinates":[-4.628891,50.815599]}},{"type":"Feature","properties":{"n":1,"res":10000},"geometry":{"type":"Point","coordinates":[-4.245008,51.087616]}},{"type":"Feature","properties":{"n":1,"res":10000},"geometry":{"type":"Point","coordinates":[-6.107212,49.872396]}},{"type":"Feature","properties":{"n":1,"res":10000},"geometry":{"type":"Point","coordinates":[-6.114852,49.962104]}},{"type":"Feature","properties":{"n":1,"res":10000},"geometry":{"type":"Point","coordinates":[-5.851018,50.151123]}},{"type":"Feature","properties":{"n":1,"res":10000},"geometry":{"type":"Point","coordinates":[-5.690632,49.886427]}},{"type":"Feature","properties":{"n":1,"res":10000},"geometry":{"type":"Point","coordinates":[-5.317083,50.527462]}},{"type":"Feature","properties":{"n":1,"res":10000},"geometry":{"type":"Point","coordinates":[-4.722533,50.003183]}},{"type":"Feature","properties":{"n":1,"res":10000},"geometry":{"type":"Point","coordinates":[-4.592826,50.186062]}},{"type":"Feature","properties":{"n":1,"res":10000},"geometry":{"type":"Point","coordinates":[-4.44372,50.009394]}},{"type":"Feature","properties":{"n":1,"res":10000},"geometry":{"type":"Point","coordinates":[-4.317277,50.281836]}},{"type":"Feature","properties":{"n":1,"res":10000},"geometry":{"type":"Point","coordinates":[-4.172937,50.19468]}},{"type":"Feature","properties":{"n":1,"res":10000},"geometry":{"type":"Point","coordinates":[-3.754217,50.187437]}},{"type":"Feature","properties":{"n":1,"res":10000},"geometry":{"type":"Point","coordinates":[-3.592039,50.284928]}},{"type":"Feature","properties":{"n":1,"res":10000},"geometry":{"type":"Point","coordinates":[-3.587884,50.390877]}},{"type":"Feature","properties":{"n":1,"res":10000},"geometry":{"type":"Point","coordinates":[-3.303452,50.625751]}},{"type":"Feature","properties":{"n":1,"res":10000},"geometry":{"type":"Point","coordinates":[-2.903358,50.717202]}},{"type":"Feature","properties":{"n":1,"res":10000},"geometry":{"type":"Point","coordinates":[-2.781132,50.660892]}},{"type":"Feature","properties":{"n":1,"res":10000},"geometry":{"type":"Point","coordinates":[-2.653693,50.643876]}},{"type":"Feature","properties":{"n":1,"res":10000},"geometry":{"type":"Point","coordinates":[-2.353734,50.484267]}},{"type":"Feature","properties":{"n":1,"res":10000},"geometry":{"type":"Point","coordinates":[-2.353706,50.574448]}},{"type":"Feature","properties":{"n":1,"res":10000},"geometry":{"type":"Point","coordinates":[-2.214066,50.573386]}},{"type":"Feature","properties":{"n":1,"res":10000},"geometry":{"type":"Point","coordinates":[-2.076608,50.562149]}},{"type":"Feature","properties":{"n":1,"res":10000},"geometry":{"type":"Point","coordinates":[-2.048859,50.707909]}},{"type":"Feature","properties":{"n":1,"res":10000},"geometry":{"type":"Point","coordinates":[-1.372695,50.568501]}},{"type":"Feature","properties":{"n":1,"res":10000},"geometry":{"type":"Point","coordinates":[-1.412938,50.626338]}},{"type":"Feature","properties":{"n":1,"res":10000},"geometry":{"type":"Point","coordinates":[-1.23483,49.942676]}},{"type":"Feature","properties":{"n":1,"res":10000},"geometry":{"type":"Point","coordinates":[-0.371463,50.743222]}},{"type":"Feature","properties":{"n":1,"res":10000},"geometry":{"type":"Point","coordinates":[-0.233182,50.651273]}},{"type":"Feature","properties":{"n":1,"res":10000},"geometry":{"type":"Point","coordinates":[-0.088157,50.738921]}}]}