{"type":"FeatureCollection","features":[{"type":"Feature","properties":{"n":2261,"res":10000},"geometry":{"type":"Point","coordinates":[-5.543546,50.058531]}},{"type":"Feature","properties":{"n":1045,"res":10000},"geometry":{"type":"Point","coordinates":[-5.005367,50.086862]}},{"type":"Feature","properties":{"n":931,"res":10000},"geometry":{"type":"Point","coordinates":[-5.558315,49.980537]}},{"type":"Feature","properties":{"n":856,"res":10000},"geometry":{"type":"Point","coordinates":[-4.901639,50.630786]}},{"type":"Feature","properties":{"n":660,"res":10000},"geometry":{"type":"Point","coordinates":[-5.441475,50.257442]}},{"type":"Feature","properties":{"n":460,"res":10000},"geometry":{"type":"Point","coordinates":[-5.304746,50.348003]}},{"type":"Feature","properties":{"n":426,"res":10000},"geometry":{"type":"Point","coordinates":[-5.008451,50.133004]}},{"type":"Feature","properties":{"n":376,"res":10000},"geometry":{"type":"Point","coordinates":[-5.125705,49.978559]}},{"type":"Feature","properties":{"n":296,"res":10000},"geometry":{"type":"Point","coordinates":[-5.430131,50.068846]}},{"type":"Feature","properties":{"n":225,"res":10000},"geometry":{"type":"Point","coordinates":[-5.725647,50.060636]}},{"type":"Feature","properties":{"n":222,"res":10000},"geometry":{"type":"Point","coordinates":[-4.868876,50.17648]}},{"type":"Feature","properties":{"n":191,"res":10000},"geometry":{"type":"Point","coordinates":[-5.17251,50.443262]}},{"type":"Feature","properties":{"n":189,"res":10000},"geometry":{"type":"Point","coordinates":[-5.071209,50.457555]}},{"type":"Feature","properties":{"n":189,"res":10000},"geometry":{"type":"Point","coordinates":[-4.867252,50.089651]}},{"type":"Feature","properties":{"n":152,"res":10000},"geometry":{"type":"Point","coordinates":[-5.697502,49.976179]}},{"type":"Feature","properties":{"n":151,"res":10000},"geometry":{"type":"Point","coordinates":[-5.001119,49.996231]}},{"type":"Feature","properties":{"n":146,"res":10000},"geometry":{"type":"Point","coordinates":[-4.176816,50.282875]}},{"type":"Feature","properties":{"n":136,"res":10000},"geometry":{"type":"Point","coordinates":[-5.724414,50.161583]}},{"type":"Feature","properties":{"n":124,"res":10000},"geometry":{"type":"Point","coordinates":[-3.466829,50.387516]}},{"type":"Feature","properties":{"n":115,"res":10000},"geometry":{"type":"Point","coordinates":[-4.038963,50.27463]}},{"type":"Feature","properties":{"n":110,"res":10000},"geometry":{"type":"Point","coordinates":[-4.723407,50.270463]}},{"type":"Feature","properties":{"n":94,"res":10000},"geometry":{"type":"Point","coordinates":[-5.196236,50.363255]}},{"type":"Feature","properties":{"n":89,"res":10000},"geometry":{"type":"Point","coordinates":[-5.317379,50.277926]}},{"type":"Feature","properties":{"n":86,"res":10000},"geometry":{"type":"Point","coordinates":[-5.051337,50.542308]}},{"type":"Feature","properties":{"n":82,"res":10000},"geometry":{"type":"Point","coordinates":[-5.419094,49.984729]}},{"type":"Feature","properties":{"n":74,"res":10000},"geometry":{"type":"Point","coordinates":[-5.975773,49.966962]}},{"type":"Feature","properties":{"n":74,"res":10000},"geometry":{"type":"Point","coordinates":[-4.797861,50.6415]}},{"type":"Feature","properties":{"n":53,"res":10000},"geometry":{"type":"Point","coordinates":[-4.732456,50.182687]}},{"type":"Feature","properties":{"n":50,"res":10000},"geometry":{"type":"Point","coordinates":[-5.440572,50.199742]}},{"type":"Feature","properties":{"n":46,"res":10000},"geometry":{"type":"Point","coordinates":[-5.041117,50.624958]}},{"type":"Feature","properties":{"n":42,"res":10000},"geometry":{"type":"Point","coordinates":[-5.111531,50.099885]}},{"type":"Feature","properties":{"n":40,"res":10000},"geometry":{"type":"Point","coordinates":[-6.114852,49.962104]}},{"type":"Feature","properties":{"n":33,"res":10000},"geometry":{"type":"Point","coordinates":[-5.836655,49.971654]}},{"type":"Feature","properties":{"n":32,"res":10000},"geometry":{"type":"Point","coordinates":[-4.942107,50.576876]}},{"type":"Feature","properties":{"n":30,"res":10000},"geometry":{"type":"Point","coordinates":[-3.451974,50.554053]}},{"type":"Feature","properties":{"n":28,"res":10000},"geometry":{"type":"Point","coordinates":[-5.134717,49.902808]}},{"type":"Feature","properties":{"n":25,"res":10000},"geometry":{"type":"Point","coordinates":[-5.615469,50.19119]}},{"type":"Feature","properties":{"n":24,"res":10000},"geometry":{"type":"Point","coordinates":[-4.32645,50.342996]}},{"type":"Feature","properties":{"n":23,"res":10000},"geometry":{"type":"Point","coordinates":[-4.765668,50.722904]}},{"type":"Feature","properties":{"n":22,"res":10000},"geometry":{"type":"Point","coordinates":[-4.718188,50.328601]}},{"type":"Feature","properties":{"n":21,"res":10000},"geometry":{"type":"Point","coordinates":[-4.58797,50.096218]}},{"type":"Feature","properties":{"n":19,"res":10000},"geometry":{"type":"Point","coordinates":[-5.293973,49.983951]}},{"type":"Feature","properties":{"n":19,"res":10000},"geometry":{"type":"Point","coordinates":[-3.467467,50.472283]}},{"type":"Feature","properties":{"n":18,"res":10000},"geometry":{"type":"Point","coordinates":[-4.905475,50.718373]}},{"type":"Feature","properties":{"n":18,"res":10000},"geometry":{"type":"Point","coordinates":[-4.597684,50.275891]}},{"type":"Feature","properties":{"n":15,"res":10000},"geometry":{"type":"Point","coordinates":[-4.583139,50.006372]}},{"type":"Feature","properties":{"n":15,"res":10000},"geometry":{"type":"Point","coordinates":[-3.587884,50.390877]}},{"type":"Feature","properties":{"n":14,"res":10000},"geometry":{"type":"Point","coordinates":[-5.320853,50.057355]}},{"type":"Feature","properties":{"n":14,"res":10000},"geometry":{"type":"Point","coordinates":[-4.861902,49.999826]}},{"type":"Feature","properties":{"n":10,"res":10000},"geometry":{"type":"Point","coordinates":[-6.107212,49.872396]}},{"type":"Feature","properties":{"n":10,"res":10000},"geometry":{"type":"Point","coordinates":[-5.273743,49.898962]}},{"type":"Feature","properties":{"n":10,"res":10000},"geometry":{"type":"Point","coordinates":[-5.089241,50.166653]}},{"type":"Feature","properties":{"n":10,"res":10000},"geometry":{"type":"Point","coordinates":[-5.176224,50.531394]}},{"type":"Feature","properties":{"n":10,"res":10000},"geometry":{"type":"Point","coordinates":[-4.317277,50.281836]}},{"type":"Feature","properties":{"n":10,"res":10000},"geometry":{"type":"Point","coordinates":[-3.337673,50.38718]}},{"type":"Feature","properties":{"n":9,"res":10000},"geometry":{"type":"Point","coordinates":[-5.843819,50.061389]}},{"type":"Feature","properties":{"n":9,"res":10000},"geometry":{"type":"Point","coordinates":[-4.160339,50.332833]}},{"type":"Feature","properties":{"n":9,"res":10000},"geometry":{"type":"Point","coordinates":[-3.754217,50.187437]}},{"type":"Feature","properties":{"n":8,"res":10000},"geometry":{"type":"Point","coordinates":[-5.968388,49.877239]}},{"type":"Feature","properties":{"n":8,"res":10000},"geometry":{"type":"Point","coordinates":[-4.593197,50.323015]}},{"type":"Feature","properties":{"n":7,"res":10000},"geometry":{"type":"Point","coordinates":[-4.457503,50.278954]}},{"type":"Feature","properties":{"n":7,"res":10000},"geometry":{"type":"Point","coordinates":[-4.172937,50.19468]}},{"type":"Feature","properties":{"n":7,"res":10000},"geometry":{"type":"Point","coordinates":[-1.216883,50.560499]}},{"type":"Feature","properties":{"n":6,"res":10000},"geometry":{"type":"Point","coordinates":[-4.628891,50.815599]}},{"type":"Feature","properties":{"n":6,"res":10000},"geometry":{"type":"Point","coordinates":[-5.04693,50.714759]}},{"type":"Feature","properties":{"n":6,"res":10000},"geometry":{"type":"Point","coordinates":[-4.847211,50.229391]}},{"type":"Feature","properties":{"n":6,"res":10000},"geometry":{"type":"Point","coordinates":[-4.438379,50.339822]}},{"type":"Feature","properties":{"n":6,"res":10000},"geometry":{"type":"Point","coordinates":[-4.312922,50.191976]}},{"type":"Feature","properties":{"n":6,"res":10000},"geometry":{"type":"Point","coordinates":[-2.903358,50.717202]}},{"type":"Feature","properties":{"n":6,"res":10000},"geometry":{"type":"Point","coordinates":[-2.653693,50.643876]}},{"type":"Feature","properties":{"n":6,"res":10000},"geometry":{"type":"Point","coordinates":[-1.511396,50.640704]}},{"type":"Feature","properties":{"n":5,"res":10000},"geometry":{"type":"Point","coordinates":[-5.829528,49.881916]}},{"type":"Feature","properties":{"n":5,"res":10000},"geometry":{"type":"Point","coordinates":[-5.851018,50.151123]}},{"type":"Feature","properties":{"n":5,"res":10000},"geometry":{"type":"Point","coordinates":[-5.580001,50.251087]}},{"type":"Feature","properties":{"n":5,"res":10000},"geometry":{"type":"Point","coordinates":[-5.317083,50.527462]}},{"type":"Feature","properties":{"n":5,"res":10000},"geometry":{"type":"Point","coordinates":[-4.661575,50.743963]}},{"type":"Feature","properties":{"n":5,"res":10000},"geometry":{"type":"Point","coordinates":[-1.372695,50.568501]}},{"type":"Feature","properties":{"n":4,"res":10000},"geometry":{"type":"Point","coordinates":[-4.995662,49.906487]}},{"type":"Feature","properties":{"n":4,"res":10000},"geometry":{"type":"Point","coordinates":[-4.722533,50.003183]}},{"type":"Feature","properties":{"n":4,"res":10000},"geometry":{"type":"Point","coordinates":[-4.727624,50.093018]}},{"type":"Feature","properties":{"n":4,"res":10000},"geometry":{"type":"Point","coordinates":[-4.29999,49.922383]}},{"type":"Feature","properties":{"n":4,"res":10000},"geometry":{"type":"Point","coordinates":[-2.495421,50.483107]}},{"type":"Feature","properties":{"n":3,"res":10000},"geometry":{"type":"Point","coordinates":[-4.554781,50.831604]}},{"type":"Feature","properties":{"n":3,"res":10000},"geometry":{"type":"Point","coordinates":[-5.983194,50.056683]}},{"type":"Feature","properties":{"n":3,"res":10000},"geometry":{"type":"Point","coordinates":[-5.3234,50.61724]}},{"type":"Feature","properties":{"n":3,"res":10000},"geometry":{"type":"Point","coordinates":[-5.04189,50.247757]}},{"type":"Feature","properties":{"n":3,"res":10000},"geometry":{"type":"Point","coordinates":[-4.856578,49.91]}},{"type":"Feature","properties":{"n":3,"res":10000},"geometry":{"type":"Point","coordinates":[-4.448291,50.099249]}},{"type":"Feature","properties":{"n":3,"res":10000},"geometry":{"type":"Point","coordinates":[-4.452886,50.189103]}},{"type":"Feature","properties":{"n":3,"res":10000},"geometry":{"type":"Point","coordinates":[-4.168867,50.104809]}},{"type":"Feature","properties":{"n":3,"res":10000},"geometry":{"type":"Point","coordinates":[-4.029122,50.107336]}},{"type":"Feature","properties":{"n":3,"res":10000},"geometry":{"type":"Point","coordinates":[-3.920226,50.270734]}},{"type":"Feature","properties":{"n":3,"res":10000},"geometry":{"type":"Point","coordinates":[-3.592039,50.284928]}},{"type":"Feature","properties":{"n":3,"res":10000},"geometry":{"type":"Point","coordinates":[-3.475284,50.295432]}},{"type":"Feature","properties":{"n":3,"res":10000},"geometry":{"type":"Point","coordinates":[-2.81542,50.713403]}},{"type":"Feature","properties":{"n":3,"res":10000},"geometry":{"type":"Point","coordinates":[-2.517889,50.565553]}},{"type":"Feature","properties":{"n":2,"res":10000},"geometry":{"type":"Point","coordinates":[-5.690632,49.886427]}},{"type":"Feature","properties":{"n":2,"res":10000},"geometry":{"type":"Point","coordinates":[-5.551702,49.890772]}},{"type":"Feature","properties":{"n":2,"res":10000},"geometry":{"type":"Point","coordinates":[-5.310796,50.437682]}},{"type":"Feature","properties":{"n":2,"res":10000},"geometry":{"type":"Point","coordinates":[-5.182274,50.621184]}},{"type":"Feature","properties":{"n":2,"res":10000},"geometry":{"type":"Point","coordinates":[-4.44372,50.009394]}},{"type":"Feature","properties":{"n":2,"res":10000},"geometry":{"type":"Point","coordinates":[-3.059893,50.656097]}},{"type":"Feature","properties":{"n":2,"res":10000},"geometry":{"type":"Point","coordinates":[-2.635622,50.483069]}},{"type":"Feature","properties":{"n":2,"res":10000},"geometry":{"type":"Point","coordinates":[-1.925148,50.571069]}},{"type":"Feature","properties":{"n":2,"res":10000},"geometry":{"type":"Point","coordinates":[-1.917616,50.66884]}},{"type":"Feature","properties":{"n":1,"res":10000},"geometry":{"type":"Point","coordinates":[-6.185383,50.769369]}},{"type":"Feature","properties":{"n":1,"res":10000},"geometry":{"type":"Point","coordinates":[-5.633312,50.967823]}},{"type":"Feature","properties":{"n":1,"res":10000},"geometry":{"type":"Point","coordinates":[-4.554724,50.937616]}},{"type":"Feature","properties":{"n":1,"res":10000},"geometry":{"type":"Point","coordinates":[-4.266951,51.037467]}},{"type":"Feature","properties":{"n":1,"res":10000},"geometry":{"type":"Point","coordinates":[-1.25701,50.81021]}},{"type":"Feature","properties":{"n":1,"res":10000},"geometry":{"type":"Point","coordinates":[-6.122531,50.051809]}},{"type":"Feature","properties":{"n":1,"res":10000},"geometry":{"type":"Point","coordinates":[-5.739461,50.514646]}},{"type":"Feature","properties":{"n":1,"res":10000},"geometry":{"type":"Point","coordinates":[-5.753733,50.694118]}},{"type":"Feature","properties":{"n":1,"res":10000},"geometry":{"type":"Point","coordinates":[-5.451358,50.433593]}},{"type":"Feature","properties":{"n":1,"res":10000},"geometry":{"type":"Point","coordinates":[-5.457909,50.52336]}},{"type":"Feature","properties":{"n":1,"res":10000},"geometry":{"type":"Point","coordinates":[-5.471112,50.702888]}},{"type":"Feature","properties":{"n":1,"res":10000},"geometry":{"type":"Point","coordinates":[-4.717468,49.913346]}},{"type":"Feature","properties":{"n":1,"res":10000},"geometry":{"type":"Point","coordinates":[-4.592826,50.186062]}},{"type":"Feature","properties":{"n":1,"res":10000},"geometry":{"type":"Point","coordinates":[-4.30859,50.102113]}},{"type":"Feature","properties":{"n":1,"res":10000},"geometry":{"type":"Point","coordinates":[-4.164816,50.014936]}},{"type":"Feature","properties":{"n":1,"res":10000},"geometry":{"type":"Point","coordinates":[-4.100353,50.378019]}},{"type":"Feature","properties":{"n":1,"res":10000},"geometry":{"type":"Point","coordinates":[-3.609084,50.201857]}},{"type":"Feature","properties":{"n":1,"res":10000},"geometry":{"type":"Point","coordinates":[-3.472728,50.205671]}},{"type":"Feature","properties":{"n":1,"res":10000},"geometry":{"type":"Point","coordinates":[-3.33515,50.297272]}},{"type":"Feature","properties":{"n":1,"res":10000},"geometry":{"type":"Point","coordinates":[-3.201595,50.568534]}},{"type":"Feature","properties":{"n":1,"res":10000},"geometry":{"type":"Point","coordinates":[-2.920966,50.661009]}},{"type":"Feature","properties":{"n":1,"res":10000},"geometry":{"type":"Point","coordinates":[-2.048859,50.707909]}},{"type":"Feature","properties":{"n":1,"res":10000},"geometry":{"type":"Point","coordinates":[-1.647732,50.664134]}},{"type":"Feature","properties":{"n":1,"res":10000},"geometry":{"type":"Point","coordinates":[-1.491942,50.732729]}},{"type":"Feature","properties":{"n":1,"res":10000},"geometry":{"type":"Point","coordinates":[-1.070982,50.654633]}},{"type":"Feature","properties":{"n":1,"res":10000},"geometry":{"type":"Point","coordinates":[0.050648,50.734598]}},{"type":"Feature","properties":{"n":1,"res":10000},"geometry":{"type":"Point","coordinates":[0.189164,50.718203]}}]}