{"type":"FeatureCollection","features":[{"type":"Feature","properties":{"n":7,"res":2000},"geometry":{"type":"Point","coordinates":[-5.614516,50.356668]}},{"type":"Feature","properties":{"n":7,"res":2000},"geometry":{"type":"Point","coordinates":[-5.615881,50.374618]}},{"type":"Feature","properties":{"n":6,"res":2000},"geometry":{"type":"Point","coordinates":[-5.586456,50.357537]}},{"type":"Feature","properties":{"n":6,"res":2000},"geometry":{"type":"Point","coordinates":[-5.561086,50.394304]}},{"type":"Feature","properties":{"n":5,"res":2000},"geometry":{"type":"Point","coordinates":[-5.67063,50.354908]}},{"type":"Feature","properties":{"n":4,"res":2000},"geometry":{"type":"Point","coordinates":[-5.672017,50.372857]}},{"type":"Feature","properties":{"n":4,"res":2000},"geometry":{"type":"Point","coordinates":[-5.64395,50.373741]}},{"type":"Feature","properties":{"n":4,"res":2000},"geometry":{"type":"Point","coordinates":[-5.559741,50.376352]}},{"type":"Feature","properties":{"n":4,"res":2000},"geometry":{"type":"Point","coordinates":[-5.589168,50.39344]}},{"type":"Feature","properties":{"n":3,"res":2000},"geometry":{"type":"Point","coordinates":[-5.642574,50.355791]}},{"type":"Feature","properties":{"n":3,"res":2000},"geometry":{"type":"Point","coordinates":[-5.587812,50.375488]}},{"type":"Feature","properties":{"n":3,"res":2000},"geometry":{"type":"Point","coordinates":[-5.558396,50.358401]}},{"type":"Feature","properties":{"n":3,"res":2000},"geometry":{"type":"Point","coordinates":[-5.055738,50.048008]}},{"type":"Feature","properties":{"n":3,"res":2000},"geometry":{"type":"Point","coordinates":[-5.037043,50.12132]}},{"type":"Feature","properties":{"n":3,"res":2000},"geometry":{"type":"Point","coordinates":[-5.038705,50.157572]}},{"type":"Feature","properties":{"n":2,"res":2000},"geometry":{"type":"Point","coordinates":[-5.669245,50.336958]}},{"type":"Feature","properties":{"n":2,"res":2000},"geometry":{"type":"Point","coordinates":[-4.982233,50.140701]}},{"type":"Feature","properties":{"n":2,"res":2000},"geometry":{"type":"Point","coordinates":[-4.720504,49.967256]}},{"type":"Feature","properties":{"n":2,"res":2000},"geometry":{"type":"Point","coordinates":[-4.692648,49.967906]}},{"type":"Feature","properties":{"n":2,"res":2000},"geometry":{"type":"Point","coordinates":[-3.640142,50.221134]}},{"type":"Feature","properties":{"n":2,"res":2000},"geometry":{"type":"Point","coordinates":[-3.502388,50.479447]}},{"type":"Feature","properties":{"n":1,"res":2000},"geometry":{"type":"Point","coordinates":[-4.554065,50.943135]}},{"type":"Feature","properties":{"n":1,"res":2000},"geometry":{"type":"Point","coordinates":[-4.245828,51.044191]}},{"type":"Feature","properties":{"n":1,"res":2000},"geometry":{"type":"Point","coordinates":[-5.846694,50.09729]}},{"type":"Feature","properties":{"n":1,"res":2000},"geometry":{"type":"Point","coordinates":[-5.641199,50.337841]}},{"type":"Feature","properties":{"n":1,"res":2000},"geometry":{"type":"Point","coordinates":[-5.613151,50.338717]}},{"type":"Feature","properties":{"n":1,"res":2000},"geometry":{"type":"Point","coordinates":[-5.590526,50.411391]}},{"type":"Feature","properties":{"n":1,"res":2000},"geometry":{"type":"Point","coordinates":[-5.562434,50.412256]}},{"type":"Feature","properties":{"n":1,"res":2000},"geometry":{"type":"Point","coordinates":[-5.059249,50.068004]}},{"type":"Feature","properties":{"n":1,"res":2000},"geometry":{"type":"Point","coordinates":[-4.981166,50.122769]}},{"type":"Feature","properties":{"n":1,"res":2000},"geometry":{"type":"Point","coordinates":[-5.087003,50.461839]}},{"type":"Feature","properties":{"n":1,"res":2000},"geometry":{"type":"Point","coordinates":[-4.694656,50.003841]}},{"type":"Feature","properties":{"n":1,"res":2000},"geometry":{"type":"Point","coordinates":[-4.148976,50.285078]}},{"type":"Feature","properties":{"n":1,"res":2000},"geometry":{"type":"Point","coordinates":[-4.12174,50.303564]}},{"type":"Feature","properties":{"n":1,"res":2000},"geometry":{"type":"Point","coordinates":[-4.15141,50.339]}},{"type":"Feature","properties":{"n":1,"res":2000},"geometry":{"type":"Point","coordinates":[-4.15158,50.355431]}},{"type":"Feature","properties":{"n":1,"res":2000},"geometry":{"type":"Point","coordinates":[-3.980646,50.28807]}},{"type":"Feature","properties":{"n":1,"res":2000},"geometry":{"type":"Point","coordinates":[-3.507053,50.406006]}},{"type":"Feature","properties":{"n":1,"res":2000},"geometry":{"type":"Point","coordinates":[-2.451399,50.556567]}},{"type":"Feature","properties":{"n":1,"res":2000},"geometry":{"type":"Point","coordinates":[-2.298034,50.592346]}},{"type":"Feature","properties":{"n":1,"res":2000},"geometry":{"type":"Point","coordinates":[-1.873973,50.682588]}},{"type":"Feature","properties":{"n":1,"res":2000},"geometry":{"type":"Point","coordinates":[-0.180101,50.560526]}}]}