{"type":"FeatureCollection","features":[{"type":"Feature","properties":{"n":43,"res":2000},"geometry":{"type":"Point","coordinates":[-3.502388,50.479447]}},{"type":"Feature","properties":{"n":38,"res":2000},"geometry":{"type":"Point","coordinates":[-2.451399,50.556567]}},{"type":"Feature","properties":{"n":24,"res":2000},"geometry":{"type":"Point","coordinates":[-4.15158,50.355431]}},{"type":"Feature","properties":{"n":21,"res":2000},"geometry":{"type":"Point","coordinates":[-5.059249,50.068004]}},{"type":"Feature","properties":{"n":17,"res":2000},"geometry":{"type":"Point","coordinates":[-0.766117,50.728857]}},{"type":"Feature","properties":{"n":16,"res":2000},"geometry":{"type":"Point","coordinates":[-5.037757,50.138933]}},{"type":"Feature","properties":{"n":16,"res":2000},"geometry":{"type":"Point","coordinates":[-1.950789,50.613665]}},{"type":"Feature","properties":{"n":15,"res":2000},"geometry":{"type":"Point","coordinates":[-5.117646,50.098422]}},{"type":"Feature","properties":{"n":14,"res":2000},"geometry":{"type":"Point","coordinates":[-5.038705,50.157572]}},{"type":"Feature","properties":{"n":14,"res":2000},"geometry":{"type":"Point","coordinates":[-4.178028,50.320473]}},{"type":"Feature","properties":{"n":14,"res":2000},"geometry":{"type":"Point","coordinates":[-3.507053,50.406006]}},{"type":"Feature","properties":{"n":13,"res":2000},"geometry":{"type":"Point","coordinates":[-3.640142,50.221134]}},{"type":"Feature","properties":{"n":12,"res":2000},"geometry":{"type":"Point","coordinates":[-4.130399,50.338833]}},{"type":"Feature","properties":{"n":12,"res":2000},"geometry":{"type":"Point","coordinates":[-3.507043,50.45285]}},{"type":"Feature","properties":{"n":11,"res":2000},"geometry":{"type":"Point","coordinates":[-3.479253,50.456746]}},{"type":"Feature","properties":{"n":10,"res":2000},"geometry":{"type":"Point","coordinates":[-1.53882,50.701]}},{"type":"Feature","properties":{"n":10,"res":2000},"geometry":{"type":"Point","coordinates":[-0.142481,50.811055]}},{"type":"Feature","properties":{"n":9,"res":2000},"geometry":{"type":"Point","coordinates":[-4.12174,50.303564]}},{"type":"Feature","properties":{"n":9,"res":2000},"geometry":{"type":"Point","coordinates":[-3.641745,50.257034]}},{"type":"Feature","properties":{"n":8,"res":2000},"geometry":{"type":"Point","coordinates":[-5.055738,50.048008]}},{"type":"Feature","properties":{"n":8,"res":2000},"geometry":{"type":"Point","coordinates":[-3.870126,50.254092]}},{"type":"Feature","properties":{"n":8,"res":2000},"geometry":{"type":"Point","coordinates":[-3.72614,50.200216]}},{"type":"Feature","properties":{"n":8,"res":2000},"geometry":{"type":"Point","coordinates":[-1.948267,50.650781]}},{"type":"Feature","properties":{"n":8,"res":2000},"geometry":{"type":"Point","coordinates":[-1.92986,50.647868]}},{"type":"Feature","properties":{"n":7,"res":2000},"geometry":{"type":"Point","coordinates":[-5.483995,50.108609]}},{"type":"Feature","properties":{"n":7,"res":2000},"geometry":{"type":"Point","coordinates":[-5.064979,50.120585]}},{"type":"Feature","properties":{"n":7,"res":2000},"geometry":{"type":"Point","coordinates":[-4.196722,50.332474]}},{"type":"Feature","properties":{"n":7,"res":2000},"geometry":{"type":"Point","coordinates":[-4.00853,50.287477]}},{"type":"Feature","properties":{"n":7,"res":2000},"geometry":{"type":"Point","coordinates":[-3.535041,50.40773]}},{"type":"Feature","properties":{"n":7,"res":2000},"geometry":{"type":"Point","coordinates":[-2.13478,50.606073]}},{"type":"Feature","properties":{"n":7,"res":2000},"geometry":{"type":"Point","coordinates":[-1.928751,50.627273]}},{"type":"Feature","properties":{"n":7,"res":2000},"geometry":{"type":"Point","coordinates":[-1.873973,50.682588]}},{"type":"Feature","properties":{"n":6,"res":2000},"geometry":{"type":"Point","coordinates":[-4.236051,50.319704]}},{"type":"Feature","properties":{"n":6,"res":2000},"geometry":{"type":"Point","coordinates":[-4.15141,50.339]}},{"type":"Feature","properties":{"n":6,"res":2000},"geometry":{"type":"Point","coordinates":[-3.868798,50.234688]}},{"type":"Feature","properties":{"n":6,"res":2000},"geometry":{"type":"Point","coordinates":[-2.01401,50.587031]}},{"type":"Feature","properties":{"n":6,"res":2000},"geometry":{"type":"Point","coordinates":[-1.477721,50.717834]}},{"type":"Feature","properties":{"n":6,"res":2000},"geometry":{"type":"Point","coordinates":[-0.711513,50.747482]}},{"type":"Feature","properties":{"n":6,"res":2000},"geometry":{"type":"Point","coordinates":[-0.142678,50.793771]}},{"type":"Feature","properties":{"n":6,"res":2000},"geometry":{"type":"Point","coordinates":[-0.114318,50.793315]}},{"type":"Feature","properties":{"n":5,"res":2000},"geometry":{"type":"Point","coordinates":[-5.058693,50.030493]}},{"type":"Feature","properties":{"n":5,"res":2000},"geometry":{"type":"Point","coordinates":[-5.063521,50.137232]}},{"type":"Feature","properties":{"n":5,"res":2000},"geometry":{"type":"Point","coordinates":[-5.011006,50.155979]}},{"type":"Feature","properties":{"n":5,"res":2000},"geometry":{"type":"Point","coordinates":[-5.083782,50.42679]}},{"type":"Feature","properties":{"n":5,"res":2000},"geometry":{"type":"Point","coordinates":[-4.205461,50.314289]}},{"type":"Feature","properties":{"n":5,"res":2000},"geometry":{"type":"Point","coordinates":[-4.126048,50.320383]}},{"type":"Feature","properties":{"n":5,"res":2000},"geometry":{"type":"Point","coordinates":[-4.093552,50.304051]}},{"type":"Feature","properties":{"n":5,"res":2000},"geometry":{"type":"Point","coordinates":[-4.03661,50.286271]}},{"type":"Feature","properties":{"n":5,"res":2000},"geometry":{"type":"Point","coordinates":[-3.980646,50.28807]}},{"type":"Feature","properties":{"n":5,"res":2000},"geometry":{"type":"Point","coordinates":[-3.981611,50.301954]}},{"type":"Feature","properties":{"n":5,"res":2000},"geometry":{"type":"Point","coordinates":[-3.642051,50.239383]}},{"type":"Feature","properties":{"n":5,"res":2000},"geometry":{"type":"Point","coordinates":[-3.478241,50.385453]}},{"type":"Feature","properties":{"n":5,"res":2000},"geometry":{"type":"Point","coordinates":[-3.477979,50.403906]}},{"type":"Feature","properties":{"n":5,"res":2000},"geometry":{"type":"Point","coordinates":[-3.504738,50.492923]}},{"type":"Feature","properties":{"n":5,"res":2000},"geometry":{"type":"Point","coordinates":[-3.480708,50.475624]}},{"type":"Feature","properties":{"n":5,"res":2000},"geometry":{"type":"Point","coordinates":[-2.213065,50.61033]}},{"type":"Feature","properties":{"n":5,"res":2000},"geometry":{"type":"Point","coordinates":[-0.883702,50.659327]}},{"type":"Feature","properties":{"n":5,"res":2000},"geometry":{"type":"Point","coordinates":[-0.171039,50.794219]}},{"type":"Feature","properties":{"n":4,"res":2000},"geometry":{"type":"Point","coordinates":[-0.906729,50.802214]}},{"type":"Feature","properties":{"n":4,"res":2000},"geometry":{"type":"Point","coordinates":[-0.870361,50.818194]}},{"type":"Feature","properties":{"n":4,"res":2000},"geometry":{"type":"Point","coordinates":[-5.011059,50.138145]}},{"type":"Feature","properties":{"n":4,"res":2000},"geometry":{"type":"Point","coordinates":[-4.488585,50.32917]}},{"type":"Feature","properties":{"n":4,"res":2000},"geometry":{"type":"Point","coordinates":[-4.064818,50.286602]}},{"type":"Feature","properties":{"n":4,"res":2000},"geometry":{"type":"Point","coordinates":[-3.42553,50.600417]}},{"type":"Feature","properties":{"n":4,"res":2000},"geometry":{"type":"Point","coordinates":[-2.808123,50.679853]}},{"type":"Feature","properties":{"n":4,"res":2000},"geometry":{"type":"Point","coordinates":[-2.837359,50.714986]}},{"type":"Feature","properties":{"n":4,"res":2000},"geometry":{"type":"Point","coordinates":[-2.472692,50.57083]}},{"type":"Feature","properties":{"n":4,"res":2000},"geometry":{"type":"Point","coordinates":[-1.988101,50.701211]}},{"type":"Feature","properties":{"n":4,"res":2000},"geometry":{"type":"Point","coordinates":[-1.959318,50.681638]}},{"type":"Feature","properties":{"n":4,"res":2000},"geometry":{"type":"Point","coordinates":[-1.902394,50.628659]}},{"type":"Feature","properties":{"n":4,"res":2000},"geometry":{"type":"Point","coordinates":[-1.902319,50.66463]}},{"type":"Feature","properties":{"n":4,"res":2000},"geometry":{"type":"Point","coordinates":[-1.504214,50.704292]}},{"type":"Feature","properties":{"n":4,"res":2000},"geometry":{"type":"Point","coordinates":[-1.162983,50.625355]}},{"type":"Feature","properties":{"n":4,"res":2000},"geometry":{"type":"Point","coordinates":[-1.102119,50.717297]}},{"type":"Feature","properties":{"n":4,"res":2000},"geometry":{"type":"Point","coordinates":[-0.684683,50.693224]}},{"type":"Feature","properties":{"n":4,"res":2000},"geometry":{"type":"Point","coordinates":[-0.199402,50.79466]}},{"type":"Feature","properties":{"n":4,"res":2000},"geometry":{"type":"Point","coordinates":[-0.057683,50.792329]}},{"type":"Feature","properties":{"n":4,"res":2000},"geometry":{"type":"Point","coordinates":[0.110223,50.75298]}},{"type":"Feature","properties":{"n":4,"res":2000},"geometry":{"type":"Point","coordinates":[0.139608,50.75075]}},{"type":"Feature","properties":{"n":3,"res":2000},"geometry":{"type":"Point","coordinates":[-1.253429,50.818533]}},{"type":"Feature","properties":{"n":3,"res":2000},"geometry":{"type":"Point","coordinates":[-0.867776,50.834956]}},{"type":"Feature","properties":{"n":3,"res":2000},"geometry":{"type":"Point","coordinates":[-5.089048,50.099559]}},{"type":"Feature","properties":{"n":3,"res":2000},"geometry":{"type":"Point","coordinates":[-5.194492,50.334598]}},{"type":"Feature","properties":{"n":3,"res":2000},"geometry":{"type":"Point","coordinates":[-5.166446,50.352846]}},{"type":"Feature","properties":{"n":3,"res":2000},"geometry":{"type":"Point","coordinates":[-5.009105,50.122048]}},{"type":"Feature","properties":{"n":3,"res":2000},"geometry":{"type":"Point","coordinates":[-4.763834,50.236095]}},{"type":"Feature","properties":{"n":3,"res":2000},"geometry":{"type":"Point","coordinates":[-4.814254,50.599815]}},{"type":"Feature","properties":{"n":3,"res":2000},"geometry":{"type":"Point","coordinates":[-4.178222,50.336051]}},{"type":"Feature","properties":{"n":3,"res":2000},"geometry":{"type":"Point","coordinates":[-3.8656,50.21802]}},{"type":"Feature","properties":{"n":3,"res":2000},"geometry":{"type":"Point","coordinates":[-3.924805,50.288004]}},{"type":"Feature","properties":{"n":3,"res":2000},"geometry":{"type":"Point","coordinates":[-3.696002,50.202119]}},{"type":"Feature","properties":{"n":3,"res":2000},"geometry":{"type":"Point","coordinates":[-3.635633,50.291125]}},{"type":"Feature","properties":{"n":3,"res":2000},"geometry":{"type":"Point","coordinates":[-3.612439,50.309266]}},{"type":"Feature","properties":{"n":3,"res":2000},"geometry":{"type":"Point","coordinates":[-3.583939,50.323246]}},{"type":"Feature","properties":{"n":3,"res":2000},"geometry":{"type":"Point","coordinates":[-2.865393,50.715413]}},{"type":"Feature","properties":{"n":3,"res":2000},"geometry":{"type":"Point","coordinates":[-2.80939,50.712923]}},{"type":"Feature","properties":{"n":3,"res":2000},"geometry":{"type":"Point","coordinates":[-2.468069,50.537908]}},{"type":"Feature","properties":{"n":3,"res":2000},"geometry":{"type":"Point","coordinates":[-2.326289,50.59227]}},{"type":"Feature","properties":{"n":3,"res":2000},"geometry":{"type":"Point","coordinates":[-2.186198,50.609537]}},{"type":"Feature","properties":{"n":3,"res":2000},"geometry":{"type":"Point","coordinates":[-1.987356,50.587345]}},{"type":"Feature","properties":{"n":3,"res":2000},"geometry":{"type":"Point","coordinates":[-1.930723,50.592708]}},{"type":"Feature","properties":{"n":3,"res":2000},"geometry":{"type":"Point","coordinates":[-1.56155,50.658663]}},{"type":"Feature","properties":{"n":3,"res":2000},"geometry":{"type":"Point","coordinates":[-1.54523,50.686372]}},{"type":"Feature","properties":{"n":3,"res":2000},"geometry":{"type":"Point","coordinates":[-1.47816,50.645455]}},{"type":"Feature","properties":{"n":3,"res":2000},"geometry":{"type":"Point","coordinates":[-1.412822,50.718769]}},{"type":"Feature","properties":{"n":3,"res":2000},"geometry":{"type":"Point","coordinates":[-1.365881,50.740419]}},{"type":"Feature","properties":{"n":3,"res":2000},"geometry":{"type":"Point","coordinates":[-1.167334,50.781818]}},{"type":"Feature","properties":{"n":3,"res":2000},"geometry":{"type":"Point","coordinates":[-1.079582,50.698963]}},{"type":"Feature","properties":{"n":3,"res":2000},"geometry":{"type":"Point","coordinates":[-0.968966,50.642126]}},{"type":"Feature","properties":{"n":3,"res":2000},"geometry":{"type":"Point","coordinates":[-0.769137,50.712133]}},{"type":"Feature","properties":{"n":3,"res":2000},"geometry":{"type":"Point","coordinates":[-0.712498,50.711521]}},{"type":"Feature","properties":{"n":3,"res":2000},"geometry":{"type":"Point","coordinates":[-0.539394,50.796238]}},{"type":"Feature","properties":{"n":3,"res":2000},"geometry":{"type":"Point","coordinates":[-0.11493,50.808308]}},{"type":"Feature","properties":{"n":3,"res":2000},"geometry":{"type":"Point","coordinates":[-0.594954,49.90072]}},{"type":"Feature","properties":{"n":3,"res":2000},"geometry":{"type":"Point","coordinates":[-0.51314,50.745122]}},{"type":"Feature","properties":{"n":3,"res":2000},"geometry":{"type":"Point","coordinates":[-0.058344,50.77441]}},{"type":"Feature","properties":{"n":2,"res":2000},"geometry":{"type":"Point","coordinates":[-4.277333,51.024007]}},{"type":"Feature","properties":{"n":2,"res":2000},"geometry":{"type":"Point","coordinates":[-4.245828,51.044191]}},{"type":"Feature","properties":{"n":2,"res":2000},"geometry":{"type":"Point","coordinates":[-0.996213,50.822265]}},{"type":"Feature","properties":{"n":2,"res":2000},"geometry":{"type":"Point","coordinates":[-5.707007,50.084981]}},{"type":"Feature","properties":{"n":2,"res":2000},"geometry":{"type":"Point","coordinates":[-5.562114,50.061887]}},{"type":"Feature","properties":{"n":2,"res":2000},"geometry":{"type":"Point","coordinates":[-5.533964,50.070136]}},{"type":"Feature","properties":{"n":2,"res":2000},"geometry":{"type":"Point","coordinates":[-5.530872,50.089388]}},{"type":"Feature","properties":{"n":2,"res":2000},"geometry":{"type":"Point","coordinates":[-5.486947,50.122485]}},{"type":"Feature","properties":{"n":2,"res":2000},"geometry":{"type":"Point","coordinates":[-5.41694,50.207358]}},{"type":"Feature","properties":{"n":2,"res":2000},"geometry":{"type":"Point","coordinates":[-5.301848,50.263497]}},{"type":"Feature","properties":{"n":2,"res":2000},"geometry":{"type":"Point","coordinates":[-5.11221,50.084178]}},{"type":"Feature","properties":{"n":2,"res":2000},"geometry":{"type":"Point","coordinates":[-5.087762,50.088835]}},{"type":"Feature","properties":{"n":2,"res":2000},"geometry":{"type":"Point","coordinates":[-5.084599,50.119878]}},{"type":"Feature","properties":{"n":2,"res":2000},"geometry":{"type":"Point","coordinates":[-5.112947,50.425203]}},{"type":"Feature","properties":{"n":2,"res":2000},"geometry":{"type":"Point","coordinates":[-5.032502,50.049472]}},{"type":"Feature","properties":{"n":2,"res":2000},"geometry":{"type":"Point","coordinates":[-5.04209,50.192704]}},{"type":"Feature","properties":{"n":2,"res":2000},"geometry":{"type":"Point","coordinates":[-4.981237,50.572543]}},{"type":"Feature","properties":{"n":2,"res":2000},"geometry":{"type":"Point","coordinates":[-4.781995,50.269418]}},{"type":"Feature","properties":{"n":2,"res":2000},"geometry":{"type":"Point","coordinates":[-4.693243,50.341409]}},{"type":"Feature","properties":{"n":2,"res":2000},"geometry":{"type":"Point","coordinates":[-4.628411,50.323689]}},{"type":"Feature","properties":{"n":2,"res":2000},"geometry":{"type":"Point","coordinates":[-4.262885,50.318894]}},{"type":"Feature","properties":{"n":2,"res":2000},"geometry":{"type":"Point","coordinates":[-4.177849,50.30253]}},{"type":"Feature","properties":{"n":2,"res":2000},"geometry":{"type":"Point","coordinates":[-4.043554,50.312458]}},{"type":"Feature","properties":{"n":2,"res":2000},"geometry":{"type":"Point","coordinates":[-4.046716,50.326592]}},{"type":"Feature","properties":{"n":2,"res":2000},"geometry":{"type":"Point","coordinates":[-3.89433,50.235544]}},{"type":"Feature","properties":{"n":2,"res":2000},"geometry":{"type":"Point","coordinates":[-3.952686,50.288464]}},{"type":"Feature","properties":{"n":2,"res":2000},"geometry":{"type":"Point","coordinates":[-3.953474,50.30372]}},{"type":"Feature","properties":{"n":2,"res":2000},"geometry":{"type":"Point","coordinates":[-3.757694,50.2563]}},{"type":"Feature","properties":{"n":2,"res":2000},"geometry":{"type":"Point","coordinates":[-3.640817,50.203425]}},{"type":"Feature","properties":{"n":2,"res":2000},"geometry":{"type":"Point","coordinates":[-3.584789,50.204203]}},{"type":"Feature","properties":{"n":2,"res":2000},"geometry":{"type":"Point","coordinates":[-3.558931,50.329456]}},{"type":"Feature","properties":{"n":2,"res":2000},"geometry":{"type":"Point","coordinates":[-3.535697,50.420716]}},{"type":"Feature","properties":{"n":2,"res":2000},"geometry":{"type":"Point","coordinates":[-3.535046,50.453726]}},{"type":"Feature","properties":{"n":2,"res":2000},"geometry":{"type":"Point","coordinates":[-3.400737,50.60188]}},{"type":"Feature","properties":{"n":2,"res":2000},"geometry":{"type":"Point","coordinates":[-3.315556,50.620587]}},{"type":"Feature","properties":{"n":2,"res":2000},"geometry":{"type":"Point","coordinates":[-3.005354,50.694522]}},{"type":"Feature","properties":{"n":2,"res":2000},"geometry":{"type":"Point","coordinates":[-2.977943,50.678551]}},{"type":"Feature","properties":{"n":2,"res":2000},"geometry":{"type":"Point","coordinates":[-2.978266,50.696466]}},{"type":"Feature","properties":{"n":2,"res":2000},"geometry":{"type":"Point","coordinates":[-2.92169,50.696996]}},{"type":"Feature","properties":{"n":2,"res":2000},"geometry":{"type":"Point","coordinates":[-2.893718,50.7152]}},{"type":"Feature","properties":{"n":2,"res":2000},"geometry":{"type":"Point","coordinates":[-2.836108,50.66167]}},{"type":"Feature","properties":{"n":2,"res":2000},"geometry":{"type":"Point","coordinates":[-2.468849,50.519788]}},{"type":"Feature","properties":{"n":2,"res":2000},"geometry":{"type":"Point","coordinates":[-2.558889,50.622548]}},{"type":"Feature","properties":{"n":2,"res":2000},"geometry":{"type":"Point","coordinates":[-2.433988,50.624762]}},{"type":"Feature","properties":{"n":2,"res":2000},"geometry":{"type":"Point","coordinates":[-2.41087,50.574026]}},{"type":"Feature","properties":{"n":2,"res":2000},"geometry":{"type":"Point","coordinates":[-2.411442,50.627084]}},{"type":"Feature","properties":{"n":2,"res":2000},"geometry":{"type":"Point","coordinates":[-2.383743,50.62718]}},{"type":"Feature","properties":{"n":2,"res":2000},"geometry":{"type":"Point","coordinates":[-2.270048,50.610277]}},{"type":"Feature","properties":{"n":2,"res":2000},"geometry":{"type":"Point","coordinates":[-2.156762,50.592622]}},{"type":"Feature","properties":{"n":2,"res":2000},"geometry":{"type":"Point","coordinates":[-2.12836,50.538699]}},{"type":"Feature","properties":{"n":2,"res":2000},"geometry":{"type":"Point","coordinates":[-2.128458,50.574671]}},{"type":"Feature","properties":{"n":2,"res":2000},"geometry":{"type":"Point","coordinates":[-1.930688,50.610695]}},{"type":"Feature","properties":{"n":2,"res":2000},"geometry":{"type":"Point","coordinates":[-1.902431,50.610673]}},{"type":"Feature","properties":{"n":2,"res":2000},"geometry":{"type":"Point","coordinates":[-1.95848,50.701304]}},{"type":"Feature","properties":{"n":2,"res":2000},"geometry":{"type":"Point","coordinates":[-1.929309,50.681968]}},{"type":"Feature","properties":{"n":2,"res":2000},"geometry":{"type":"Point","coordinates":[-1.939232,50.696488]}},{"type":"Feature","properties":{"n":2,"res":2000},"geometry":{"type":"Point","coordinates":[-1.902282,50.682615]}},{"type":"Feature","properties":{"n":2,"res":2000},"geometry":{"type":"Point","coordinates":[-1.873925,50.700574]}},{"type":"Feature","properties":{"n":2,"res":2000},"geometry":{"type":"Point","coordinates":[-1.845664,50.682554]}},{"type":"Feature","properties":{"n":2,"res":2000},"geometry":{"type":"Point","coordinates":[-1.67629,50.731599]}},{"type":"Feature","properties":{"n":2,"res":2000},"geometry":{"type":"Point","coordinates":[-1.56348,50.682935]}},{"type":"Feature","properties":{"n":2,"res":2000},"geometry":{"type":"Point","coordinates":[-1.506188,50.661645]}},{"type":"Feature","properties":{"n":2,"res":2000},"geometry":{"type":"Point","coordinates":[-1.452525,50.721886]}},{"type":"Feature","properties":{"n":2,"res":2000},"geometry":{"type":"Point","coordinates":[-1.421926,50.627103]}},{"type":"Feature","properties":{"n":2,"res":2000},"geometry":{"type":"Point","coordinates":[-1.393483,50.736848]}},{"type":"Feature","properties":{"n":2,"res":2000},"geometry":{"type":"Point","coordinates":[-1.363559,50.782356]}},{"type":"Feature","properties":{"n":2,"res":2000},"geometry":{"type":"Point","coordinates":[-1.305738,50.772509]}},{"type":"Feature","properties":{"n":2,"res":2000},"geometry":{"type":"Point","coordinates":[-1.245085,50.754749]}},{"type":"Feature","properties":{"n":2,"res":2000},"geometry":{"type":"Point","coordinates":[-1.22171,50.752007]}},{"type":"Feature","properties":{"n":2,"res":2000},"geometry":{"type":"Point","coordinates":[-1.135075,50.656751]}},{"type":"Feature","properties":{"n":2,"res":2000},"geometry":{"type":"Point","coordinates":[-1.11071,50.625308]}},{"type":"Feature","properties":{"n":2,"res":2000},"geometry":{"type":"Point","coordinates":[-1.11037,50.643291]}},{"type":"Feature","properties":{"n":2,"res":2000},"geometry":{"type":"Point","coordinates":[-1.052723,50.696795]}},{"type":"Feature","properties":{"n":2,"res":2000},"geometry":{"type":"Point","coordinates":[-1.025898,50.62463]}},{"type":"Feature","properties":{"n":2,"res":2000},"geometry":{"type":"Point","coordinates":[-1.108669,50.733208]}},{"type":"Feature","properties":{"n":2,"res":2000},"geometry":{"type":"Point","coordinates":[-1.048486,50.780743]}},{"type":"Feature","properties":{"n":2,"res":2000},"geometry":{"type":"Point","coordinates":[-0.995328,50.732287]}},{"type":"Feature","properties":{"n":2,"res":2000},"geometry":{"type":"Point","coordinates":[-0.994558,50.768251]}},{"type":"Feature","properties":{"n":2,"res":2000},"geometry":{"type":"Point","coordinates":[-0.826676,50.676753]}},{"type":"Feature","properties":{"n":2,"res":2000},"geometry":{"type":"Point","coordinates":[-0.798377,50.676465]}},{"type":"Feature","properties":{"n":2,"res":2000},"geometry":{"type":"Point","coordinates":[-0.769608,50.694151]}},{"type":"Feature","properties":{"n":2,"res":2000},"geometry":{"type":"Point","coordinates":[-0.797458,50.712428]}},{"type":"Feature","properties":{"n":2,"res":2000},"geometry":{"type":"Point","coordinates":[-0.802557,50.725474]}},{"type":"Feature","properties":{"n":2,"res":2000},"geometry":{"type":"Point","coordinates":[-0.758511,50.745076]}},{"type":"Feature","properties":{"n":2,"res":2000},"geometry":{"type":"Point","coordinates":[-0.73505,50.76239]}},{"type":"Feature","properties":{"n":2,"res":2000},"geometry":{"type":"Point","coordinates":[-0.68069,50.77727]}},{"type":"Feature","properties":{"n":2,"res":2000},"geometry":{"type":"Point","coordinates":[-0.654832,50.746842]}},{"type":"Feature","properties":{"n":2,"res":2000},"geometry":{"type":"Point","coordinates":[-0.599226,50.710215]}},{"type":"Feature","properties":{"n":2,"res":2000},"geometry":{"type":"Point","coordinates":[-0.36527,50.808156]}},{"type":"Feature","properties":{"n":2,"res":2000},"geometry":{"type":"Point","coordinates":[-0.19871,50.812637]}},{"type":"Feature","properties":{"n":2,"res":2000},"geometry":{"type":"Point","coordinates":[-0.003208,50.786125]}},{"type":"Feature","properties":{"n":2,"res":2000},"geometry":{"type":"Point","coordinates":[-0.485383,50.726778]}},{"type":"Feature","properties":{"n":2,"res":2000},"geometry":{"type":"Point","coordinates":[-0.484803,50.744757]}},{"type":"Feature","properties":{"n":2,"res":2000},"geometry":{"type":"Point","coordinates":[-0.428734,50.726028]}},{"type":"Feature","properties":{"n":2,"res":2000},"geometry":{"type":"Point","coordinates":[-0.426926,50.779964]}},{"type":"Feature","properties":{"n":2,"res":2000},"geometry":{"type":"Point","coordinates":[-0.400409,50.725643]}},{"type":"Feature","properties":{"n":2,"res":2000},"geometry":{"type":"Point","coordinates":[-0.31415,50.760402]}},{"type":"Feature","properties":{"n":2,"res":2000},"geometry":{"type":"Point","coordinates":[0.026618,50.772903]}},{"type":"Feature","properties":{"n":2,"res":2000},"geometry":{"type":"Point","coordinates":[0.055151,50.7723]}},{"type":"Feature","properties":{"n":2,"res":2000},"geometry":{"type":"Point","coordinates":[0.108499,50.699562]}},{"type":"Feature","properties":{"n":2,"res":2000},"geometry":{"type":"Point","coordinates":[0.165581,50.748715]}},{"type":"Feature","properties":{"n":1,"res":2000},"geometry":{"type":"Point","coordinates":[-4.57316,50.782304]}},{"type":"Feature","properties":{"n":1,"res":2000},"geometry":{"type":"Point","coordinates":[-4.497232,51.022516]}},{"type":"Feature","properties":{"n":1,"res":2000},"geometry":{"type":"Point","coordinates":[-4.410237,51.01793]}},{"type":"Feature","properties":{"n":1,"res":2000},"geometry":{"type":"Point","coordinates":[-4.243342,51.092761]}},{"type":"Feature","properties":{"n":1,"res":2000},"geometry":{"type":"Point","coordinates":[-1.420444,50.804007]}},{"type":"Feature","properties":{"n":1,"res":2000},"geometry":{"type":"Point","coordinates":[-1.339273,50.856983]}},{"type":"Feature","properties":{"n":1,"res":2000},"geometry":{"type":"Point","coordinates":[-1.305484,50.8247]}},{"type":"Feature","properties":{"n":1,"res":2000},"geometry":{"type":"Point","coordinates":[-1.310529,50.841071]}},{"type":"Feature","properties":{"n":1,"res":2000},"geometry":{"type":"Point","coordinates":[-1.278522,50.822956]}},{"type":"Feature","properties":{"n":1,"res":2000},"geometry":{"type":"Point","coordinates":[-1.222683,50.804456]}},{"type":"Feature","properties":{"n":1,"res":2000},"geometry":{"type":"Point","coordinates":[-0.902205,50.821762]}},{"type":"Feature","properties":{"n":1,"res":2000},"geometry":{"type":"Point","coordinates":[-0.852565,50.805682]}},{"type":"Feature","properties":{"n":1,"res":2000},"geometry":{"type":"Point","coordinates":[-0.588482,50.792524]}},{"type":"Feature","properties":{"n":1,"res":2000},"geometry":{"type":"Point","coordinates":[-5.645629,50.031532]}},{"type":"Feature","properties":{"n":1,"res":2000},"geometry":{"type":"Point","coordinates":[-5.712453,50.118896]}},{"type":"Feature","properties":{"n":1,"res":2000},"geometry":{"type":"Point","coordinates":[-5.59098,50.047217]}},{"type":"Feature","properties":{"n":1,"res":2000},"geometry":{"type":"Point","coordinates":[-5.56197,50.051091]}},{"type":"Feature","properties":{"n":1,"res":2000},"geometry":{"type":"Point","coordinates":[-5.535395,50.106249]}},{"type":"Feature","properties":{"n":1,"res":2000},"geometry":{"type":"Point","coordinates":[-5.510486,50.089963]}},{"type":"Feature","properties":{"n":1,"res":2000},"geometry":{"type":"Point","coordinates":[-5.51241,50.121981]}},{"type":"Feature","properties":{"n":1,"res":2000},"geometry":{"type":"Point","coordinates":[-5.374448,50.090978]}},{"type":"Feature","properties":{"n":1,"res":2000},"geometry":{"type":"Point","coordinates":[-5.409089,50.23693]}},{"type":"Feature","properties":{"n":1,"res":2000},"geometry":{"type":"Point","coordinates":[-5.263889,50.02388]}},{"type":"Feature","properties":{"n":1,"res":2000},"geometry":{"type":"Point","coordinates":[-5.227781,49.968469]}},{"type":"Feature","properties":{"n":1,"res":2000},"geometry":{"type":"Point","coordinates":[-5.267845,50.036086]}},{"type":"Feature","properties":{"n":1,"res":2000},"geometry":{"type":"Point","coordinates":[-5.252809,50.284304]}},{"type":"Feature","properties":{"n":1,"res":2000},"geometry":{"type":"Point","coordinates":[-5.246946,50.313694]}},{"type":"Feature","properties":{"n":1,"res":2000},"geometry":{"type":"Point","coordinates":[-5.193069,49.954211]}},{"type":"Feature","properties":{"n":1,"res":2000},"geometry":{"type":"Point","coordinates":[-5.16447,49.990971]}},{"type":"Feature","properties":{"n":1,"res":2000},"geometry":{"type":"Point","coordinates":[-5.160623,50.003557]}},{"type":"Feature","properties":{"n":1,"res":2000},"geometry":{"type":"Point","coordinates":[-5.200958,50.322311]}},{"type":"Feature","properties":{"n":1,"res":2000},"geometry":{"type":"Point","coordinates":[-5.140891,50.424413]}},{"type":"Feature","properties":{"n":1,"res":2000},"geometry":{"type":"Point","coordinates":[-5.062625,50.084673]}},{"type":"Feature","properties":{"n":1,"res":2000},"geometry":{"type":"Point","coordinates":[-5.063832,50.102624]}},{"type":"Feature","properties":{"n":1,"res":2000},"geometry":{"type":"Point","coordinates":[-5.037043,50.12132]}},{"type":"Feature","properties":{"n":1,"res":2000},"geometry":{"type":"Point","coordinates":[-4.98005,50.104807]}},{"type":"Feature","properties":{"n":1,"res":2000},"geometry":{"type":"Point","coordinates":[-5.038292,50.175888]}},{"type":"Feature","properties":{"n":1,"res":2000},"geometry":{"type":"Point","coordinates":[-5.022957,50.177048]}},{"type":"Feature","properties":{"n":1,"res":2000},"geometry":{"type":"Point","coordinates":[-4.954333,50.141447]}},{"type":"Feature","properties":{"n":1,"res":2000},"geometry":{"type":"Point","coordinates":[-5.062862,50.429917]}},{"type":"Feature","properties":{"n":1,"res":2000},"geometry":{"type":"Point","coordinates":[-5.060026,50.480543]}},{"type":"Feature","properties":{"n":1,"res":2000},"geometry":{"type":"Point","coordinates":[-5.037999,50.517215]}},{"type":"Feature","properties":{"n":1,"res":2000},"geometry":{"type":"Point","coordinates":[-5.008132,50.554125]}},{"type":"Feature","properties":{"n":1,"res":2000},"geometry":{"type":"Point","coordinates":[-4.900804,50.196311]}},{"type":"Feature","properties":{"n":1,"res":2000},"geometry":{"type":"Point","coordinates":[-4.871838,50.59612]}},{"type":"Feature","properties":{"n":1,"res":2000},"geometry":{"type":"Point","coordinates":[-4.735823,50.236758]}},{"type":"Feature","properties":{"n":1,"res":2000},"geometry":{"type":"Point","coordinates":[-4.739942,50.308626]}},{"type":"Feature","properties":{"n":1,"res":2000},"geometry":{"type":"Point","coordinates":[-4.711893,50.309281]}},{"type":"Feature","properties":{"n":1,"res":2000},"geometry":{"type":"Point","coordinates":[-4.655678,50.310525]}},{"type":"Feature","properties":{"n":1,"res":2000},"geometry":{"type":"Point","coordinates":[-4.452649,50.342642]}},{"type":"Feature","properties":{"n":1,"res":2000},"geometry":{"type":"Point","coordinates":[-4.432203,50.333461]}},{"type":"Feature","properties":{"n":1,"res":2000},"geometry":{"type":"Point","coordinates":[-4.432512,50.351047]}},{"type":"Feature","properties":{"n":1,"res":2000},"geometry":{"type":"Point","coordinates":[-4.405041,50.352017]}},{"type":"Feature","properties":{"n":1,"res":2000},"geometry":{"type":"Point","coordinates":[-4.29182,50.336316]}},{"type":"Feature","properties":{"n":1,"res":2000},"geometry":{"type":"Point","coordinates":[-4.263863,50.336779]}},{"type":"Feature","properties":{"n":1,"res":2000},"geometry":{"type":"Point","coordinates":[-4.150598,50.321026]}},{"type":"Feature","properties":{"n":1,"res":2000},"geometry":{"type":"Point","coordinates":[-4.127768,50.357103]}},{"type":"Feature","properties":{"n":1,"res":2000},"geometry":{"type":"Point","coordinates":[-4.065298,50.296112]}},{"type":"Feature","properties":{"n":1,"res":2000},"geometry":{"type":"Point","coordinates":[-4.005869,50.299746]}},{"type":"Feature","properties":{"n":1,"res":2000},"geometry":{"type":"Point","coordinates":[-3.950384,50.234616]}},{"type":"Feature","properties":{"n":1,"res":2000},"geometry":{"type":"Point","coordinates":[-3.838655,50.217777]}},{"type":"Feature","properties":{"n":1,"res":2000},"geometry":{"type":"Point","coordinates":[-3.951119,50.252592]}},{"type":"Feature","properties":{"n":1,"res":2000},"geometry":{"type":"Point","coordinates":[-3.895676,50.27135]}},{"type":"Feature","properties":{"n":1,"res":2000},"geometry":{"type":"Point","coordinates":[-3.901436,50.284792]}},{"type":"Feature","properties":{"n":1,"res":2000},"geometry":{"type":"Point","coordinates":[-3.772738,50.230564]}},{"type":"Feature","properties":{"n":1,"res":2000},"geometry":{"type":"Point","coordinates":[-3.752863,50.201788]}},{"type":"Feature","properties":{"n":1,"res":2000},"geometry":{"type":"Point","coordinates":[-3.757405,50.23975]}},{"type":"Feature","properties":{"n":1,"res":2000},"geometry":{"type":"Point","coordinates":[-3.68911,50.214677]}},{"type":"Feature","properties":{"n":1,"res":2000},"geometry":{"type":"Point","coordinates":[-3.666326,50.131108]}},{"type":"Feature","properties":{"n":1,"res":2000},"geometry":{"type":"Point","coordinates":[-3.610384,50.131897]}},{"type":"Feature","properties":{"n":1,"res":2000},"geometry":{"type":"Point","coordinates":[-3.668829,50.203025]}},{"type":"Feature","properties":{"n":1,"res":2000},"geometry":{"type":"Point","coordinates":[-3.670252,50.216408]}},{"type":"Feature","properties":{"n":1,"res":2000},"geometry":{"type":"Point","coordinates":[-3.587177,50.276122]}},{"type":"Feature","properties":{"n":1,"res":2000},"geometry":{"type":"Point","coordinates":[-3.641292,50.405442]}},{"type":"Feature","properties":{"n":1,"res":2000},"geometry":{"type":"Point","coordinates":[-3.58198,50.36479]}},{"type":"Feature","properties":{"n":1,"res":2000},"geometry":{"type":"Point","coordinates":[-3.553938,50.438167]}},{"type":"Feature","properties":{"n":1,"res":2000},"geometry":{"type":"Point","coordinates":[-3.532095,50.330156]}},{"type":"Feature","properties":{"n":1,"res":2000},"geometry":{"type":"Point","coordinates":[-3.504488,50.348974]}},{"type":"Feature","properties":{"n":1,"res":2000},"geometry":{"type":"Point","coordinates":[-3.500335,50.376748]}},{"type":"Feature","properties":{"n":1,"res":2000},"geometry":{"type":"Point","coordinates":[-3.371837,50.600978]}},{"type":"Feature","properties":{"n":1,"res":2000},"geometry":{"type":"Point","coordinates":[-3.141219,50.407268]}},{"type":"Feature","properties":{"n":1,"res":2000},"geometry":{"type":"Point","coordinates":[-3.062037,50.641843]}},{"type":"Feature","properties":{"n":1,"res":2000},"geometry":{"type":"Point","coordinates":[-3.033757,50.642098]}},{"type":"Feature","properties":{"n":1,"res":2000},"geometry":{"type":"Point","coordinates":[-2.950004,50.696769]}},{"type":"Feature","properties":{"n":1,"res":2000},"geometry":{"type":"Point","coordinates":[-2.921338,50.679013]}},{"type":"Feature","properties":{"n":1,"res":2000},"geometry":{"type":"Point","coordinates":[-2.865062,50.69743]}},{"type":"Feature","properties":{"n":1,"res":2000},"geometry":{"type":"Point","coordinates":[-2.948414,50.711354]}},{"type":"Feature","properties":{"n":1,"res":2000},"geometry":{"type":"Point","coordinates":[-2.894848,50.728392]}},{"type":"Feature","properties":{"n":1,"res":2000},"geometry":{"type":"Point","coordinates":[-2.836427,50.679653]}},{"type":"Feature","properties":{"n":1,"res":2000},"geometry":{"type":"Point","coordinates":[-2.780117,50.698029]}},{"type":"Feature","properties":{"n":1,"res":2000},"geometry":{"type":"Point","coordinates":[-2.752642,50.697488]}},{"type":"Feature","properties":{"n":1,"res":2000},"geometry":{"type":"Point","coordinates":[-2.723208,50.680411]}},{"type":"Feature","properties":{"n":1,"res":2000},"geometry":{"type":"Point","coordinates":[-2.620794,50.65538]}},{"type":"Feature","properties":{"n":1,"res":2000},"geometry":{"type":"Point","coordinates":[-2.523864,50.573563]}},{"type":"Feature","properties":{"n":1,"res":2000},"geometry":{"type":"Point","coordinates":[-2.467247,50.555789]}},{"type":"Feature","properties":{"n":1,"res":2000},"geometry":{"type":"Point","coordinates":[-2.462378,50.588722]}},{"type":"Feature","properties":{"n":1,"res":2000},"geometry":{"type":"Point","coordinates":[-2.439245,50.591805]}},{"type":"Feature","properties":{"n":1,"res":2000},"geometry":{"type":"Point","coordinates":[-2.408497,50.556688]}},{"type":"Feature","properties":{"n":1,"res":2000},"geometry":{"type":"Point","coordinates":[-2.298034,50.592346]}},{"type":"Feature","properties":{"n":1,"res":2000},"geometry":{"type":"Point","coordinates":[-2.354726,50.625278]}},{"type":"Feature","properties":{"n":1,"res":2000},"geometry":{"type":"Point","coordinates":[-2.300134,50.621878]}},{"type":"Feature","properties":{"n":1,"res":2000},"geometry":{"type":"Point","coordinates":[-2.184946,50.574595]}},{"type":"Feature","properties":{"n":1,"res":2000},"geometry":{"type":"Point","coordinates":[-2.158014,50.607578]}},{"type":"Feature","properties":{"n":1,"res":2000},"geometry":{"type":"Point","coordinates":[-2.128677,50.592547]}},{"type":"Feature","properties":{"n":1,"res":2000},"geometry":{"type":"Point","coordinates":[-2.07533,50.588906]}},{"type":"Feature","properties":{"n":1,"res":2000},"geometry":{"type":"Point","coordinates":[-1.956161,50.590046]}},{"type":"Feature","properties":{"n":1,"res":2000},"geometry":{"type":"Point","coordinates":[-1.874165,50.610646]}},{"type":"Feature","properties":{"n":1,"res":2000},"geometry":{"type":"Point","coordinates":[-1.987208,50.686403]}},{"type":"Feature","properties":{"n":1,"res":2000},"geometry":{"type":"Point","coordinates":[-1.902356,50.646644]}},{"type":"Feature","properties":{"n":1,"res":2000},"geometry":{"type":"Point","coordinates":[-1.872005,50.712786]}},{"type":"Feature","properties":{"n":1,"res":2000},"geometry":{"type":"Point","coordinates":[-1.817634,50.610572]}},{"type":"Feature","properties":{"n":1,"res":2000},"geometry":{"type":"Point","coordinates":[-1.845724,50.664569]}},{"type":"Feature","properties":{"n":1,"res":2000},"geometry":{"type":"Point","coordinates":[-1.817356,50.682513]}},{"type":"Feature","properties":{"n":1,"res":2000},"geometry":{"type":"Point","coordinates":[-1.789047,50.682466]}},{"type":"Feature","properties":{"n":1,"res":2000},"geometry":{"type":"Point","coordinates":[-1.761012,50.628455]}},{"type":"Feature","properties":{"n":1,"res":2000},"geometry":{"type":"Point","coordinates":[-1.844951,50.714317]}},{"type":"Feature","properties":{"n":1,"res":2000},"geometry":{"type":"Point","coordinates":[-1.731596,50.718129]}},{"type":"Feature","properties":{"n":1,"res":2000},"geometry":{"type":"Point","coordinates":[-1.592445,50.502086]}},{"type":"Feature","properties":{"n":1,"res":2000},"geometry":{"type":"Point","coordinates":[-1.675937,50.664221]}},{"type":"Feature","properties":{"n":1,"res":2000},"geometry":{"type":"Point","coordinates":[-1.675814,50.682206]}},{"type":"Feature","properties":{"n":1,"res":2000},"geometry":{"type":"Point","coordinates":[-1.591358,50.627984]}},{"type":"Feature","properties":{"n":1,"res":2000},"geometry":{"type":"Point","coordinates":[-1.591203,50.645969]}},{"type":"Feature","properties":{"n":1,"res":2000},"geometry":{"type":"Point","coordinates":[-1.591436,50.66401]}},{"type":"Feature","properties":{"n":1,"res":2000},"geometry":{"type":"Point","coordinates":[-1.703342,50.731835]}},{"type":"Feature","properties":{"n":1,"res":2000},"geometry":{"type":"Point","coordinates":[-1.533593,50.660593]}},{"type":"Feature","properties":{"n":1,"res":2000},"geometry":{"type":"Point","coordinates":[-1.478258,50.627533]}},{"type":"Feature","properties":{"n":1,"res":2000},"geometry":{"type":"Point","coordinates":[-1.487105,50.707717]}},{"type":"Feature","properties":{"n":1,"res":2000},"geometry":{"type":"Point","coordinates":[-1.449984,50.627403]}},{"type":"Feature","properties":{"n":1,"res":2000},"geometry":{"type":"Point","coordinates":[-1.453069,50.641967]}},{"type":"Feature","properties":{"n":1,"res":2000},"geometry":{"type":"Point","coordinates":[-1.558711,50.716412]}},{"type":"Feature","properties":{"n":1,"res":2000},"geometry":{"type":"Point","coordinates":[-1.504785,50.749413]}},{"type":"Feature","properties":{"n":1,"res":2000},"geometry":{"type":"Point","coordinates":[-1.42193,50.609281]}},{"type":"Feature","properties":{"n":1,"res":2000},"geometry":{"type":"Point","coordinates":[-1.310848,50.571625]}},{"type":"Feature","properties":{"n":1,"res":2000},"geometry":{"type":"Point","coordinates":[-1.293863,50.702231]}},{"type":"Feature","properties":{"n":1,"res":2000},"geometry":{"type":"Point","coordinates":[-1.420365,50.735205]}},{"type":"Feature","properties":{"n":1,"res":2000},"geometry":{"type":"Point","coordinates":[-1.397213,50.720793]}},{"type":"Feature","properties":{"n":1,"res":2000},"geometry":{"type":"Point","coordinates":[-1.39082,50.77032]}},{"type":"Feature","properties":{"n":1,"res":2000},"geometry":{"type":"Point","coordinates":[-1.363461,50.752862]}},{"type":"Feature","properties":{"n":1,"res":2000},"geometry":{"type":"Point","coordinates":[-1.293264,50.752763]}},{"type":"Feature","properties":{"n":1,"res":2000},"geometry":{"type":"Point","coordinates":[-1.165039,50.607272]}},{"type":"Feature","properties":{"n":1,"res":2000},"geometry":{"type":"Point","coordinates":[-1.290509,50.747177]}},{"type":"Feature","properties":{"n":1,"res":2000},"geometry":{"type":"Point","coordinates":[-1.218504,50.742332]}},{"type":"Feature","properties":{"n":1,"res":2000},"geometry":{"type":"Point","coordinates":[-1.221419,50.769986]}},{"type":"Feature","properties":{"n":1,"res":2000},"geometry":{"type":"Point","coordinates":[-1.164962,50.737893]}},{"type":"Feature","properties":{"n":1,"res":2000},"geometry":{"type":"Point","coordinates":[-1.040102,49.923247]}},{"type":"Feature","properties":{"n":1,"res":2000},"geometry":{"type":"Point","coordinates":[-1.138652,50.643504]}},{"type":"Feature","properties":{"n":1,"res":2000},"geometry":{"type":"Point","coordinates":[-1.109868,50.658762]}},{"type":"Feature","properties":{"n":1,"res":2000},"geometry":{"type":"Point","coordinates":[-1.096124,50.670569]}},{"type":"Feature","properties":{"n":1,"res":2000},"geometry":{"type":"Point","coordinates":[-1.082089,50.643072]}},{"type":"Feature","properties":{"n":1,"res":2000},"geometry":{"type":"Point","coordinates":[-1.08173,50.661051]}},{"type":"Feature","properties":{"n":1,"res":2000},"geometry":{"type":"Point","coordinates":[-1.077196,50.675563]}},{"type":"Feature","properties":{"n":1,"res":2000},"geometry":{"type":"Point","coordinates":[-1.123052,50.724292]}},{"type":"Feature","properties":{"n":1,"res":2000},"geometry":{"type":"Point","coordinates":[-1.108328,50.751191]}},{"type":"Feature","properties":{"n":1,"res":2000},"geometry":{"type":"Point","coordinates":[-0.940282,50.659855]}},{"type":"Feature","properties":{"n":1,"res":2000},"geometry":{"type":"Point","coordinates":[-0.912407,50.641612]}},{"type":"Feature","properties":{"n":1,"res":2000},"geometry":{"type":"Point","coordinates":[-0.911576,50.677577]}},{"type":"Feature","properties":{"n":1,"res":2000},"geometry":{"type":"Point","coordinates":[-0.882849,50.695291]}},{"type":"Feature","properties":{"n":1,"res":2000},"geometry":{"type":"Point","coordinates":[-0.935535,50.787199]}},{"type":"Feature","properties":{"n":1,"res":2000},"geometry":{"type":"Point","coordinates":[-0.909909,50.749505]}},{"type":"Feature","properties":{"n":1,"res":2000},"geometry":{"type":"Point","coordinates":[-0.908879,50.793838]}},{"type":"Feature","properties":{"n":1,"res":2000},"geometry":{"type":"Point","coordinates":[-0.881566,50.749237]}},{"type":"Feature","properties":{"n":1,"res":2000},"geometry":{"type":"Point","coordinates":[-0.831136,50.496933]}},{"type":"Feature","properties":{"n":1,"res":2000},"geometry":{"type":"Point","coordinates":[-0.85585,50.641071]}},{"type":"Feature","properties":{"n":1,"res":2000},"geometry":{"type":"Point","coordinates":[-0.827572,50.64079]}},{"type":"Feature","properties":{"n":1,"res":2000},"geometry":{"type":"Point","coordinates":[-0.770078,50.67617]}},{"type":"Feature","properties":{"n":1,"res":2000},"geometry":{"type":"Point","coordinates":[-0.74178,50.675868]}},{"type":"Feature","properties":{"n":1,"res":2000},"geometry":{"type":"Point","coordinates":[-0.8541,50.712998]}},{"type":"Feature","properties":{"n":1,"res":2000},"geometry":{"type":"Point","coordinates":[-0.853661,50.73098]}},{"type":"Feature","properties":{"n":1,"res":2000},"geometry":{"type":"Point","coordinates":[-0.827397,50.745243]}},{"type":"Feature","properties":{"n":1,"res":2000},"geometry":{"type":"Point","coordinates":[-0.764872,50.764414]}},{"type":"Feature","properties":{"n":1,"res":2000},"geometry":{"type":"Point","coordinates":[-0.739733,50.747712]}},{"type":"Feature","properties":{"n":1,"res":2000},"geometry":{"type":"Point","coordinates":[-0.715444,50.603635]}},{"type":"Feature","properties":{"n":1,"res":2000},"geometry":{"type":"Point","coordinates":[-0.659447,50.585017]}},{"type":"Feature","properties":{"n":1,"res":2000},"geometry":{"type":"Point","coordinates":[-0.713482,50.675559]}},{"type":"Feature","properties":{"n":1,"res":2000},"geometry":{"type":"Point","coordinates":[-0.712005,50.729502]}},{"type":"Feature","properties":{"n":1,"res":2000},"geometry":{"type":"Point","coordinates":[-0.655861,50.710881]}},{"type":"Feature","properties":{"n":1,"res":2000},"geometry":{"type":"Point","coordinates":[-0.654317,50.764822]}},{"type":"Feature","properties":{"n":1,"res":2000},"geometry":{"type":"Point","coordinates":[-0.62479,50.781329]}},{"type":"Feature","properties":{"n":1,"res":2000},"geometry":{"type":"Point","coordinates":[-0.598153,50.746175]}},{"type":"Feature","properties":{"n":1,"res":2000},"geometry":{"type":"Point","coordinates":[-0.59699,50.782055]}},{"type":"Feature","properties":{"n":1,"res":2000},"geometry":{"type":"Point","coordinates":[-0.566456,50.794638]}},{"type":"Feature","properties":{"n":1,"res":2000},"geometry":{"type":"Point","coordinates":[-0.454649,50.795853]}},{"type":"Feature","properties":{"n":1,"res":2000},"geometry":{"type":"Point","coordinates":[-0.425855,50.796603]}},{"type":"Feature","properties":{"n":1,"res":2000},"geometry":{"type":"Point","coordinates":[-0.397751,50.797275]}},{"type":"Feature","properties":{"n":1,"res":2000},"geometry":{"type":"Point","coordinates":[-0.369589,50.797163]}},{"type":"Feature","properties":{"n":1,"res":2000},"geometry":{"type":"Point","coordinates":[-0.311509,50.813446]}},{"type":"Feature","properties":{"n":1,"res":2000},"geometry":{"type":"Point","coordinates":[-0.284492,50.795943]}},{"type":"Feature","properties":{"n":1,"res":2000},"geometry":{"type":"Point","coordinates":[-0.283834,50.81392]}},{"type":"Feature","properties":{"n":1,"res":2000},"geometry":{"type":"Point","coordinates":[-0.172796,50.822433]}},{"type":"Feature","properties":{"n":1,"res":2000},"geometry":{"type":"Point","coordinates":[-0.085958,50.792854]}},{"type":"Feature","properties":{"n":1,"res":2000},"geometry":{"type":"Point","coordinates":[-0.086314,50.805634]}},{"type":"Feature","properties":{"n":1,"res":2000},"geometry":{"type":"Point","coordinates":[-0.065911,50.803035]}},{"type":"Feature","properties":{"n":1,"res":2000},"geometry":{"type":"Point","coordinates":[-0.030596,50.789957]}},{"type":"Feature","properties":{"n":1,"res":2000},"geometry":{"type":"Point","coordinates":[0.020643,50.78345]}},{"type":"Feature","properties":{"n":1,"res":2000},"geometry":{"type":"Point","coordinates":[-0.572002,50.673911]}},{"type":"Feature","properties":{"n":1,"res":2000},"geometry":{"type":"Point","coordinates":[-0.48712,50.672841]}},{"type":"Feature","properties":{"n":1,"res":2000},"geometry":{"type":"Point","coordinates":[-0.540918,50.763459]}},{"type":"Feature","properties":{"n":1,"res":2000},"geometry":{"type":"Point","coordinates":[-0.514278,50.709163]}},{"type":"Feature","properties":{"n":1,"res":2000},"geometry":{"type":"Point","coordinates":[-0.51257,50.763101]}},{"type":"Feature","properties":{"n":1,"res":2000},"geometry":{"type":"Point","coordinates":[-0.483642,50.780715]}},{"type":"Feature","properties":{"n":1,"res":2000},"geometry":{"type":"Point","coordinates":[-0.456467,50.744386]}},{"type":"Feature","properties":{"n":1,"res":2000},"geometry":{"type":"Point","coordinates":[-0.428132,50.744007]}},{"type":"Feature","properties":{"n":1,"res":2000},"geometry":{"type":"Point","coordinates":[-0.427529,50.761986]}},{"type":"Feature","properties":{"n":1,"res":2000},"geometry":{"type":"Point","coordinates":[-0.399183,50.7616]}},{"type":"Feature","properties":{"n":1,"res":2000},"geometry":{"type":"Point","coordinates":[-0.39857,50.779578]}},{"type":"Feature","properties":{"n":1,"res":2000},"geometry":{"type":"Point","coordinates":[-0.342494,50.760808]}},{"type":"Feature","properties":{"n":1,"res":2000},"geometry":{"type":"Point","coordinates":[-0.28515,50.777966]}},{"type":"Feature","properties":{"n":1,"res":2000},"geometry":{"type":"Point","coordinates":[-0.045687,50.396455]}},{"type":"Feature","properties":{"n":1,"res":2000},"geometry":{"type":"Point","coordinates":[-0.115763,50.757365]}},{"type":"Feature","properties":{"n":1,"res":2000},"geometry":{"type":"Point","coordinates":[-0.003944,50.719529]}},{"type":"Feature","properties":{"n":1,"res":2000},"geometry":{"type":"Point","coordinates":[-0.003179,50.737504]}},{"type":"Feature","properties":{"n":1,"res":2000},"geometry":{"type":"Point","coordinates":[-0.001649,50.773452]}},{"type":"Feature","properties":{"n":1,"res":2000},"geometry":{"type":"Point","coordinates":[0.023596,50.701067]}},{"type":"Feature","properties":{"n":1,"res":2000},"geometry":{"type":"Point","coordinates":[0.025921,50.754989]}},{"type":"Feature","properties":{"n":1,"res":2000},"geometry":{"type":"Point","coordinates":[0.081242,50.77007]}},{"type":"Feature","properties":{"n":1,"res":2000},"geometry":{"type":"Point","coordinates":[0.102329,50.764897]}},{"type":"Feature","properties":{"n":1,"res":2000},"geometry":{"type":"Point","coordinates":[0.138434,50.734992]}}]}