{"type":"FeatureCollection","features":[{"type":"Feature","properties":{"n":2748,"res":10000},"geometry":{"type":"Point","coordinates":[-5.125705,49.978559]}},{"type":"Feature","properties":{"n":1509,"res":10000},"geometry":{"type":"Point","coordinates":[-5.543546,50.058531]}},{"type":"Feature","properties":{"n":989,"res":10000},"geometry":{"type":"Point","coordinates":[-5.441475,50.257442]}},{"type":"Feature","properties":{"n":943,"res":10000},"geometry":{"type":"Point","coordinates":[-5.293973,49.983951]}},{"type":"Feature","properties":{"n":566,"res":10000},"geometry":{"type":"Point","coordinates":[-4.901639,50.630786]}},{"type":"Feature","properties":{"n":479,"res":10000},"geometry":{"type":"Point","coordinates":[-5.724414,50.161583]}},{"type":"Feature","properties":{"n":370,"res":10000},"geometry":{"type":"Point","coordinates":[-5.051337,50.542308]}},{"type":"Feature","properties":{"n":365,"res":10000},"geometry":{"type":"Point","coordinates":[-5.005367,50.086862]}},{"type":"Feature","properties":{"n":327,"res":10000},"geometry":{"type":"Point","coordinates":[-5.317379,50.277926]}},{"type":"Feature","properties":{"n":308,"res":10000},"geometry":{"type":"Point","coordinates":[-5.008451,50.133004]}},{"type":"Feature","properties":{"n":297,"res":10000},"geometry":{"type":"Point","coordinates":[-5.304746,50.348003]}},{"type":"Feature","properties":{"n":284,"res":10000},"geometry":{"type":"Point","coordinates":[-5.725647,50.060636]}},{"type":"Feature","properties":{"n":270,"res":10000},"geometry":{"type":"Point","coordinates":[-5.17251,50.443262]}},{"type":"Feature","properties":{"n":138,"res":10000},"geometry":{"type":"Point","coordinates":[-3.466829,50.387516]}},{"type":"Feature","properties":{"n":119,"res":10000},"geometry":{"type":"Point","coordinates":[-5.430131,50.068846]}},{"type":"Feature","properties":{"n":113,"res":10000},"geometry":{"type":"Point","coordinates":[-4.942107,50.576876]}},{"type":"Feature","properties":{"n":97,"res":10000},"geometry":{"type":"Point","coordinates":[-1.369959,50.761082]}},{"type":"Feature","properties":{"n":91,"res":10000},"geometry":{"type":"Point","coordinates":[-5.071209,50.457555]}},{"type":"Feature","properties":{"n":87,"res":10000},"geometry":{"type":"Point","coordinates":[-4.438379,50.339822]}},{"type":"Feature","properties":{"n":87,"res":10000},"geometry":{"type":"Point","coordinates":[-3.587884,50.390877]}},{"type":"Feature","properties":{"n":85,"res":10000},"geometry":{"type":"Point","coordinates":[-3.467467,50.472283]}},{"type":"Feature","properties":{"n":76,"res":10000},"geometry":{"type":"Point","coordinates":[-3.553797,50.43893]}},{"type":"Feature","properties":{"n":72,"res":10000},"geometry":{"type":"Point","coordinates":[-1.338596,50.846889]}},{"type":"Feature","properties":{"n":71,"res":10000},"geometry":{"type":"Point","coordinates":[-5.196236,50.363255]}},{"type":"Feature","properties":{"n":67,"res":10000},"geometry":{"type":"Point","coordinates":[-5.111531,50.099885]}},{"type":"Feature","properties":{"n":65,"res":10000},"geometry":{"type":"Point","coordinates":[-2.495421,50.483107]}},{"type":"Feature","properties":{"n":58,"res":10000},"geometry":{"type":"Point","coordinates":[-3.451974,50.554053]}},{"type":"Feature","properties":{"n":57,"res":10000},"geometry":{"type":"Point","coordinates":[-4.723407,50.270463]}},{"type":"Feature","properties":{"n":49,"res":10000},"geometry":{"type":"Point","coordinates":[-5.615469,50.19119]}},{"type":"Feature","properties":{"n":49,"res":10000},"geometry":{"type":"Point","coordinates":[-5.440572,50.199742]}},{"type":"Feature","properties":{"n":43,"res":10000},"geometry":{"type":"Point","coordinates":[-3.443431,50.644444]}},{"type":"Feature","properties":{"n":40,"res":10000},"geometry":{"type":"Point","coordinates":[-4.628891,50.815599]}},{"type":"Feature","properties":{"n":40,"res":10000},"geometry":{"type":"Point","coordinates":[0.189164,50.718203]}},{"type":"Feature","properties":{"n":39,"res":10000},"geometry":{"type":"Point","coordinates":[-2.048859,50.707909]}},{"type":"Feature","properties":{"n":38,"res":10000},"geometry":{"type":"Point","coordinates":[-4.038963,50.27463]}},{"type":"Feature","properties":{"n":37,"res":10000},"geometry":{"type":"Point","coordinates":[-4.765668,50.722904]}},{"type":"Feature","properties":{"n":35,"res":10000},"geometry":{"type":"Point","coordinates":[-5.320853,50.057355]}},{"type":"Feature","properties":{"n":32,"res":10000},"geometry":{"type":"Point","coordinates":[-4.497587,51.040263]}},{"type":"Feature","properties":{"n":31,"res":10000},"geometry":{"type":"Point","coordinates":[-4.718188,50.328601]}},{"type":"Feature","properties":{"n":29,"res":10000},"geometry":{"type":"Point","coordinates":[-4.160339,50.332833]}},{"type":"Feature","properties":{"n":28,"res":10000},"geometry":{"type":"Point","coordinates":[-4.661575,50.743963]}},{"type":"Feature","properties":{"n":24,"res":10000},"geometry":{"type":"Point","coordinates":[-5.580001,50.251087]}},{"type":"Feature","properties":{"n":24,"res":10000},"geometry":{"type":"Point","coordinates":[-2.517889,50.565553]}},{"type":"Feature","properties":{"n":24,"res":10000},"geometry":{"type":"Point","coordinates":[-1.491942,50.732729]}},{"type":"Feature","properties":{"n":23,"res":10000},"geometry":{"type":"Point","coordinates":[-1.25701,50.81021]}},{"type":"Feature","properties":{"n":22,"res":10000},"geometry":{"type":"Point","coordinates":[-3.609084,50.201857]}},{"type":"Feature","properties":{"n":21,"res":10000},"geometry":{"type":"Point","coordinates":[-0.797256,50.720274]}},{"type":"Feature","properties":{"n":19,"res":10000},"geometry":{"type":"Point","coordinates":[-4.732456,50.182687]}},{"type":"Feature","properties":{"n":19,"res":10000},"geometry":{"type":"Point","coordinates":[-4.797861,50.6415]}},{"type":"Feature","properties":{"n":19,"res":10000},"geometry":{"type":"Point","coordinates":[-1.511396,50.640704]}},{"type":"Feature","properties":{"n":18,"res":10000},"geometry":{"type":"Point","coordinates":[-4.32645,50.342996]}},{"type":"Feature","properties":{"n":18,"res":10000},"geometry":{"type":"Point","coordinates":[-1.216883,50.560499]}},{"type":"Feature","properties":{"n":17,"res":10000},"geometry":{"type":"Point","coordinates":[-4.868876,50.17648]}},{"type":"Feature","properties":{"n":17,"res":10000},"geometry":{"type":"Point","coordinates":[-0.357253,50.800655]}},{"type":"Feature","properties":{"n":17,"res":10000},"geometry":{"type":"Point","coordinates":[0.050648,50.734598]}},{"type":"Feature","properties":{"n":16,"res":10000},"geometry":{"type":"Point","coordinates":[-4.176816,50.282875]}},{"type":"Feature","properties":{"n":16,"res":10000},"geometry":{"type":"Point","coordinates":[-1.925148,50.571069]}},{"type":"Feature","properties":{"n":15,"res":10000},"geometry":{"type":"Point","coordinates":[-4.554781,50.831604]}},{"type":"Feature","properties":{"n":14,"res":10000},"geometry":{"type":"Point","coordinates":[-5.697502,49.976179]}},{"type":"Feature","properties":{"n":14,"res":10000},"geometry":{"type":"Point","coordinates":[-1.917616,50.66884]}},{"type":"Feature","properties":{"n":13,"res":10000},"geometry":{"type":"Point","coordinates":[-3.754217,50.187437]}},{"type":"Feature","properties":{"n":13,"res":10000},"geometry":{"type":"Point","coordinates":[-1.074486,50.747529]}},{"type":"Feature","properties":{"n":12,"res":10000},"geometry":{"type":"Point","coordinates":[-4.633191,50.904814]}},{"type":"Feature","properties":{"n":12,"res":10000},"geometry":{"type":"Point","coordinates":[-5.558315,49.980537]}},{"type":"Feature","properties":{"n":11,"res":10000},"geometry":{"type":"Point","coordinates":[-5.001119,49.996231]}},{"type":"Feature","properties":{"n":11,"res":10000},"geometry":{"type":"Point","coordinates":[-5.04189,50.247757]}},{"type":"Feature","properties":{"n":11,"res":10000},"geometry":{"type":"Point","coordinates":[-1.372695,50.568501]}},{"type":"Feature","properties":{"n":10,"res":10000},"geometry":{"type":"Point","coordinates":[-5.975773,49.966962]}},{"type":"Feature","properties":{"n":9,"res":10000},"geometry":{"type":"Point","coordinates":[-0.944039,50.817365]}},{"type":"Feature","properties":{"n":9,"res":10000},"geometry":{"type":"Point","coordinates":[-5.089241,50.166653]}},{"type":"Feature","properties":{"n":9,"res":10000},"geometry":{"type":"Point","coordinates":[-3.592039,50.284928]}},{"type":"Feature","properties":{"n":9,"res":10000},"geometry":{"type":"Point","coordinates":[-0.098349,50.797509]}},{"type":"Feature","properties":{"n":8,"res":10000},"geometry":{"type":"Point","coordinates":[-4.245008,51.087616]}},{"type":"Feature","properties":{"n":8,"res":10000},"geometry":{"type":"Point","coordinates":[-0.94053,50.744212]}},{"type":"Feature","properties":{"n":7,"res":10000},"geometry":{"type":"Point","coordinates":[-1.119303,50.829712]}},{"type":"Feature","properties":{"n":7,"res":10000},"geometry":{"type":"Point","coordinates":[-4.593197,50.323015]}},{"type":"Feature","properties":{"n":7,"res":10000},"geometry":{"type":"Point","coordinates":[-3.337673,50.38718]}},{"type":"Feature","properties":{"n":7,"res":10000},"geometry":{"type":"Point","coordinates":[-2.81542,50.713403]}},{"type":"Feature","properties":{"n":7,"res":10000},"geometry":{"type":"Point","coordinates":[-1.217543,50.76667]}},{"type":"Feature","properties":{"n":7,"res":10000},"geometry":{"type":"Point","coordinates":[-0.228434,50.806668]}},{"type":"Feature","properties":{"n":6,"res":10000},"geometry":{"type":"Point","coordinates":[-5.836655,49.971654]}},{"type":"Feature","properties":{"n":6,"res":10000},"geometry":{"type":"Point","coordinates":[-3.475284,50.295432]}},{"type":"Feature","properties":{"n":6,"res":10000},"geometry":{"type":"Point","coordinates":[-2.076608,50.562149]}},{"type":"Feature","properties":{"n":6,"res":10000},"geometry":{"type":"Point","coordinates":[-1.986214,50.719974]}},{"type":"Feature","properties":{"n":6,"res":10000},"geometry":{"type":"Point","coordinates":[-1.778023,50.717344]}},{"type":"Feature","properties":{"n":6,"res":10000},"geometry":{"type":"Point","coordinates":[-0.508292,50.801159]}},{"type":"Feature","properties":{"n":6,"res":10000},"geometry":{"type":"Point","coordinates":[0.001499,50.785593]}},{"type":"Feature","properties":{"n":5,"res":10000},"geometry":{"type":"Point","coordinates":[-2.353706,50.574448]}},{"type":"Feature","properties":{"n":5,"res":10000},"geometry":{"type":"Point","coordinates":[-1.658349,50.72069]}},{"type":"Feature","properties":{"n":4,"res":10000},"geometry":{"type":"Point","coordinates":[-4.554724,50.937616]}},{"type":"Feature","properties":{"n":4,"res":10000},"geometry":{"type":"Point","coordinates":[-4.115914,51.091018]}},{"type":"Feature","properties":{"n":4,"res":10000},"geometry":{"type":"Point","coordinates":[-1.44659,50.903272]}},{"type":"Feature","properties":{"n":4,"res":10000},"geometry":{"type":"Point","coordinates":[-6.114852,49.962104]}},{"type":"Feature","properties":{"n":4,"res":10000},"geometry":{"type":"Point","coordinates":[-4.847211,50.229391]}},{"type":"Feature","properties":{"n":4,"res":10000},"geometry":{"type":"Point","coordinates":[-3.920226,50.270734]}},{"type":"Feature","properties":{"n":4,"res":10000},"geometry":{"type":"Point","coordinates":[-3.303452,50.625751]}},{"type":"Feature","properties":{"n":4,"res":10000},"geometry":{"type":"Point","coordinates":[-2.903358,50.717202]}},{"type":"Feature","properties":{"n":4,"res":10000},"geometry":{"type":"Point","coordinates":[-1.070982,50.654633]}},{"type":"Feature","properties":{"n":3,"res":10000},"geometry":{"type":"Point","coordinates":[-4.198761,50.445306]}},{"type":"Feature","properties":{"n":3,"res":10000},"geometry":{"type":"Point","coordinates":[-3.200586,50.647261]}},{"type":"Feature","properties":{"n":3,"res":10000},"geometry":{"type":"Point","coordinates":[-3.059893,50.656097]}},{"type":"Feature","properties":{"n":3,"res":10000},"geometry":{"type":"Point","coordinates":[-2.202585,50.620676]}},{"type":"Feature","properties":{"n":3,"res":10000},"geometry":{"type":"Point","coordinates":[-2.042419,50.716372]}},{"type":"Feature","properties":{"n":3,"res":10000},"geometry":{"type":"Point","coordinates":[-0.651801,50.743246]}},{"type":"Feature","properties":{"n":2,"res":10000},"geometry":{"type":"Point","coordinates":[-4.266951,51.037467]}},{"type":"Feature","properties":{"n":2,"res":10000},"geometry":{"type":"Point","coordinates":[-1.416182,50.895349]}},{"type":"Feature","properties":{"n":2,"res":10000},"geometry":{"type":"Point","coordinates":[-5.829528,49.881916]}},{"type":"Feature","properties":{"n":2,"res":10000},"geometry":{"type":"Point","coordinates":[-5.843819,50.061389]}},{"type":"Feature","properties":{"n":2,"res":10000},"geometry":{"type":"Point","coordinates":[-4.597684,50.275891]}},{"type":"Feature","properties":{"n":2,"res":10000},"geometry":{"type":"Point","coordinates":[-3.89568,50.19759]}},{"type":"Feature","properties":{"n":2,"res":10000},"geometry":{"type":"Point","coordinates":[-3.509857,50.700533]}},{"type":"Feature","properties":{"n":2,"res":10000},"geometry":{"type":"Point","coordinates":[-2.653693,50.643876]}},{"type":"Feature","properties":{"n":2,"res":10000},"geometry":{"type":"Point","coordinates":[-0.547048,50.914091]}},{"type":"Feature","properties":{"n":1,"res":10000},"geometry":{"type":"Point","coordinates":[-5.968388,49.877239]}},{"type":"Feature","properties":{"n":1,"res":10000},"geometry":{"type":"Point","coordinates":[-5.591886,50.429335]}},{"type":"Feature","properties":{"n":1,"res":10000},"geometry":{"type":"Point","coordinates":[-5.3234,50.61724]}},{"type":"Feature","properties":{"n":1,"res":10000},"geometry":{"type":"Point","coordinates":[-5.134717,49.902808]}},{"type":"Feature","properties":{"n":1,"res":10000},"geometry":{"type":"Point","coordinates":[-5.070043,50.399071]}},{"type":"Feature","properties":{"n":1,"res":10000},"geometry":{"type":"Point","coordinates":[-4.100353,50.378019]}},{"type":"Feature","properties":{"n":1,"res":10000},"geometry":{"type":"Point","coordinates":[-3.472728,50.205671]}},{"type":"Feature","properties":{"n":1,"res":10000},"geometry":{"type":"Point","coordinates":[-3.332639,50.207363]}},{"type":"Feature","properties":{"n":1,"res":10000},"geometry":{"type":"Point","coordinates":[-3.33515,50.297272]}},{"type":"Feature","properties":{"n":1,"res":10000},"geometry":{"type":"Point","coordinates":[-3.342435,50.566583]}},{"type":"Feature","properties":{"n":1,"res":10000},"geometry":{"type":"Point","coordinates":[-2.781132,50.660892]}},{"type":"Feature","properties":{"n":1,"res":10000},"geometry":{"type":"Point","coordinates":[-2.433993,50.624758]}},{"type":"Feature","properties":{"n":1,"res":10000},"geometry":{"type":"Point","coordinates":[-2.370448,50.625807]}},{"type":"Feature","properties":{"n":1,"res":10000},"geometry":{"type":"Point","coordinates":[-2.214066,50.573386]}},{"type":"Feature","properties":{"n":1,"res":10000},"geometry":{"type":"Point","coordinates":[-1.647732,50.664134]}},{"type":"Feature","properties":{"n":1,"res":10000},"geometry":{"type":"Point","coordinates":[-1.161658,50.631765]}}]}