{"type":"FeatureCollection","features":[{"type":"Feature","properties":{"n":117,"res":10000},"geometry":{"type":"Point","coordinates":[-1.119303,50.829712]}},{"type":"Feature","properties":{"n":106,"res":10000},"geometry":{"type":"Point","coordinates":[-1.338596,50.846889]}},{"type":"Feature","properties":{"n":90,"res":10000},"geometry":{"type":"Point","coordinates":[-1.369959,50.761082]}},{"type":"Feature","properties":{"n":76,"res":10000},"geometry":{"type":"Point","coordinates":[-2.048859,50.707909]}},{"type":"Feature","properties":{"n":57,"res":10000},"geometry":{"type":"Point","coordinates":[-3.443431,50.644444]}},{"type":"Feature","properties":{"n":48,"res":10000},"geometry":{"type":"Point","coordinates":[-1.917616,50.66884]}},{"type":"Feature","properties":{"n":43,"res":10000},"geometry":{"type":"Point","coordinates":[-0.797256,50.720274]}},{"type":"Feature","properties":{"n":35,"res":10000},"geometry":{"type":"Point","coordinates":[-1.25701,50.81021]}},{"type":"Feature","properties":{"n":27,"res":10000},"geometry":{"type":"Point","coordinates":[-0.944039,50.817365]}},{"type":"Feature","properties":{"n":24,"res":10000},"geometry":{"type":"Point","coordinates":[-0.228434,50.806668]}},{"type":"Feature","properties":{"n":23,"res":10000},"geometry":{"type":"Point","coordinates":[-1.416182,50.895349]}},{"type":"Feature","properties":{"n":22,"res":10000},"geometry":{"type":"Point","coordinates":[-3.451974,50.554053]}},{"type":"Feature","properties":{"n":22,"res":10000},"geometry":{"type":"Point","coordinates":[-2.042419,50.716372]}},{"type":"Feature","properties":{"n":22,"res":10000},"geometry":{"type":"Point","coordinates":[-1.491942,50.732729]}},{"type":"Feature","properties":{"n":21,"res":10000},"geometry":{"type":"Point","coordinates":[-1.074486,50.747529]}},{"type":"Feature","properties":{"n":14,"res":10000},"geometry":{"type":"Point","coordinates":[-4.593197,50.323015]}},{"type":"Feature","properties":{"n":14,"res":10000},"geometry":{"type":"Point","coordinates":[-3.587884,50.390877]}},{"type":"Feature","properties":{"n":14,"res":10000},"geometry":{"type":"Point","coordinates":[-3.466829,50.387516]}},{"type":"Feature","properties":{"n":13,"res":10000},"geometry":{"type":"Point","coordinates":[-1.986214,50.719974]}},{"type":"Feature","properties":{"n":12,"res":10000},"geometry":{"type":"Point","coordinates":[-5.441475,50.257442]}},{"type":"Feature","properties":{"n":11,"res":10000},"geometry":{"type":"Point","coordinates":[-5.008451,50.133004]}},{"type":"Feature","properties":{"n":11,"res":10000},"geometry":{"type":"Point","coordinates":[0.189164,50.718203]}},{"type":"Feature","properties":{"n":9,"res":10000},"geometry":{"type":"Point","coordinates":[-1.217543,50.76667]}},{"type":"Feature","properties":{"n":8,"res":10000},"geometry":{"type":"Point","coordinates":[-5.543546,50.058531]}},{"type":"Feature","properties":{"n":8,"res":10000},"geometry":{"type":"Point","coordinates":[-1.511396,50.640704]}},{"type":"Feature","properties":{"n":8,"res":10000},"geometry":{"type":"Point","coordinates":[-0.94053,50.744212]}},{"type":"Feature","properties":{"n":7,"res":10000},"geometry":{"type":"Point","coordinates":[-1.925148,50.571069]}},{"type":"Feature","properties":{"n":7,"res":10000},"geometry":{"type":"Point","coordinates":[-0.098349,50.797509]}},{"type":"Feature","properties":{"n":6,"res":10000},"geometry":{"type":"Point","coordinates":[-5.725647,50.060636]}},{"type":"Feature","properties":{"n":6,"res":10000},"geometry":{"type":"Point","coordinates":[-4.438379,50.339822]}},{"type":"Feature","properties":{"n":5,"res":10000},"geometry":{"type":"Point","coordinates":[-5.724414,50.161583]}},{"type":"Feature","properties":{"n":5,"res":10000},"geometry":{"type":"Point","coordinates":[-5.440572,50.199742]}},{"type":"Feature","properties":{"n":5,"res":10000},"geometry":{"type":"Point","coordinates":[-2.495421,50.483107]}},{"type":"Feature","properties":{"n":5,"res":10000},"geometry":{"type":"Point","coordinates":[-2.517889,50.565553]}},{"type":"Feature","properties":{"n":5,"res":10000},"geometry":{"type":"Point","coordinates":[-0.508292,50.801159]}},{"type":"Feature","properties":{"n":4,"res":10000},"geometry":{"type":"Point","coordinates":[-0.547048,50.914091]}},{"type":"Feature","properties":{"n":4,"res":10000},"geometry":{"type":"Point","coordinates":[-0.305215,50.934333]}},{"type":"Feature","properties":{"n":4,"res":10000},"geometry":{"type":"Point","coordinates":[0.001499,50.785593]}},{"type":"Feature","properties":{"n":3,"res":10000},"geometry":{"type":"Point","coordinates":[-1.44659,50.903272]}},{"type":"Feature","properties":{"n":3,"res":10000},"geometry":{"type":"Point","coordinates":[-5.430131,50.068846]}},{"type":"Feature","properties":{"n":3,"res":10000},"geometry":{"type":"Point","coordinates":[-5.293973,49.983951]}},{"type":"Feature","properties":{"n":3,"res":10000},"geometry":{"type":"Point","coordinates":[-5.125705,49.978559]}},{"type":"Feature","properties":{"n":3,"res":10000},"geometry":{"type":"Point","coordinates":[-5.051337,50.542308]}},{"type":"Feature","properties":{"n":3,"res":10000},"geometry":{"type":"Point","coordinates":[-4.723407,50.270463]}},{"type":"Feature","properties":{"n":3,"res":10000},"geometry":{"type":"Point","coordinates":[-3.553797,50.43893]}},{"type":"Feature","properties":{"n":3,"res":10000},"geometry":{"type":"Point","coordinates":[-3.467467,50.472283]}},{"type":"Feature","properties":{"n":3,"res":10000},"geometry":{"type":"Point","coordinates":[-2.433993,50.624758]}},{"type":"Feature","properties":{"n":3,"res":10000},"geometry":{"type":"Point","coordinates":[-1.658349,50.72069]}},{"type":"Feature","properties":{"n":3,"res":10000},"geometry":{"type":"Point","coordinates":[-1.372695,50.568501]}},{"type":"Feature","properties":{"n":3,"res":10000},"geometry":{"type":"Point","coordinates":[0.050648,50.734598]}},{"type":"Feature","properties":{"n":2,"res":10000},"geometry":{"type":"Point","coordinates":[-0.848694,50.803625]}},{"type":"Feature","properties":{"n":2,"res":10000},"geometry":{"type":"Point","coordinates":[-5.615469,50.19119]}},{"type":"Feature","properties":{"n":2,"res":10000},"geometry":{"type":"Point","coordinates":[-5.071209,50.457555]}},{"type":"Feature","properties":{"n":2,"res":10000},"geometry":{"type":"Point","coordinates":[-3.592039,50.284928]}},{"type":"Feature","properties":{"n":1,"res":10000},"geometry":{"type":"Point","coordinates":[-4.115914,51.091018]}},{"type":"Feature","properties":{"n":1,"res":10000},"geometry":{"type":"Point","coordinates":[-5.975773,49.966962]}},{"type":"Feature","properties":{"n":1,"res":10000},"geometry":{"type":"Point","coordinates":[-5.320853,50.057355]}},{"type":"Feature","properties":{"n":1,"res":10000},"geometry":{"type":"Point","coordinates":[-5.111531,50.099885]}},{"type":"Feature","properties":{"n":1,"res":10000},"geometry":{"type":"Point","coordinates":[-5.17251,50.443262]}},{"type":"Feature","properties":{"n":1,"res":10000},"geometry":{"type":"Point","coordinates":[-5.04189,50.247757]}},{"type":"Feature","properties":{"n":1,"res":10000},"geometry":{"type":"Point","coordinates":[-4.868876,50.17648]}},{"type":"Feature","properties":{"n":1,"res":10000},"geometry":{"type":"Point","coordinates":[-4.942107,50.576876]}},{"type":"Feature","properties":{"n":1,"res":10000},"geometry":{"type":"Point","coordinates":[-4.718188,50.328601]}},{"type":"Feature","properties":{"n":1,"res":10000},"geometry":{"type":"Point","coordinates":[-4.797861,50.6415]}},{"type":"Feature","properties":{"n":1,"res":10000},"geometry":{"type":"Point","coordinates":[-4.160339,50.332833]}},{"type":"Feature","properties":{"n":1,"res":10000},"geometry":{"type":"Point","coordinates":[-4.198761,50.445306]}},{"type":"Feature","properties":{"n":1,"res":10000},"geometry":{"type":"Point","coordinates":[-4.038963,50.27463]}},{"type":"Feature","properties":{"n":1,"res":10000},"geometry":{"type":"Point","coordinates":[-3.89568,50.19759]}},{"type":"Feature","properties":{"n":1,"res":10000},"geometry":{"type":"Point","coordinates":[-3.609084,50.201857]}},{"type":"Feature","properties":{"n":1,"res":10000},"geometry":{"type":"Point","coordinates":[-3.303452,50.625751]}},{"type":"Feature","properties":{"n":1,"res":10000},"geometry":{"type":"Point","coordinates":[-3.059893,50.656097]}},{"type":"Feature","properties":{"n":1,"res":10000},"geometry":{"type":"Point","coordinates":[-2.635622,50.483069]}},{"type":"Feature","properties":{"n":1,"res":10000},"geometry":{"type":"Point","coordinates":[-2.353706,50.574448]}},{"type":"Feature","properties":{"n":1,"res":10000},"geometry":{"type":"Point","coordinates":[-2.370448,50.625807]}},{"type":"Feature","properties":{"n":1,"res":10000},"geometry":{"type":"Point","coordinates":[-2.076608,50.562149]}},{"type":"Feature","properties":{"n":1,"res":10000},"geometry":{"type":"Point","coordinates":[-1.778023,50.717344]}},{"type":"Feature","properties":{"n":1,"res":10000},"geometry":{"type":"Point","coordinates":[-1.070982,50.654633]}},{"type":"Feature","properties":{"n":1,"res":10000},"geometry":{"type":"Point","coordinates":[-0.357253,50.800655]}},{"type":"Feature","properties":{"n":1,"res":10000},"geometry":{"type":"Point","coordinates":[0.009426,50.879235]}}]}