{"type":"FeatureCollection","features":[{"type":"Feature","properties":{"n":162,"res":10000},"geometry":{"type":"Point","coordinates":[-5.543546,50.058531]}},{"type":"Feature","properties":{"n":109,"res":10000},"geometry":{"type":"Point","coordinates":[-5.005367,50.086862]}},{"type":"Feature","properties":{"n":97,"res":10000},"geometry":{"type":"Point","coordinates":[-4.901639,50.630786]}},{"type":"Feature","properties":{"n":79,"res":10000},"geometry":{"type":"Point","coordinates":[-5.558315,49.980537]}},{"type":"Feature","properties":{"n":45,"res":10000},"geometry":{"type":"Point","coordinates":[-5.697502,49.976179]}},{"type":"Feature","properties":{"n":45,"res":10000},"geometry":{"type":"Point","coordinates":[-5.430131,50.068846]}},{"type":"Feature","properties":{"n":39,"res":10000},"geometry":{"type":"Point","coordinates":[-4.867252,50.089651]}},{"type":"Feature","properties":{"n":38,"res":10000},"geometry":{"type":"Point","coordinates":[-5.441475,50.257442]}},{"type":"Feature","properties":{"n":38,"res":10000},"geometry":{"type":"Point","coordinates":[-5.304746,50.348003]}},{"type":"Feature","properties":{"n":37,"res":10000},"geometry":{"type":"Point","coordinates":[-5.125705,49.978559]}},{"type":"Feature","properties":{"n":32,"res":10000},"geometry":{"type":"Point","coordinates":[-5.725647,50.060636]}},{"type":"Feature","properties":{"n":25,"res":10000},"geometry":{"type":"Point","coordinates":[-5.008451,50.133004]}},{"type":"Feature","properties":{"n":23,"res":10000},"geometry":{"type":"Point","coordinates":[-4.868876,50.17648]}},{"type":"Feature","properties":{"n":21,"res":10000},"geometry":{"type":"Point","coordinates":[-5.001119,49.996231]}},{"type":"Feature","properties":{"n":11,"res":10000},"geometry":{"type":"Point","coordinates":[-4.176816,50.282875]}},{"type":"Feature","properties":{"n":9,"res":10000},"geometry":{"type":"Point","coordinates":[-5.724414,50.161583]}},{"type":"Feature","properties":{"n":9,"res":10000},"geometry":{"type":"Point","coordinates":[-5.419094,49.984729]}},{"type":"Feature","properties":{"n":9,"res":10000},"geometry":{"type":"Point","coordinates":[-5.17251,50.443262]}},{"type":"Feature","properties":{"n":8,"res":10000},"geometry":{"type":"Point","coordinates":[-5.196236,50.363255]}},{"type":"Feature","properties":{"n":7,"res":10000},"geometry":{"type":"Point","coordinates":[-4.723407,50.270463]}},{"type":"Feature","properties":{"n":6,"res":10000},"geometry":{"type":"Point","coordinates":[-5.836655,49.971654]}},{"type":"Feature","properties":{"n":6,"res":10000},"geometry":{"type":"Point","coordinates":[-5.071209,50.457555]}},{"type":"Feature","properties":{"n":6,"res":10000},"geometry":{"type":"Point","coordinates":[-4.797861,50.6415]}},{"type":"Feature","properties":{"n":5,"res":10000},"geometry":{"type":"Point","coordinates":[-5.975773,49.966962]}},{"type":"Feature","properties":{"n":5,"res":10000},"geometry":{"type":"Point","coordinates":[-5.041117,50.624958]}},{"type":"Feature","properties":{"n":5,"res":10000},"geometry":{"type":"Point","coordinates":[-4.861902,49.999826]}},{"type":"Feature","properties":{"n":5,"res":10000},"geometry":{"type":"Point","coordinates":[-4.172937,50.19468]}},{"type":"Feature","properties":{"n":5,"res":10000},"geometry":{"type":"Point","coordinates":[-4.038963,50.27463]}},{"type":"Feature","properties":{"n":4,"res":10000},"geometry":{"type":"Point","coordinates":[-6.114852,49.962104]}},{"type":"Feature","properties":{"n":4,"res":10000},"geometry":{"type":"Point","coordinates":[-4.727624,50.093018]}},{"type":"Feature","properties":{"n":4,"res":10000},"geometry":{"type":"Point","coordinates":[-4.732456,50.182687]}},{"type":"Feature","properties":{"n":3,"res":10000},"geometry":{"type":"Point","coordinates":[-5.690632,49.886427]}},{"type":"Feature","properties":{"n":3,"res":10000},"geometry":{"type":"Point","coordinates":[-5.293973,49.983951]}},{"type":"Feature","properties":{"n":3,"res":10000},"geometry":{"type":"Point","coordinates":[-5.317379,50.277926]}},{"type":"Feature","properties":{"n":3,"res":10000},"geometry":{"type":"Point","coordinates":[-5.134717,49.902808]}},{"type":"Feature","properties":{"n":3,"res":10000},"geometry":{"type":"Point","coordinates":[-4.597684,50.275891]}},{"type":"Feature","properties":{"n":3,"res":10000},"geometry":{"type":"Point","coordinates":[-4.312922,50.191976]}},{"type":"Feature","properties":{"n":2,"res":10000},"geometry":{"type":"Point","coordinates":[-6.122531,50.051809]}},{"type":"Feature","properties":{"n":2,"res":10000},"geometry":{"type":"Point","coordinates":[-5.829528,49.881916]}},{"type":"Feature","properties":{"n":2,"res":10000},"geometry":{"type":"Point","coordinates":[-5.615469,50.19119]}},{"type":"Feature","properties":{"n":2,"res":10000},"geometry":{"type":"Point","coordinates":[-5.440572,50.199742]}},{"type":"Feature","properties":{"n":2,"res":10000},"geometry":{"type":"Point","coordinates":[-5.320853,50.057355]}},{"type":"Feature","properties":{"n":2,"res":10000},"geometry":{"type":"Point","coordinates":[-5.051337,50.542308]}},{"type":"Feature","properties":{"n":2,"res":10000},"geometry":{"type":"Point","coordinates":[-5.04693,50.714759]}},{"type":"Feature","properties":{"n":2,"res":10000},"geometry":{"type":"Point","coordinates":[-4.593197,50.323015]}},{"type":"Feature","properties":{"n":2,"res":10000},"geometry":{"type":"Point","coordinates":[-4.452886,50.189103]}},{"type":"Feature","properties":{"n":2,"res":10000},"geometry":{"type":"Point","coordinates":[-4.438379,50.339822]}},{"type":"Feature","properties":{"n":2,"res":10000},"geometry":{"type":"Point","coordinates":[-3.920226,50.270734]}},{"type":"Feature","properties":{"n":2,"res":10000},"geometry":{"type":"Point","coordinates":[-1.161658,50.631765]}},{"type":"Feature","properties":{"n":1,"res":10000},"geometry":{"type":"Point","coordinates":[-6.107212,49.872396]}},{"type":"Feature","properties":{"n":1,"res":10000},"geometry":{"type":"Point","coordinates":[-5.968388,49.877239]}},{"type":"Feature","properties":{"n":1,"res":10000},"geometry":{"type":"Point","coordinates":[-5.580001,50.251087]}},{"type":"Feature","properties":{"n":1,"res":10000},"geometry":{"type":"Point","coordinates":[-5.451358,50.433593]}},{"type":"Feature","properties":{"n":1,"res":10000},"geometry":{"type":"Point","coordinates":[-5.273743,49.898962]}},{"type":"Feature","properties":{"n":1,"res":10000},"geometry":{"type":"Point","coordinates":[-5.111531,50.099885]}},{"type":"Feature","properties":{"n":1,"res":10000},"geometry":{"type":"Point","coordinates":[-5.188356,50.710973]}},{"type":"Feature","properties":{"n":1,"res":10000},"geometry":{"type":"Point","coordinates":[-4.765668,50.722904]}},{"type":"Feature","properties":{"n":1,"res":10000},"geometry":{"type":"Point","coordinates":[-4.457503,50.278954]}},{"type":"Feature","properties":{"n":1,"res":10000},"geometry":{"type":"Point","coordinates":[-4.29999,49.922383]}},{"type":"Feature","properties":{"n":1,"res":10000},"geometry":{"type":"Point","coordinates":[-3.472728,50.205671]}},{"type":"Feature","properties":{"n":1,"res":10000},"geometry":{"type":"Point","coordinates":[-3.33515,50.297272]}},{"type":"Feature","properties":{"n":1,"res":10000},"geometry":{"type":"Point","coordinates":[-2.636832,50.572993]}},{"type":"Feature","properties":{"n":1,"res":10000},"geometry":{"type":"Point","coordinates":[-1.216883,50.560499]}}]}