{"type":"FeatureCollection","features":[{"type":"Feature","properties":{"n":10,"res":10000},"geometry":{"type":"Point","coordinates":[-1.917616,50.66884]}},{"type":"Feature","properties":{"n":6,"res":10000},"geometry":{"type":"Point","coordinates":[-5.008451,50.133004]}},{"type":"Feature","properties":{"n":4,"res":10000},"geometry":{"type":"Point","coordinates":[-2.517889,50.565553]}},{"type":"Feature","properties":{"n":3,"res":10000},"geometry":{"type":"Point","coordinates":[-4.718188,50.328601]}},{"type":"Feature","properties":{"n":1,"res":10000},"geometry":{"type":"Point","coordinates":[-1.338596,50.846889]}},{"type":"Feature","properties":{"n":1,"res":10000},"geometry":{"type":"Point","coordinates":[-0.944039,50.817365]}},{"type":"Feature","properties":{"n":1,"res":10000},"geometry":{"type":"Point","coordinates":[-3.467467,50.472283]}},{"type":"Feature","properties":{"n":1,"res":10000},"geometry":{"type":"Point","coordinates":[-1.986214,50.719974]}},{"type":"Feature","properties":{"n":1,"res":10000},"geometry":{"type":"Point","coordinates":[-0.098349,50.797509]}}]}