{"type":"FeatureCollection","features":[{"type":"Feature","properties":{"n":10,"res":10000},"geometry":{"type":"Point","coordinates":[-3.467467,50.472283]}},{"type":"Feature","properties":{"n":6,"res":10000},"geometry":{"type":"Point","coordinates":[-0.797256,50.720274]}},{"type":"Feature","properties":{"n":5,"res":10000},"geometry":{"type":"Point","coordinates":[-1.917616,50.66884]}},{"type":"Feature","properties":{"n":3,"res":10000},"geometry":{"type":"Point","coordinates":[-0.651801,50.743246]}},{"type":"Feature","properties":{"n":3,"res":10000},"geometry":{"type":"Point","coordinates":[-0.098349,50.797509]}},{"type":"Feature","properties":{"n":2,"res":10000},"geometry":{"type":"Point","coordinates":[-0.944039,50.817365]}},{"type":"Feature","properties":{"n":1,"res":10000},"geometry":{"type":"Point","coordinates":[-1.338596,50.846889]}},{"type":"Feature","properties":{"n":1,"res":10000},"geometry":{"type":"Point","coordinates":[-1.273729,50.898548]}},{"type":"Feature","properties":{"n":1,"res":10000},"geometry":{"type":"Point","coordinates":[-1.119303,50.829712]}},{"type":"Feature","properties":{"n":1,"res":10000},"geometry":{"type":"Point","coordinates":[-5.17251,50.443262]}},{"type":"Feature","properties":{"n":1,"res":10000},"geometry":{"type":"Point","coordinates":[-5.008451,50.133004]}},{"type":"Feature","properties":{"n":1,"res":10000},"geometry":{"type":"Point","coordinates":[-5.071209,50.457555]}},{"type":"Feature","properties":{"n":1,"res":10000},"geometry":{"type":"Point","coordinates":[-5.051337,50.542308]}},{"type":"Feature","properties":{"n":1,"res":10000},"geometry":{"type":"Point","coordinates":[-4.160339,50.332833]}},{"type":"Feature","properties":{"n":1,"res":10000},"geometry":{"type":"Point","coordinates":[-1.511396,50.640704]}},{"type":"Feature","properties":{"n":1,"res":10000},"geometry":{"type":"Point","coordinates":[-1.412938,50.626338]}},{"type":"Feature","properties":{"n":1,"res":10000},"geometry":{"type":"Point","coordinates":[-1.161658,50.631765]}},{"type":"Feature","properties":{"n":1,"res":10000},"geometry":{"type":"Point","coordinates":[-1.070982,50.654633]}},{"type":"Feature","properties":{"n":1,"res":10000},"geometry":{"type":"Point","coordinates":[-0.94053,50.744212]}},{"type":"Feature","properties":{"n":1,"res":10000},"geometry":{"type":"Point","coordinates":[-0.228434,50.806668]}},{"type":"Feature","properties":{"n":1,"res":10000},"geometry":{"type":"Point","coordinates":[-0.091808,50.649044]}}]}