{"type":"FeatureCollection","features":[{"type":"Feature","properties":{"n":22,"res":2000},"geometry":{"type":"Point","coordinates":[-5.038705,50.157572]}},{"type":"Feature","properties":{"n":14,"res":2000},"geometry":{"type":"Point","coordinates":[-5.117646,50.098422]}},{"type":"Feature","properties":{"n":13,"res":2000},"geometry":{"type":"Point","coordinates":[-5.038292,50.175888]}},{"type":"Feature","properties":{"n":7,"res":2000},"geometry":{"type":"Point","coordinates":[-4.15158,50.355431]}},{"type":"Feature","properties":{"n":7,"res":2000},"geometry":{"type":"Point","coordinates":[-2.156762,50.592622]}},{"type":"Feature","properties":{"n":6,"res":2000},"geometry":{"type":"Point","coordinates":[-5.089048,50.099559]}},{"type":"Feature","properties":{"n":5,"res":2000},"geometry":{"type":"Point","coordinates":[-3.558931,50.329456]}},{"type":"Feature","properties":{"n":4,"res":2000},"geometry":{"type":"Point","coordinates":[-2.433988,50.624762]}},{"type":"Feature","properties":{"n":4,"res":2000},"geometry":{"type":"Point","coordinates":[-1.648311,50.574212]}},{"type":"Feature","properties":{"n":4,"res":2000},"geometry":{"type":"Point","coordinates":[-0.712005,50.729502]}},{"type":"Feature","properties":{"n":4,"res":2000},"geometry":{"type":"Point","coordinates":[-0.711513,50.747482]}},{"type":"Feature","properties":{"n":3,"res":2000},"geometry":{"type":"Point","coordinates":[-5.037757,50.138933]}},{"type":"Feature","properties":{"n":3,"res":2000},"geometry":{"type":"Point","coordinates":[-5.011006,50.155979]}},{"type":"Feature","properties":{"n":3,"res":2000},"geometry":{"type":"Point","coordinates":[-4.15141,50.339]}},{"type":"Feature","properties":{"n":3,"res":2000},"geometry":{"type":"Point","coordinates":[-4.130399,50.338833]}},{"type":"Feature","properties":{"n":3,"res":2000},"geometry":{"type":"Point","coordinates":[-3.757405,50.23975]}},{"type":"Feature","properties":{"n":3,"res":2000},"geometry":{"type":"Point","coordinates":[-2.437833,50.610077]}},{"type":"Feature","properties":{"n":3,"res":2000},"geometry":{"type":"Point","coordinates":[-2.26978,50.592415]}},{"type":"Feature","properties":{"n":3,"res":2000},"geometry":{"type":"Point","coordinates":[-1.928751,50.627273]}},{"type":"Feature","properties":{"n":3,"res":2000},"geometry":{"type":"Point","coordinates":[-0.283834,50.81392]}},{"type":"Feature","properties":{"n":2,"res":2000},"geometry":{"type":"Point","coordinates":[-5.062822,50.196885]}},{"type":"Feature","properties":{"n":2,"res":2000},"geometry":{"type":"Point","coordinates":[-5.022957,50.177048]}},{"type":"Feature","properties":{"n":2,"res":2000},"geometry":{"type":"Point","coordinates":[-4.12174,50.303564]}},{"type":"Feature","properties":{"n":2,"res":2000},"geometry":{"type":"Point","coordinates":[-3.981611,50.301954]}},{"type":"Feature","properties":{"n":2,"res":2000},"geometry":{"type":"Point","coordinates":[-3.72614,50.200216]}},{"type":"Feature","properties":{"n":2,"res":2000},"geometry":{"type":"Point","coordinates":[-3.757694,50.2563]}},{"type":"Feature","properties":{"n":2,"res":2000},"geometry":{"type":"Point","coordinates":[-2.609287,50.627105]}},{"type":"Feature","properties":{"n":2,"res":2000},"geometry":{"type":"Point","coordinates":[-2.41087,50.574026]}},{"type":"Feature","properties":{"n":2,"res":2000},"geometry":{"type":"Point","coordinates":[-2.184244,50.394735]}},{"type":"Feature","properties":{"n":2,"res":2000},"geometry":{"type":"Point","coordinates":[-2.242058,50.609297]}},{"type":"Feature","properties":{"n":2,"res":2000},"geometry":{"type":"Point","coordinates":[-1.950789,50.613665]}},{"type":"Feature","properties":{"n":2,"res":2000},"geometry":{"type":"Point","coordinates":[-1.477061,50.735441]}},{"type":"Feature","properties":{"n":2,"res":2000},"geometry":{"type":"Point","coordinates":[-1.108669,50.733208]}},{"type":"Feature","properties":{"n":2,"res":2000},"geometry":{"type":"Point","coordinates":[-0.854132,50.748304]}},{"type":"Feature","properties":{"n":2,"res":2000},"geometry":{"type":"Point","coordinates":[-0.712498,50.711521]}},{"type":"Feature","properties":{"n":2,"res":2000},"geometry":{"type":"Point","coordinates":[-0.057683,50.792329]}},{"type":"Feature","properties":{"n":2,"res":2000},"geometry":{"type":"Point","coordinates":[0.081242,50.77007]}},{"type":"Feature","properties":{"n":1,"res":2000},"geometry":{"type":"Point","coordinates":[-1.389054,50.879031]}},{"type":"Feature","properties":{"n":1,"res":2000},"geometry":{"type":"Point","coordinates":[-1.355328,50.848301]}},{"type":"Feature","properties":{"n":1,"res":2000},"geometry":{"type":"Point","coordinates":[-1.327817,50.828199]}},{"type":"Feature","properties":{"n":1,"res":2000},"geometry":{"type":"Point","coordinates":[-5.381672,50.246222]}},{"type":"Feature","properties":{"n":1,"res":2000},"geometry":{"type":"Point","coordinates":[-5.246946,50.313694]}},{"type":"Feature","properties":{"n":1,"res":2000},"geometry":{"type":"Point","coordinates":[-5.087762,50.088835]}},{"type":"Feature","properties":{"n":1,"res":2000},"geometry":{"type":"Point","coordinates":[-5.059249,50.068004]}},{"type":"Feature","properties":{"n":1,"res":2000},"geometry":{"type":"Point","coordinates":[-4.981166,50.122769]}},{"type":"Feature","properties":{"n":1,"res":2000},"geometry":{"type":"Point","coordinates":[-5.063521,50.137232]}},{"type":"Feature","properties":{"n":1,"res":2000},"geometry":{"type":"Point","coordinates":[-5.06444,50.158621]}},{"type":"Feature","properties":{"n":1,"res":2000},"geometry":{"type":"Point","coordinates":[-5.04209,50.192704]}},{"type":"Feature","properties":{"n":1,"res":2000},"geometry":{"type":"Point","coordinates":[-4.982233,50.140701]}},{"type":"Feature","properties":{"n":1,"res":2000},"geometry":{"type":"Point","coordinates":[-5.016305,50.227936]}},{"type":"Feature","properties":{"n":1,"res":2000},"geometry":{"type":"Point","coordinates":[-5.009441,50.571817]}},{"type":"Feature","properties":{"n":1,"res":2000},"geometry":{"type":"Point","coordinates":[-4.900804,50.196311]}},{"type":"Feature","properties":{"n":1,"res":2000},"geometry":{"type":"Point","coordinates":[-4.574049,50.325916]}},{"type":"Feature","properties":{"n":1,"res":2000},"geometry":{"type":"Point","coordinates":[-4.405041,50.352017]}},{"type":"Feature","properties":{"n":1,"res":2000},"geometry":{"type":"Point","coordinates":[-4.127768,50.357103]}},{"type":"Feature","properties":{"n":1,"res":2000},"geometry":{"type":"Point","coordinates":[-4.093552,50.304051]}},{"type":"Feature","properties":{"n":1,"res":2000},"geometry":{"type":"Point","coordinates":[-4.03661,50.286271]}},{"type":"Feature","properties":{"n":1,"res":2000},"geometry":{"type":"Point","coordinates":[-3.8656,50.21802]}},{"type":"Feature","properties":{"n":1,"res":2000},"geometry":{"type":"Point","coordinates":[-3.868798,50.234688]}},{"type":"Feature","properties":{"n":1,"res":2000},"geometry":{"type":"Point","coordinates":[-3.870126,50.254092]}},{"type":"Feature","properties":{"n":1,"res":2000},"geometry":{"type":"Point","coordinates":[-3.696002,50.202119]}},{"type":"Feature","properties":{"n":1,"res":2000},"geometry":{"type":"Point","coordinates":[-3.670252,50.216408]}},{"type":"Feature","properties":{"n":1,"res":2000},"geometry":{"type":"Point","coordinates":[-3.640142,50.221134]}},{"type":"Feature","properties":{"n":1,"res":2000},"geometry":{"type":"Point","coordinates":[-3.61341,50.221797]}},{"type":"Feature","properties":{"n":1,"res":2000},"geometry":{"type":"Point","coordinates":[-3.587177,50.276122]}},{"type":"Feature","properties":{"n":1,"res":2000},"geometry":{"type":"Point","coordinates":[-3.478241,50.385453]}},{"type":"Feature","properties":{"n":1,"res":2000},"geometry":{"type":"Point","coordinates":[-3.502388,50.479447]}},{"type":"Feature","properties":{"n":1,"res":2000},"geometry":{"type":"Point","coordinates":[-3.42553,50.600417]}},{"type":"Feature","properties":{"n":1,"res":2000},"geometry":{"type":"Point","coordinates":[-3.314528,50.567321]}},{"type":"Feature","properties":{"n":1,"res":2000},"geometry":{"type":"Point","coordinates":[-2.893376,50.697217]}},{"type":"Feature","properties":{"n":1,"res":2000},"geometry":{"type":"Point","coordinates":[-2.92201,50.71496]}},{"type":"Feature","properties":{"n":1,"res":2000},"geometry":{"type":"Point","coordinates":[-2.807506,50.643886]}},{"type":"Feature","properties":{"n":1,"res":2000},"geometry":{"type":"Point","coordinates":[-2.551896,50.555448]}},{"type":"Feature","properties":{"n":1,"res":2000},"geometry":{"type":"Point","coordinates":[-2.500364,50.588515]}},{"type":"Feature","properties":{"n":1,"res":2000},"geometry":{"type":"Point","coordinates":[-2.472692,50.57083]}},{"type":"Feature","properties":{"n":1,"res":2000},"geometry":{"type":"Point","coordinates":[-2.451399,50.556567]}},{"type":"Feature","properties":{"n":1,"res":2000},"geometry":{"type":"Point","coordinates":[-2.408497,50.556688]}},{"type":"Feature","properties":{"n":1,"res":2000},"geometry":{"type":"Point","coordinates":[-2.326413,50.610256]}},{"type":"Feature","properties":{"n":1,"res":2000},"geometry":{"type":"Point","coordinates":[-2.298148,50.610332]}},{"type":"Feature","properties":{"n":1,"res":2000},"geometry":{"type":"Point","coordinates":[-2.411442,50.627084]}},{"type":"Feature","properties":{"n":1,"res":2000},"geometry":{"type":"Point","coordinates":[-2.383743,50.62718]}},{"type":"Feature","properties":{"n":1,"res":2000},"geometry":{"type":"Point","coordinates":[-2.328796,50.623767]}},{"type":"Feature","properties":{"n":1,"res":2000},"geometry":{"type":"Point","coordinates":[-2.213271,50.592532]}},{"type":"Feature","properties":{"n":1,"res":2000},"geometry":{"type":"Point","coordinates":[-2.213065,50.61033]}},{"type":"Feature","properties":{"n":1,"res":2000},"geometry":{"type":"Point","coordinates":[-2.186198,50.609537]}},{"type":"Feature","properties":{"n":1,"res":2000},"geometry":{"type":"Point","coordinates":[-2.015482,50.574741]}},{"type":"Feature","properties":{"n":1,"res":2000},"geometry":{"type":"Point","coordinates":[-1.930688,50.610695]}},{"type":"Feature","properties":{"n":1,"res":2000},"geometry":{"type":"Point","coordinates":[-1.92986,50.647868]}},{"type":"Feature","properties":{"n":1,"res":2000},"geometry":{"type":"Point","coordinates":[-1.930207,50.664436]}},{"type":"Feature","properties":{"n":1,"res":2000},"geometry":{"type":"Point","coordinates":[-1.874117,50.628632]}},{"type":"Feature","properties":{"n":1,"res":2000},"geometry":{"type":"Point","coordinates":[-1.873973,50.682588]}},{"type":"Feature","properties":{"n":1,"res":2000},"geometry":{"type":"Point","coordinates":[-1.789047,50.682466]}},{"type":"Feature","properties":{"n":1,"res":2000},"geometry":{"type":"Point","coordinates":[-1.763002,50.712291]}},{"type":"Feature","properties":{"n":1,"res":2000},"geometry":{"type":"Point","coordinates":[-1.704122,50.682281]}},{"type":"Feature","properties":{"n":1,"res":2000},"geometry":{"type":"Point","coordinates":[-1.452525,50.721886]}},{"type":"Feature","properties":{"n":1,"res":2000},"geometry":{"type":"Point","coordinates":[-1.412822,50.718769]}},{"type":"Feature","properties":{"n":1,"res":2000},"geometry":{"type":"Point","coordinates":[-1.331591,50.787334]}},{"type":"Feature","properties":{"n":1,"res":2000},"geometry":{"type":"Point","coordinates":[-1.22171,50.752007]}},{"type":"Feature","properties":{"n":1,"res":2000},"geometry":{"type":"Point","coordinates":[-1.08173,50.661051]}},{"type":"Feature","properties":{"n":1,"res":2000},"geometry":{"type":"Point","coordinates":[-1.079981,50.750971]}},{"type":"Feature","properties":{"n":1,"res":2000},"geometry":{"type":"Point","coordinates":[-1.05236,50.714778]}},{"type":"Feature","properties":{"n":1,"res":2000},"geometry":{"type":"Point","coordinates":[-0.997246,50.642373]}},{"type":"Feature","properties":{"n":1,"res":2000},"geometry":{"type":"Point","coordinates":[-0.968179,50.678091]}},{"type":"Feature","properties":{"n":1,"res":2000},"geometry":{"type":"Point","coordinates":[-0.713973,50.657578]}},{"type":"Feature","properties":{"n":1,"res":2000},"geometry":{"type":"Point","coordinates":[-0.685185,50.675243]}},{"type":"Feature","properties":{"n":1,"res":2000},"geometry":{"type":"Point","coordinates":[-0.684683,50.693224]}},{"type":"Feature","properties":{"n":1,"res":2000},"geometry":{"type":"Point","coordinates":[-0.599226,50.710215]}},{"type":"Feature","properties":{"n":1,"res":2000},"geometry":{"type":"Point","coordinates":[-0.280462,50.824495]}},{"type":"Feature","properties":{"n":1,"res":2000},"geometry":{"type":"Point","coordinates":[-0.114318,50.793315]}},{"type":"Feature","properties":{"n":1,"res":2000},"geometry":{"type":"Point","coordinates":[-0.11493,50.808308]}},{"type":"Feature","properties":{"n":1,"res":2000},"geometry":{"type":"Point","coordinates":[-0.085958,50.792854]}},{"type":"Feature","properties":{"n":1,"res":2000},"geometry":{"type":"Point","coordinates":[-0.086314,50.805634]}},{"type":"Feature","properties":{"n":1,"res":2000},"geometry":{"type":"Point","coordinates":[-0.513709,50.727143]}},{"type":"Feature","properties":{"n":1,"res":2000},"geometry":{"type":"Point","coordinates":[-0.428734,50.726028]}},{"type":"Feature","properties":{"n":1,"res":2000},"geometry":{"type":"Point","coordinates":[-0.39857,50.779578]}},{"type":"Feature","properties":{"n":1,"res":2000},"geometry":{"type":"Point","coordinates":[-0.31415,50.760402]}},{"type":"Feature","properties":{"n":1,"res":2000},"geometry":{"type":"Point","coordinates":[0.026618,50.772903]}},{"type":"Feature","properties":{"n":1,"res":2000},"geometry":{"type":"Point","coordinates":[0.055151,50.7723]}}]}