{"type":"FeatureCollection","features":[{"type":"Feature","properties":{"n":9,"res":10000},"geometry":{"type":"Point","coordinates":[-0.9423,50.569935]}},{"type":"Feature","properties":{"n":3,"res":10000},"geometry":{"type":"Point","coordinates":[-1.648311,50.574205]}},{"type":"Feature","properties":{"n":3,"res":10000},"geometry":{"type":"Point","coordinates":[-1.083487,50.571132]}},{"type":"Feature","properties":{"n":3,"res":10000},"geometry":{"type":"Point","coordinates":[-0.940282,50.659848]}},{"type":"Feature","properties":{"n":2,"res":10000},"geometry":{"type":"Point","coordinates":[-1.338596,50.846889]}},{"type":"Feature","properties":{"n":2,"res":10000},"geometry":{"type":"Point","coordinates":[-1.917616,50.66884]}},{"type":"Feature","properties":{"n":1,"res":10000},"geometry":{"type":"Point","coordinates":[-5.304746,50.348003]}},{"type":"Feature","properties":{"n":1,"res":10000},"geometry":{"type":"Point","coordinates":[-5.196236,50.363255]}},{"type":"Feature","properties":{"n":1,"res":10000},"geometry":{"type":"Point","coordinates":[-5.071209,50.457555]}},{"type":"Feature","properties":{"n":1,"res":10000},"geometry":{"type":"Point","coordinates":[-4.172937,50.19468]}},{"type":"Feature","properties":{"n":1,"res":10000},"geometry":{"type":"Point","coordinates":[-4.160339,50.332833]}},{"type":"Feature","properties":{"n":1,"res":10000},"geometry":{"type":"Point","coordinates":[-2.767846,49.942655]}},{"type":"Feature","properties":{"n":1,"res":10000},"geometry":{"type":"Point","coordinates":[-1.217543,50.76667]}}]}