{"type":"FeatureCollection","features":[{"type":"Feature","properties":{"n":4,"res":2000},"geometry":{"type":"Point","coordinates":[-1.930688,50.610695]}},{"type":"Feature","properties":{"n":4,"res":2000},"geometry":{"type":"Point","coordinates":[-1.928751,50.627273]}},{"type":"Feature","properties":{"n":3,"res":2000},"geometry":{"type":"Point","coordinates":[-3.090732,50.659564]}},{"type":"Feature","properties":{"n":3,"res":2000},"geometry":{"type":"Point","coordinates":[-2.451399,50.556567]}},{"type":"Feature","properties":{"n":3,"res":2000},"geometry":{"type":"Point","coordinates":[-1.987237,50.574742]}},{"type":"Feature","properties":{"n":3,"res":2000},"geometry":{"type":"Point","coordinates":[-1.902394,50.628659]}},{"type":"Feature","properties":{"n":3,"res":2000},"geometry":{"type":"Point","coordinates":[-0.283834,50.81392]}},{"type":"Feature","properties":{"n":2,"res":2000},"geometry":{"type":"Point","coordinates":[-2.156762,50.592622]}},{"type":"Feature","properties":{"n":2,"res":2000},"geometry":{"type":"Point","coordinates":[-2.07533,50.588906]}},{"type":"Feature","properties":{"n":2,"res":2000},"geometry":{"type":"Point","coordinates":[-1.948267,50.650781]}},{"type":"Feature","properties":{"n":2,"res":2000},"geometry":{"type":"Point","coordinates":[-1.338464,50.590157]}},{"type":"Feature","properties":{"n":2,"res":2000},"geometry":{"type":"Point","coordinates":[-0.940282,50.659855]}},{"type":"Feature","properties":{"n":2,"res":2000},"geometry":{"type":"Point","coordinates":[-0.428132,50.744007]}},{"type":"Feature","properties":{"n":1,"res":2000},"geometry":{"type":"Point","coordinates":[-5.14135,50.004592]}},{"type":"Feature","properties":{"n":1,"res":2000},"geometry":{"type":"Point","coordinates":[-2.808123,50.679853]}},{"type":"Feature","properties":{"n":1,"res":2000},"geometry":{"type":"Point","coordinates":[-2.3536,50.466289]}},{"type":"Feature","properties":{"n":1,"res":2000},"geometry":{"type":"Point","coordinates":[-2.411442,50.627084]}},{"type":"Feature","properties":{"n":1,"res":2000},"geometry":{"type":"Point","coordinates":[-2.01401,50.587031]}},{"type":"Feature","properties":{"n":1,"res":2000},"geometry":{"type":"Point","coordinates":[-1.950789,50.613665]}},{"type":"Feature","properties":{"n":1,"res":2000},"geometry":{"type":"Point","coordinates":[-1.874165,50.610646]}},{"type":"Feature","properties":{"n":1,"res":2000},"geometry":{"type":"Point","coordinates":[-1.92986,50.647868]}},{"type":"Feature","properties":{"n":1,"res":2000},"geometry":{"type":"Point","coordinates":[-1.902356,50.646644]}},{"type":"Feature","properties":{"n":1,"res":2000},"geometry":{"type":"Point","coordinates":[-1.902319,50.66463]}},{"type":"Feature","properties":{"n":1,"res":2000},"geometry":{"type":"Point","coordinates":[-1.64764,50.664139]}},{"type":"Feature","properties":{"n":1,"res":2000},"geometry":{"type":"Point","coordinates":[-1.54523,50.686372]}},{"type":"Feature","properties":{"n":1,"res":2000},"geometry":{"type":"Point","coordinates":[-1.396117,50.623681]}},{"type":"Feature","properties":{"n":1,"res":2000},"geometry":{"type":"Point","coordinates":[-1.22171,50.752007]}},{"type":"Feature","properties":{"n":1,"res":2000},"geometry":{"type":"Point","coordinates":[-1.08173,50.661051]}},{"type":"Feature","properties":{"n":1,"res":2000},"geometry":{"type":"Point","coordinates":[-1.079981,50.750971]}},{"type":"Feature","properties":{"n":1,"res":2000},"geometry":{"type":"Point","coordinates":[-0.881994,50.731255]}},{"type":"Feature","properties":{"n":1,"res":2000},"geometry":{"type":"Point","coordinates":[-0.711513,50.747482]}},{"type":"Feature","properties":{"n":1,"res":2000},"geometry":{"type":"Point","coordinates":[-0.280462,50.824495]}},{"type":"Feature","properties":{"n":1,"res":2000},"geometry":{"type":"Point","coordinates":[-0.199402,50.79466]}},{"type":"Feature","properties":{"n":1,"res":2000},"geometry":{"type":"Point","coordinates":[-0.19871,50.812637]}},{"type":"Feature","properties":{"n":1,"res":2000},"geometry":{"type":"Point","coordinates":[-0.057683,50.792329]}},{"type":"Feature","properties":{"n":1,"res":2000},"geometry":{"type":"Point","coordinates":[-0.400409,50.725643]}}]}